{"type":"FeatureCollection","features":[{"type":"Feature","geometry":{"type":"Point","coordinates":[140.158694,35.5554231]},"properties":{"id":288470178,"amenity":"drinking_water"}},{"type":"Feature","geometry":{"type":"Point","coordinates":[140.2902114,35.4323596]},"properties":{"id":604451595,"amenity":"drinking_water"}},{"type":"Feature","geometry":{"type":"Point","coordinates":[140.2813072,35.4243499]},"properties":{"id":604458802,"amenity":"drinking_water"}},{"type":"Feature","geometry":{"type":"Point","coordinates":[139.8931979,35.7877225]},"properties":{"id":765048681,"amenity":"drinking_water","name":"川の一里塚（樋野口）"}},{"type":"Feature","geometry":{"type":"Point","coordinates":[140.097061,35.6629725]},"properties":{"id":765900501,"amenity":"drinking_water"}},{"type":"Feature","geometry":{"type":"Point","coordinates":[140.0955839,35.664516]},"properties":{"id":765900502,"amenity":"drinking_water"}},{"type":"Feature","geometry":{"type":"Point","coordinates":[139.9369608,35.8950015]},"properties":{"id":801765260,"amenity":"drinking_water"}},{"type":"Feature","geometry":{"type":"Point","coordinates":[140.2570591,35.525665]},"properties":{"id":1271808230,"amenity":"drinking_water"}},{"type":"Feature","geometry":{"type":"Point","coordinates":[140.2639454,35.5213639]},"properties":{"id":1271808307,"amenity":"drinking_water"}},{"type":"Feature","geometry":{"type":"Point","coordinates":[139.9138951,35.6494037]},"properties":{"id":1334546724,"amenity":"drinking_water"}},{"type":"Feature","geometry":{"type":"Point","coordinates":[139.944091,35.782364]},"properties":{"id":1405240621,"amenity":"drinking_water"}},{"type":"Feature","geometry":{"type":"Point","coordinates":[139.950264,35.777484]},"properties":{"id":1405304027,"amenity":"drinking_water"}},{"type":"Feature","geometry":{"type":"Point","coordinates":[140.0566011,35.6284954]},"properties":{"id":1562547034,"amenity":"drinking_water"}},{"type":"Feature","geometry":{"type":"Point","coordinates":[140.0610595,35.6184703]},"properties":{"id":1569268508,"amenity":"drinking_water"}},{"type":"Feature","geometry":{"type":"Point","coordinates":[140.0624448,35.6194641]},"properties":{"id":1570998805,"amenity":"drinking_water"}},{"type":"Feature","geometry":{"type":"Point","coordinates":[139.9741135,35.7185633]},"properties":{"id":1775826726,"amenity":"drinking_water"}},{"type":"Feature","geometry":{"type":"Point","coordinates":[139.9732583,35.7191785]},"properties":{"id":1775826739,"amenity":"drinking_water"}},{"type":"Feature","geometry":{"type":"Point","coordinates":[139.9701127,35.7200496]},"properties":{"id":1775826774,"amenity":"drinking_water"}},{"type":"Feature","geometry":{"type":"Point","coordinates":[140.0639598,35.6166236]},"properties":{"id":2057406839,"amenity":"drinking_water"}},{"type":"Feature","geometry":{"type":"Point","coordinates":[140.065221,35.641939]},"properties":{"id":2168460402,"amenity":"drinking_water"}},{"type":"Feature","geometry":{"type":"Point","coordinates":[140.046733,35.649669]},"properties":{"id":2180682219,"amenity":"drinking_water","source":"survey"}},{"type":"Feature","geometry":{"type":"Point","coordinates":[140.04555,35.6495]},"properties":{"id":2180696974,"amenity":"drinking_water","source":"SURVEY"}},{"type":"Feature","geometry":{"type":"Point","coordinates":[140.044877,35.648103]},"properties":{"id":2180700593,"amenity":"drinking_water","source":"survey"}},{"type":"Feature","geometry":{"type":"Point","coordinates":[140.045323,35.647612]},"properties":{"id":2180701058,"amenity":"drinking_water","source":"survey"}},{"type":"Feature","geometry":{"type":"Point","coordinates":[140.044567,35.647879]},"properties":{"id":2180702822,"amenity":"drinking_water","source":"SURVEY"}},{"type":"Feature","geometry":{"type":"Point","coordinates":[140.046094,35.649089]},"properties":{"id":2180706150,"amenity":"drinking_water","source":"survey"}},{"type":"Feature","geometry":{"type":"Point","coordinates":[140.044221,35.645457]},"properties":{"id":2180714494,"amenity":"drinking_water","source":"survey"}},{"type":"Feature","geometry":{"type":"Point","coordinates":[140.042563,35.643475]},"properties":{"id":2180728431,"amenity":"drinking_water","source":"survey"}},{"type":"Feature","geometry":{"type":"Point","coordinates":[140.043524,35.646601]},"properties":{"id":2180739003,"amenity":"drinking_water","source":"survey"}},{"type":"Feature","geometry":{"type":"Point","coordinates":[140.042974,35.646078]},"properties":{"id":2180746675,"amenity":"drinking_water","check_date":"2023-08-31","man_made":"water_tap"}},{"type":"Feature","geometry":{"type":"Point","coordinates":[140.040144,35.642888]},"properties":{"id":2182962659,"amenity":"drinking_water"}},{"type":"Feature","geometry":{"type":"Point","coordinates":[140.040776,35.643369]},"properties":{"id":2182969212,"amenity":"drinking_water","source":"bing;survey"}},{"type":"Feature","geometry":{"type":"Point","coordinates":[140.0392918,35.6427227]},"properties":{"id":2182978645,"amenity":"drinking_water","source":"bing;survey"}},{"type":"Feature","geometry":{"type":"Point","coordinates":[140.047351,35.643141]},"properties":{"id":2236880598,"amenity":"drinking_water"}},{"type":"Feature","geometry":{"type":"Point","coordinates":[140.051653,35.641153]},"properties":{"id":2236979736,"amenity":"drinking_water"}},{"type":"Feature","geometry":{"type":"Point","coordinates":[139.972621,35.710261]},"properties":{"id":2251795307,"amenity":"drinking_water","source":"survey"}},{"type":"Feature","geometry":{"type":"Point","coordinates":[140.041671,35.64141]},"properties":{"id":2253858457,"amenity":"drinking_water","source":"survey"}},{"type":"Feature","geometry":{"type":"Point","coordinates":[140.037986,35.655812]},"properties":{"id":2254033286,"amenity":"drinking_water"}},{"type":"Feature","geometry":{"type":"Point","coordinates":[140.082224,35.646782]},"properties":{"id":2275131290,"amenity":"drinking_water"}},{"type":"Feature","geometry":{"type":"Point","coordinates":[139.965735,35.704937]},"properties":{"id":2282739249,"amenity":"drinking_water"}},{"type":"Feature","geometry":{"type":"Point","coordinates":[139.890105,35.630141]},"properties":{"id":2301984298,"amenity":"drinking_water","source":"survey","wheelchair":"yes"}},{"type":"Feature","geometry":{"type":"Point","coordinates":[139.889608,35.630102]},"properties":{"id":2301987028,"amenity":"drinking_water"}},{"type":"Feature","geometry":{"type":"Point","coordinates":[140.060531,35.651643]},"properties":{"id":2319092242,"amenity":"drinking_water"}},{"type":"Feature","geometry":{"type":"Point","coordinates":[140.05688,35.645665]},"properties":{"id":2319098998,"amenity":"drinking_water"}},{"type":"Feature","geometry":{"type":"Point","coordinates":[140.055233,35.64398]},"properties":{"id":2319099482,"amenity":"drinking_water"}},{"type":"Feature","geometry":{"type":"Point","coordinates":[140.051109,35.640064]},"properties":{"id":2319101385,"amenity":"drinking_water"}},{"type":"Feature","geometry":{"type":"Point","coordinates":[140.044349,35.64095]},"properties":{"id":2319107339,"amenity":"drinking_water"}},{"type":"Feature","geometry":{"type":"Point","coordinates":[140.005455,35.67444]},"properties":{"id":2319137921,"amenity":"drinking_water"}},{"type":"Feature","geometry":{"type":"Point","coordinates":[140.00429,35.686236]},"properties":{"id":2319185124,"amenity":"drinking_water"}},{"type":"Feature","geometry":{"type":"Point","coordinates":[140.0048704,35.6848972]},"properties":{"id":2319193550,"amenity":"drinking_water"}},{"type":"Feature","geometry":{"type":"Point","coordinates":[139.892813,35.669124]},"properties":{"id":2522804888,"amenity":"drinking_water"}},{"type":"Feature","geometry":{"type":"Point","coordinates":[140.0522976,35.6583701]},"properties":{"id":2672658210,"amenity":"drinking_water"}},{"type":"Feature","geometry":{"type":"Point","coordinates":[139.9177258,35.6562425]},"properties":{"id":2689846321,"amenity":"drinking_water"}},{"type":"Feature","geometry":{"type":"Point","coordinates":[139.9169667,35.6568092]},"properties":{"id":2689846322,"amenity":"drinking_water"}},{"type":"Feature","geometry":{"type":"Point","coordinates":[140.0575707,35.7680657]},"properties":{"id":2916245890,"amenity":"drinking_water"}},{"type":"Feature","geometry":{"type":"Point","coordinates":[140.5016546,35.8894636]},"properties":{"id":2925530102,"amenity":"drinking_water","covered":"no"}},{"type":"Feature","geometry":{"type":"Point","coordinates":[140.501466,35.8895836]},"properties":{"id":2925530301,"amenity":"drinking_water","covered":"yes"}},{"type":"Feature","geometry":{"type":"Point","coordinates":[139.917892,35.8216096]},"properties":{"id":3092005106,"amenity":"drinking_water"}},{"type":"Feature","geometry":{"type":"Point","coordinates":[139.97938,35.700715]},"properties":{"id":3125772822,"amenity":"drinking_water"}},{"type":"Feature","geometry":{"type":"Point","coordinates":[139.97353,35.700721]},"properties":{"id":3125772823,"amenity":"drinking_water"}},{"type":"Feature","geometry":{"type":"Point","coordinates":[139.97774,35.707976]},"properties":{"id":3125784330,"amenity":"drinking_water"}},{"type":"Feature","geometry":{"type":"Point","coordinates":[139.98121,35.709895]},"properties":{"id":3134441260,"amenity":"drinking_water"}},{"type":"Feature","geometry":{"type":"Point","coordinates":[139.9883151,35.7043135]},"properties":{"id":3149058805,"amenity":"drinking_water"}},{"type":"Feature","geometry":{"type":"Point","coordinates":[139.9846,35.705225]},"properties":{"id":3149058807,"amenity":"drinking_water"}},{"type":"Feature","geometry":{"type":"Point","coordinates":[140.1651011,35.6237772]},"properties":{"id":3307651139,"amenity":"drinking_water"}},{"type":"Feature","geometry":{"type":"Point","coordinates":[139.99616,35.707407]},"properties":{"id":3377016212,"amenity":"drinking_water"}},{"type":"Feature","geometry":{"type":"Point","coordinates":[139.8704111,35.096665]},"properties":{"id":3500677360,"amenity":"drinking_water"}},{"type":"Feature","geometry":{"type":"Point","coordinates":[140.0417272,35.672705]},"properties":{"id":3591743831,"amenity":"drinking_water"}},{"type":"Feature","geometry":{"type":"Point","coordinates":[140.2958843,35.4219657]},"properties":{"id":3927318544,"amenity":"drinking_water"}},{"type":"Feature","geometry":{"type":"Point","coordinates":[139.9430964,35.8464229]},"properties":{"id":4146188547,"amenity":"drinking_water"}},{"type":"Feature","geometry":{"type":"Point","coordinates":[139.9465013,35.8497022]},"properties":{"id":4146188549,"amenity":"drinking_water"}},{"type":"Feature","geometry":{"type":"Point","coordinates":[139.9481854,35.8388126]},"properties":{"id":4161487499,"amenity":"drinking_water"}},{"type":"Feature","geometry":{"type":"Point","coordinates":[140.1169581,35.6318624]},"properties":{"id":4164190990,"amenity":"drinking_water"}},{"type":"Feature","geometry":{"type":"Point","coordinates":[139.8999098,35.7908433]},"properties":{"id":4167383706,"amenity":"drinking_water"}},{"type":"Feature","geometry":{"type":"Point","coordinates":[139.9000761,35.7862612]},"properties":{"id":4167401976,"amenity":"drinking_water","wheelchair":"no"}},{"type":"Feature","geometry":{"type":"Point","coordinates":[139.8867806,35.9404322]},"properties":{"id":4280131685,"amenity":"drinking_water","bottle":"yes","cold_water":"yes","hot_water":"no"}},{"type":"Feature","geometry":{"type":"Point","coordinates":[139.9786268,35.7062446]},"properties":{"id":4306829774,"amenity":"drinking_water"}},{"type":"Feature","geometry":{"type":"Point","coordinates":[139.9754431,35.7054351]},"properties":{"id":4306829775,"amenity":"drinking_water"}},{"type":"Feature","geometry":{"type":"Point","coordinates":[139.8878521,35.9380329]},"properties":{"id":4323233357,"amenity":"drinking_water","bottle":"yes","cold_water":"yes","hot_water":"no"}},{"type":"Feature","geometry":{"type":"Point","coordinates":[139.8186188,35.0376556]},"properties":{"id":4370624678,"amenity":"drinking_water"}},{"type":"Feature","geometry":{"type":"Point","coordinates":[139.9883471,35.7222317]},"properties":{"id":4370688349,"amenity":"drinking_water"}},{"type":"Feature","geometry":{"type":"Point","coordinates":[139.9941659,35.6757848]},"properties":{"id":4378191818,"amenity":"drinking_water"}},{"type":"Feature","geometry":{"type":"Point","coordinates":[139.9914126,35.6768263]},"properties":{"id":4378191820,"amenity":"drinking_water"}},{"type":"Feature","geometry":{"type":"Point","coordinates":[139.976442,35.6931125]},"properties":{"id":4381123889,"amenity":"drinking_water"}},{"type":"Feature","geometry":{"type":"Point","coordinates":[139.9893168,35.7212297]},"properties":{"id":4403649529,"amenity":"drinking_water"}},{"type":"Feature","geometry":{"type":"Point","coordinates":[139.9671507,35.7042702]},"properties":{"id":4449039534,"amenity":"drinking_water"}},{"type":"Feature","geometry":{"type":"Point","coordinates":[140.0430099,35.8614815]},"properties":{"id":4666414967,"amenity":"drinking_water"}},{"type":"Feature","geometry":{"type":"Point","coordinates":[140.0393371,35.8649161]},"properties":{"id":4666414968,"amenity":"drinking_water"}},{"type":"Feature","geometry":{"type":"Point","coordinates":[140.0499505,35.8571795]},"properties":{"id":4666415758,"amenity":"drinking_water"}},{"type":"Feature","geometry":{"type":"Point","coordinates":[140.1426549,35.8410977]},"properties":{"id":4666457771,"amenity":"drinking_water"}},{"type":"Feature","geometry":{"type":"Point","coordinates":[140.1429765,35.8406519]},"properties":{"id":4666457773,"amenity":"drinking_water"}},{"type":"Feature","geometry":{"type":"Point","coordinates":[140.124493,35.6449105]},"properties":{"id":4681371390,"amenity":"drinking_water"}},{"type":"Feature","geometry":{"type":"Point","coordinates":[139.926702,35.636194]},"properties":{"id":4894610616,"amenity":"drinking_water"}},{"type":"Feature","geometry":{"type":"Point","coordinates":[139.9714521,35.7064713]},"properties":{"id":5035988185,"amenity":"drinking_water"}},{"type":"Feature","geometry":{"type":"Point","coordinates":[139.8968255,35.6543784]},"properties":{"id":5301923323,"amenity":"drinking_water"}},{"type":"Feature","geometry":{"type":"Point","coordinates":[139.8987655,35.6557384]},"properties":{"id":5301923324,"amenity":"drinking_water"}},{"type":"Feature","geometry":{"type":"Point","coordinates":[139.893681,35.6521382]},"properties":{"id":5305015324,"amenity":"drinking_water"}},{"type":"Feature","geometry":{"type":"Point","coordinates":[139.906699,35.6651884]},"properties":{"id":5322662221,"amenity":"drinking_water"}},{"type":"Feature","geometry":{"type":"Point","coordinates":[139.8758848,35.3351423]},"properties":{"id":5490043213,"amenity":"drinking_water","source":"survey"}},{"type":"Feature","geometry":{"type":"Point","coordinates":[140.0549037,35.6714011]},"properties":{"id":5591918455,"amenity":"drinking_water","source":"survey"}},{"type":"Feature","geometry":{"type":"Point","coordinates":[140.0538498,35.6692829]},"properties":{"id":5592042049,"amenity":"drinking_water","source":"survey"}},{"type":"Feature","geometry":{"type":"Point","coordinates":[139.9498932,35.339836]},"properties":{"id":5627929599,"amenity":"drinking_water"}},{"type":"Feature","geometry":{"type":"Point","coordinates":[139.9494615,35.3405981]},"properties":{"id":5628341668,"amenity":"drinking_water"}},{"type":"Feature","geometry":{"type":"Point","coordinates":[139.9550913,35.3366044]},"properties":{"id":5628341688,"amenity":"drinking_water","wheelchair":"no"}},{"type":"Feature","geometry":{"type":"Point","coordinates":[140.0310104,35.3806605]},"properties":{"id":5643479874,"amenity":"drinking_water"}},{"type":"Feature","geometry":{"type":"Point","coordinates":[140.0334726,35.3825979]},"properties":{"id":5643483668,"amenity":"drinking_water"}},{"type":"Feature","geometry":{"type":"Point","coordinates":[140.0313253,35.3801007]},"properties":{"id":5643483826,"amenity":"drinking_water"}},{"type":"Feature","geometry":{"type":"Point","coordinates":[139.9525218,35.3447595]},"properties":{"id":5689925053,"amenity":"drinking_water"}},{"type":"Feature","geometry":{"type":"Point","coordinates":[140.3852444,35.763741]},"properties":{"id":5750572423,"amenity":"drinking_water"}},{"type":"Feature","geometry":{"type":"Point","coordinates":[139.9148127,35.3803452]},"properties":{"id":5751748697,"amenity":"drinking_water"}},{"type":"Feature","geometry":{"type":"Point","coordinates":[139.912039,35.3850468]},"properties":{"id":5751750251,"amenity":"drinking_water"}},{"type":"Feature","geometry":{"type":"Point","coordinates":[139.8921436,35.3352004]},"properties":{"id":5758970753,"amenity":"drinking_water","source":"survey"}},{"type":"Feature","geometry":{"type":"Point","coordinates":[139.8781066,35.3394489]},"properties":{"id":5839484001,"amenity":"drinking_water","source":"survey"}},{"type":"Feature","geometry":{"type":"Point","coordinates":[139.9072502,35.8246313]},"properties":{"id":5855380903,"amenity":"drinking_water"}},{"type":"Feature","geometry":{"type":"Point","coordinates":[139.8932572,35.1009938]},"properties":{"id":5860057297,"amenity":"drinking_water"}},{"type":"Feature","geometry":{"type":"Point","coordinates":[139.9136553,35.3061787]},"properties":{"id":5993718894,"amenity":"drinking_water","source":"survey"}},{"type":"Feature","geometry":{"type":"Point","coordinates":[140.8632906,35.6963226]},"properties":{"id":6180844680,"amenity":"drinking_water"}},{"type":"Feature","geometry":{"type":"Point","coordinates":[139.946499,35.3435929]},"properties":{"id":6263277573,"amenity":"drinking_water"}},{"type":"Feature","geometry":{"type":"Point","coordinates":[139.9067794,35.7498671]},"properties":{"id":6331218231,"amenity":"drinking_water"}},{"type":"Feature","geometry":{"type":"Point","coordinates":[139.8978426,35.7480673]},"properties":{"id":6335504637,"amenity":"drinking_water"}},{"type":"Feature","geometry":{"type":"Point","coordinates":[139.9275674,35.325355]},"properties":{"id":6359919753,"amenity":"drinking_water"}},{"type":"Feature","geometry":{"type":"Point","coordinates":[139.9271288,35.3256258]},"properties":{"id":6359919755,"amenity":"drinking_water"}},{"type":"Feature","geometry":{"type":"Point","coordinates":[140.491237,35.6617081]},"properties":{"id":6366670059,"amenity":"drinking_water"}},{"type":"Feature","geometry":{"type":"Point","coordinates":[140.8642624,35.7113442]},"properties":{"id":6388333752,"amenity":"drinking_water"}},{"type":"Feature","geometry":{"type":"Point","coordinates":[140.8674535,35.7073621]},"properties":{"id":6388333753,"amenity":"drinking_water"}},{"type":"Feature","geometry":{"type":"Point","coordinates":[140.8294984,35.7357779]},"properties":{"id":6417691452,"amenity":"drinking_water"}},{"type":"Feature","geometry":{"type":"Point","coordinates":[140.8437284,35.7309784]},"properties":{"id":6417724729,"amenity":"drinking_water"}},{"type":"Feature","geometry":{"type":"Point","coordinates":[140.8658876,35.7147949]},"properties":{"id":6418697003,"amenity":"drinking_water"}},{"type":"Feature","geometry":{"type":"Point","coordinates":[140.865833,35.7146554]},"properties":{"id":6418697004,"amenity":"drinking_water"}},{"type":"Feature","geometry":{"type":"Point","coordinates":[139.9560264,35.9191849]},"properties":{"id":6557270838,"amenity":"drinking_water"}},{"type":"Feature","geometry":{"type":"Point","coordinates":[139.9493281,35.3377783]},"properties":{"id":6559895235,"amenity":"drinking_water"}},{"type":"Feature","geometry":{"type":"Point","coordinates":[139.9474313,35.8994134]},"properties":{"id":6560435823,"amenity":"drinking_water"}},{"type":"Feature","geometry":{"type":"Point","coordinates":[139.9495082,35.9134547]},"properties":{"id":6608844021,"amenity":"drinking_water"}},{"type":"Feature","geometry":{"type":"Point","coordinates":[139.9158746,35.3085902]},"properties":{"id":6636570093,"amenity":"drinking_water","source":"survey"}},{"type":"Feature","geometry":{"type":"Point","coordinates":[139.9107814,35.841683]},"properties":{"id":6644691521,"amenity":"drinking_water","check_date":"2023-01-15","man_made":"water_tap"}},{"type":"Feature","geometry":{"type":"Point","coordinates":[139.9184826,35.8549737]},"properties":{"id":6717709303,"amenity":"drinking_water"}},{"type":"Feature","geometry":{"type":"Point","coordinates":[140.030432,35.6945186]},"properties":{"id":6976231885,"amenity":"drinking_water","name":"水飲み場"}},{"type":"Feature","geometry":{"type":"Point","coordinates":[140.0329555,35.6920175]},"properties":{"id":6983853057,"amenity":"drinking_water"}},{"type":"Feature","geometry":{"type":"Point","coordinates":[139.9970013,35.4240921]},"properties":{"id":7058994423,"amenity":"drinking_water"}},{"type":"Feature","geometry":{"type":"Point","coordinates":[139.8591933,34.994521]},"properties":{"id":7236270115,"amenity":"drinking_water"}},{"type":"Feature","geometry":{"type":"Point","coordinates":[139.9492947,35.801748]},"properties":{"id":7273725909,"amenity":"drinking_water"}},{"type":"Feature","geometry":{"type":"Point","coordinates":[139.9628905,35.7978769]},"properties":{"id":7279007247,"amenity":"drinking_water"}},{"type":"Feature","geometry":{"type":"Point","coordinates":[139.7858721,35.3126575]},"properties":{"id":7370551285,"amenity":"drinking_water"}},{"type":"Feature","geometry":{"type":"Point","coordinates":[140.0775181,35.5292661]},"properties":{"id":7373547087,"amenity":"drinking_water"}},{"type":"Feature","geometry":{"type":"Point","coordinates":[140.1235115,35.5738554]},"properties":{"id":7373705697,"amenity":"drinking_water"}},{"type":"Feature","geometry":{"type":"Point","coordinates":[140.1008851,35.6000164]},"properties":{"id":7373758885,"amenity":"drinking_water"}},{"type":"Feature","geometry":{"type":"Point","coordinates":[140.0996473,35.59798]},"properties":{"id":7373774287,"amenity":"drinking_water"}},{"type":"Feature","geometry":{"type":"Point","coordinates":[139.9537769,35.3959667]},"properties":{"id":7553053277,"amenity":"drinking_water"}},{"type":"Feature","geometry":{"type":"Point","coordinates":[139.952888,35.3962187]},"properties":{"id":7553064410,"amenity":"drinking_water"}},{"type":"Feature","geometry":{"type":"Point","coordinates":[140.2037271,35.7735852]},"properties":{"id":7643560385,"amenity":"drinking_water","name":"一本松湧き水","note":"※砒素検出のため飲用に適さずの看板あり。基準の十一倍の記述を確認。\"22-04"}},{"type":"Feature","geometry":{"type":"Point","coordinates":[140.4100546,35.7570787]},"properties":{"id":7676662185,"amenity":"drinking_water","name":"芝山湧水の里"}},{"type":"Feature","geometry":{"type":"Point","coordinates":[140.0786279,35.2966389]},"properties":{"id":7676662186,"amenity":"drinking_water","name":"新町の井戸"}},{"type":"Feature","geometry":{"type":"Point","coordinates":[140.0764016,35.2954037]},"properties":{"id":7676662385,"amenity":"drinking_water","name":"久留里の名水","name:en":"Kururi no Meisui"}},{"type":"Feature","geometry":{"type":"Point","coordinates":[140.0789992,35.2935604]},"properties":{"id":7676662386,"amenity":"drinking_water","name":"高澤の水"}},{"type":"Feature","geometry":{"type":"Point","coordinates":[140.0838037,35.2913865]},"properties":{"id":7676662387,"amenity":"drinking_water","name":"田丸家の名水"}},{"type":"Feature","geometry":{"type":"Point","coordinates":[140.0832065,35.2898979]},"properties":{"id":7676662388,"amenity":"drinking_water","name":"雨城庵の井戸"}},{"type":"Feature","geometry":{"type":"Point","coordinates":[140.0783529,35.2944327]},"properties":{"id":7676662485,"amenity":"drinking_water","name":"藤平酒造の井戸"}},{"type":"Feature","geometry":{"type":"Point","coordinates":[140.0757693,35.368501]},"properties":{"id":7746585903,"amenity":"drinking_water"}},{"type":"Feature","geometry":{"type":"Point","coordinates":[139.9191587,35.3914996]},"properties":{"id":7924686846,"amenity":"drinking_water"}},{"type":"Feature","geometry":{"type":"Point","coordinates":[139.9189132,35.3903978]},"properties":{"id":7924686856,"amenity":"drinking_water"}},{"type":"Feature","geometry":{"type":"Point","coordinates":[139.9171536,35.3868288]},"properties":{"id":8092603551,"amenity":"drinking_water"}},{"type":"Feature","geometry":{"type":"Point","coordinates":[139.938165,35.3799381]},"properties":{"id":8150131955,"amenity":"drinking_water"}},{"type":"Feature","geometry":{"type":"Point","coordinates":[140.3592556,35.8355724]},"properties":{"id":8604619217,"amenity":"drinking_water","name":"土室の","name:ja":"土室の湧水"}},{"type":"Feature","geometry":{"type":"Point","coordinates":[139.9174036,35.7815593]},"properties":{"id":8660726417,"amenity":"drinking_water"}},{"type":"Feature","geometry":{"type":"Point","coordinates":[140.5056384,35.6669138]},"properties":{"id":8713602191,"amenity":"drinking_water"}},{"type":"Feature","geometry":{"type":"Point","coordinates":[139.9228319,35.3797085]},"properties":{"id":8816963091,"amenity":"drinking_water"}},{"type":"Feature","geometry":{"type":"Point","coordinates":[139.9500878,35.3496367]},"properties":{"id":8817163642,"amenity":"drinking_water","name":"不動様の聖水"}},{"type":"Feature","geometry":{"type":"Point","coordinates":[139.9460375,35.3652997]},"properties":{"id":8844661776,"amenity":"drinking_water"}},{"type":"Feature","geometry":{"type":"Point","coordinates":[139.9370422,35.3414405]},"properties":{"id":8856298881,"amenity":"drinking_water"}},{"type":"Feature","geometry":{"type":"Point","coordinates":[139.9327323,35.3409101]},"properties":{"id":8856298891,"amenity":"drinking_water"}},{"type":"Feature","geometry":{"type":"Point","coordinates":[139.9307346,35.3417858]},"properties":{"id":8856315422,"amenity":"drinking_water"}},{"type":"Feature","geometry":{"type":"Point","coordinates":[139.9310731,35.342243]},"properties":{"id":8856315440,"amenity":"drinking_water"}},{"type":"Feature","geometry":{"type":"Point","coordinates":[139.9365908,35.3443941]},"properties":{"id":8856315493,"amenity":"drinking_water"}},{"type":"Feature","geometry":{"type":"Point","coordinates":[139.9392534,35.343831]},"properties":{"id":8856315520,"amenity":"drinking_water"}},{"type":"Feature","geometry":{"type":"Point","coordinates":[139.8882336,35.627604]},"properties":{"id":9083501208,"amenity":"drinking_water"}},{"type":"Feature","geometry":{"type":"Point","coordinates":[140.3017916,35.7809236]},"properties":{"id":9096668245,"amenity":"drinking_water"}},{"type":"Feature","geometry":{"type":"Point","coordinates":[140.3057859,35.7812954]},"properties":{"id":9096709081,"amenity":"drinking_water"}},{"type":"Feature","geometry":{"type":"Point","coordinates":[139.9144842,35.3809721]},"properties":{"id":9591517500,"amenity":"drinking_water"}},{"type":"Feature","geometry":{"type":"Point","coordinates":[140.0392886,35.6506402]},"properties":{"id":9653207917,"amenity":"drinking_water"}},{"type":"Feature","geometry":{"type":"Point","coordinates":[139.9687023,35.7204477]},"properties":{"id":9793797543,"amenity":"drinking_water"}},{"type":"Feature","geometry":{"type":"Point","coordinates":[139.9149276,35.4101665]},"properties":{"id":9827809459,"amenity":"drinking_water"}},{"type":"Feature","geometry":{"type":"Point","coordinates":[139.9150231,35.4104067]},"properties":{"id":9827809461,"amenity":"drinking_water"}},{"type":"Feature","geometry":{"type":"Point","coordinates":[139.9197655,35.8220789]},"properties":{"id":9906922463,"amenity":"drinking_water"}},{"type":"Feature","geometry":{"type":"Point","coordinates":[139.870042,35.3350261]},"properties":{"id":9918918547,"amenity":"drinking_water"}},{"type":"Feature","geometry":{"type":"Point","coordinates":[139.8480616,35.3374553]},"properties":{"id":9928710171,"amenity":"drinking_water"}},{"type":"Feature","geometry":{"type":"Point","coordinates":[139.8528341,35.3421046]},"properties":{"id":9928710172,"amenity":"drinking_water"}},{"type":"Feature","geometry":{"type":"Point","coordinates":[139.8474679,35.3358651]},"properties":{"id":9928739225,"amenity":"drinking_water"}},{"type":"Feature","geometry":{"type":"Point","coordinates":[139.8508892,35.3400938]},"properties":{"id":9928755461,"amenity":"drinking_water"}},{"type":"Feature","geometry":{"type":"Point","coordinates":[139.8956,35.8333263]},"properties":{"id":10052843227,"amenity":"drinking_water"}},{"type":"Feature","geometry":{"type":"Point","coordinates":[140.1116936,35.8642811]},"properties":{"id":10132665803,"amenity":"drinking_water"}},{"type":"Feature","geometry":{"type":"Point","coordinates":[139.9271641,35.8243658]},"properties":{"id":10210028855,"amenity":"drinking_water"}},{"type":"Feature","geometry":{"type":"Point","coordinates":[139.9351539,35.688]},"properties":{"id":10693803642,"amenity":"drinking_water"}},{"type":"Feature","geometry":{"type":"Point","coordinates":[139.9201944,35.8214009]},"properties":{"id":10744428783,"amenity":"drinking_water"}},{"type":"Feature","geometry":{"type":"Point","coordinates":[139.870905,35.3387889]},"properties":{"id":11002192607,"amenity":"drinking_water","source":"survey"}},{"type":"Feature","geometry":{"type":"Point","coordinates":[140.088051,35.6850868]},"properties":{"id":11043741649,"amenity":"drinking_water","source":"survey"}},{"type":"Feature","geometry":{"type":"Point","coordinates":[139.860729,34.9964421]},"properties":{"id":11053986866,"amenity":"drinking_water","source":"GSImaps/seamlessphoto;survey"}},{"type":"Feature","geometry":{"type":"Point","coordinates":[139.8695369,35.0003219]},"properties":{"id":11054927118,"amenity":"drinking_water","source":"survey"}},{"type":"Feature","geometry":{"type":"Point","coordinates":[139.9251913,35.3095693]},"properties":{"id":11057222436,"amenity":"drinking_water","source":"GSImaps/seamlessphoto;survey"}},{"type":"Feature","geometry":{"type":"Point","coordinates":[139.9266697,35.3063306]},"properties":{"id":11057222464,"amenity":"drinking_water","source":"GSImaps/seamlessphoto;survey"}},{"type":"Feature","geometry":{"type":"Point","coordinates":[139.921324,35.311179]},"properties":{"id":11060019295,"amenity":"drinking_water","source":"GSImaps/seamlessphoto;survey"}},{"type":"Feature","geometry":{"type":"Point","coordinates":[139.9177436,35.3110248]},"properties":{"id":11060019350,"amenity":"drinking_water","source":"GSImaps/seamlessphoto;survey"}},{"type":"Feature","geometry":{"type":"Point","coordinates":[139.9255575,35.3174856]},"properties":{"id":11060019381,"amenity":"drinking_water","source":"GSImaps/seamlessphoto;survey"}},{"type":"Feature","geometry":{"type":"Point","coordinates":[139.9361736,35.8159787]},"properties":{"id":11077335301,"access":"yes","amenity":"drinking_water","fee":"no"}},{"type":"Feature","geometry":{"type":"Point","coordinates":[139.8999526,35.3305031]},"properties":{"id":11088405296,"amenity":"drinking_water","source":"survey"}},{"type":"Feature","geometry":{"type":"Point","coordinates":[139.9055444,35.3312184]},"properties":{"id":11088409348,"amenity":"drinking_water","source":"survey"}},{"type":"Feature","geometry":{"type":"Point","coordinates":[139.897865,35.3381567]},"properties":{"id":11094032262,"amenity":"drinking_water","source":"survey"}},{"type":"Feature","geometry":{"type":"Point","coordinates":[139.8964794,35.3427721]},"properties":{"id":11114748798,"amenity":"drinking_water","source":"survey"}},{"type":"Feature","geometry":{"type":"Point","coordinates":[139.8935992,35.3440333]},"properties":{"id":11114762617,"amenity":"drinking_water","source":"survey"}},{"type":"Feature","geometry":{"type":"Point","coordinates":[139.9089011,35.3325523]},"properties":{"id":11114888681,"amenity":"drinking_water","source":"GSImaps/seamlessphoto;survey"}},{"type":"Feature","geometry":{"type":"Point","coordinates":[139.91401,35.3346369]},"properties":{"id":11115412762,"amenity":"drinking_water","source":"survey"}},{"type":"Feature","geometry":{"type":"Point","coordinates":[139.9230735,35.3280009]},"properties":{"id":11151412459,"amenity":"drinking_water","source":"survey"}},{"type":"Feature","geometry":{"type":"Point","coordinates":[139.9390242,35.8942905]},"properties":{"id":11192141615,"amenity":"drinking_water"}},{"type":"Feature","geometry":{"type":"Point","coordinates":[140.0310289,35.6656866]},"properties":{"id":11242868143,"amenity":"drinking_water"}},{"type":"Feature","geometry":{"type":"Point","coordinates":[140.0183718,35.6751651]},"properties":{"id":11242999341,"amenity":"drinking_water"}},{"type":"Feature","geometry":{"type":"Point","coordinates":[139.94956,35.8093477]},"properties":{"id":11265834114,"amenity":"drinking_water"}},{"type":"Feature","geometry":{"type":"Point","coordinates":[139.9704731,35.8206282]},"properties":{"id":11265834125,"amenity":"drinking_water"}},{"type":"Feature","geometry":{"type":"Point","coordinates":[139.9693242,35.829097]},"properties":{"id":11265834138,"amenity":"drinking_water"}},{"type":"Feature","geometry":{"type":"Point","coordinates":[139.902101,35.6756465]},"properties":{"id":11273435007,"amenity":"drinking_water"}},{"type":"Feature","geometry":{"type":"Point","coordinates":[139.933725,35.7055985]},"properties":{"id":11273435021,"amenity":"drinking_water"}},{"type":"Feature","geometry":{"type":"Point","coordinates":[139.9132412,35.6790101]},"properties":{"id":11273435028,"amenity":"drinking_water"}},{"type":"Feature","geometry":{"type":"Point","coordinates":[139.928641,35.6881871]},"properties":{"id":11301436754,"amenity":"drinking_water"}},{"type":"Feature","geometry":{"type":"Point","coordinates":[139.9168117,35.6791042]},"properties":{"id":11301436756,"amenity":"drinking_water"}},{"type":"Feature","geometry":{"type":"Point","coordinates":[139.9218071,35.8168173]},"properties":{"id":11304312783,"amenity":"drinking_water"}},{"type":"Feature","geometry":{"type":"Point","coordinates":[139.9029839,35.1263959]},"properties":{"id":11371263026,"amenity":"drinking_water"}},{"type":"Feature","geometry":{"type":"Point","coordinates":[140.1225732,35.6161403]},"properties":{"id":11598579840,"amenity":"drinking_water"}},{"type":"Feature","geometry":{"type":"Point","coordinates":[140.0895446,35.5129267]},"properties":{"id":11607015148,"amenity":"drinking_water","bottle":"no","covered":"yes","fee":"no","lit":"yes"}},{"type":"Feature","geometry":{"type":"Point","coordinates":[140.0891054,35.513144]},"properties":{"id":11607103137,"amenity":"drinking_water","bottle":"no","covered":"no","fee":"no","lit":"yes"}},{"type":"Feature","geometry":{"type":"Point","coordinates":[140.0870528,35.5130611]},"properties":{"id":11607122625,"access":"yes","amenity":"drinking_water","bottle":"yes","fee":"no","lit":"yes"}},{"type":"Feature","geometry":{"type":"Point","coordinates":[140.1230787,35.6110052]},"properties":{"id":11607174451,"access":"yes","amenity":"drinking_water","bottle":"yes","covered":"no","fee":"no","lit":"yes"}},{"type":"Feature","geometry":{"type":"Point","coordinates":[140.1236161,35.6110479]},"properties":{"id":11607205901,"amenity":"drinking_water","bottle":"yes","fee":"no"}},{"type":"Feature","geometry":{"type":"Point","coordinates":[140.244986,35.2887302]},"properties":{"id":11613260905,"amenity":"drinking_water","mapillary":"1688294601701811"}},{"type":"Feature","geometry":{"type":"Point","coordinates":[139.9384015,35.8928962]},"properties":{"id":11813150038,"amenity":"drinking_water"}},{"type":"Feature","geometry":{"type":"Point","coordinates":[139.9369538,35.8914175]},"properties":{"id":11813157852,"amenity":"drinking_water"}},{"type":"Feature","geometry":{"type":"Point","coordinates":[139.9372117,35.8921128]},"properties":{"id":11813158207,"amenity":"drinking_water"}},{"type":"Feature","geometry":{"type":"Point","coordinates":[139.9368723,35.8908503]},"properties":{"id":11813158210,"amenity":"drinking_water"}},{"type":"Feature","geometry":{"type":"Point","coordinates":[139.9365652,35.8939528]},"properties":{"id":11813170203,"amenity":"drinking_water"}},{"type":"Feature","geometry":{"type":"Point","coordinates":[139.941151,35.8950134]},"properties":{"id":11813224951,"amenity":"drinking_water"}},{"type":"Feature","geometry":{"type":"Point","coordinates":[139.9417209,35.8935982]},"properties":{"id":11813225790,"amenity":"drinking_water"}},{"type":"Feature","geometry":{"type":"Point","coordinates":[139.941507,35.8935089]},"properties":{"id":11813239101,"amenity":"drinking_water"}},{"type":"Feature","geometry":{"type":"Point","coordinates":[139.9289145,35.899182]},"properties":{"id":11834186053,"amenity":"drinking_water"}},{"type":"Feature","geometry":{"type":"Point","coordinates":[139.94032,35.8939438]},"properties":{"id":11834410780,"amenity":"drinking_water"}},{"type":"Feature","geometry":{"type":"Point","coordinates":[139.9399164,35.8927407]},"properties":{"id":11834417678,"amenity":"drinking_water"}},{"type":"Feature","geometry":{"type":"Point","coordinates":[139.9419756,35.8907895]},"properties":{"id":11834707233,"amenity":"drinking_water"}},{"type":"Feature","geometry":{"type":"Point","coordinates":[139.9391492,35.8943566]},"properties":{"id":11846347334,"amenity":"drinking_water"}},{"type":"Feature","geometry":{"type":"Point","coordinates":[140.0133308,35.86535]},"properties":{"id":11881651339,"amenity":"drinking_water"}},{"type":"Feature","geometry":{"type":"Point","coordinates":[140.0664109,35.8672516]},"properties":{"id":11881797104,"amenity":"drinking_water"}},{"type":"Feature","geometry":{"type":"Point","coordinates":[140.0424195,35.8640646]},"properties":{"id":11881799583,"amenity":"drinking_water"}},{"type":"Feature","geometry":{"type":"Point","coordinates":[139.9553329,35.7990138]},"properties":{"id":12018838595,"amenity":"drinking_water"}},{"type":"Feature","geometry":{"type":"Point","coordinates":[139.9429682,35.7699728]},"properties":{"id":12118094261,"amenity":"drinking_water"}},{"type":"Feature","geometry":{"type":"Point","coordinates":[139.9015718,35.3306145]},"properties":{"id":12162034880,"amenity":"drinking_water"}},{"type":"Feature","geometry":{"type":"Point","coordinates":[139.9037799,35.8533151]},"properties":{"id":12270517673,"amenity":"drinking_water"}},{"type":"Feature","geometry":{"type":"Point","coordinates":[139.9032703,35.8533898]},"properties":{"id":12272869043,"amenity":"drinking_water"}},{"type":"Feature","geometry":{"type":"Point","coordinates":[139.8884032,35.6271256]},"properties":{"id":12385816101,"amenity":"drinking_water"}},{"type":"Feature","geometry":{"type":"Point","coordinates":[139.8815125,35.6343046]},"properties":{"id":12598554702,"amenity":"drinking_water","name":"Drinking water fountain"}},{"type":"Feature","geometry":{"type":"Point","coordinates":[139.8787472,35.6313915]},"properties":{"id":12598554703,"amenity":"drinking_water","name":"Drinking water fountain"}},{"type":"Feature","geometry":{"type":"Point","coordinates":[139.8796937,35.6299133]},"properties":{"id":12598581801,"amenity":"drinking_water","name":"Drinking water fountain"}},{"type":"Feature","geometry":{"type":"Point","coordinates":[139.8837344,35.6320833]},"properties":{"id":12598581802,"amenity":"drinking_water","name":"Drinking water fountain"}},{"type":"Feature","geometry":{"type":"Point","coordinates":[139.880609,35.6334671]},"properties":{"id":12598581902,"amenity":"drinking_water","name":"Drinking water fountain"}},{"type":"Feature","geometry":{"type":"Point","coordinates":[139.8849005,35.6316736]},"properties":{"id":12598582001,"amenity":"drinking_water","name":"Drinking water fountain"}},{"type":"Feature","geometry":{"type":"Point","coordinates":[140.1193621,35.6051476]},"properties":{"id":12770097675,"amenity":"drinking_water","source":"Bing;survey"}},{"type":"Feature","geometry":{"type":"Point","coordinates":[139.9238343,35.3197737]},"properties":{"id":12770278242,"amenity":"drinking_water","source":"survey"}},{"type":"Feature","geometry":{"type":"Point","coordinates":[139.9883052,35.8665719]},"properties":{"id":12944036401,"amenity":"drinking_water"}},{"type":"Feature","geometry":{"type":"Point","coordinates":[139.9905926,35.8682884]},"properties":{"id":12944036501,"amenity":"drinking_water"}},{"type":"Feature","geometry":{"type":"Point","coordinates":[140.0152406,35.6866455]},"properties":{"id":12944411551,"amenity":"drinking_water"}},{"type":"Feature","geometry":{"type":"Point","coordinates":[140.0152187,35.6912675]},"properties":{"id":12945016457,"amenity":"drinking_water"}},{"type":"Feature","geometry":{"type":"Point","coordinates":[139.8818748,35.9590872]},"properties":{"id":12992919914,"amenity":"drinking_water"}},{"type":"Feature","geometry":{"type":"Point","coordinates":[140.3854893,35.7634284]},"properties":{"id":13001243718,"access":"yes","amenity":"drinking_water","indoor":"yes","level":"0","wheelchair":"yes"}},{"type":"Feature","geometry":{"type":"Point","coordinates":[139.8662456,35.3391663]},"properties":{"id":13053855360,"amenity":"drinking_water"}},{"type":"Feature","geometry":{"type":"Point","coordinates":[139.8827655,35.3373258]},"properties":{"id":13056580171,"amenity":"drinking_water"}}]}
