{
  "type": "FeatureCollection",
  "features": [
    {
      "type": "Feature",
      "geometry": { "type": "Point", "coordinates": [133.1871386, 33.912754] },
      "properties": { "id": 2190523328, "amenity": "drinking_water" }
    },
    {
      "type": "Feature",
      "geometry": { "type": "Point", "coordinates": [133.0829146, 34.1934592] },
      "properties": { "id": 2434498774, "amenity": "drinking_water" }
    },
    {
      "type": "Feature",
      "geometry": { "type": "Point", "coordinates": [133.016367, 34.1284292] },
      "properties": { "id": 2438049263, "amenity": "drinking_water" }
    },
    {
      "type": "Feature",
      "geometry": { "type": "Point", "coordinates": [132.7613644, 33.8420297] },
      "properties": { "id": 2439814438, "amenity": "drinking_water" }
    },
    {
      "type": "Feature",
      "geometry": { "type": "Point", "coordinates": [132.7667225, 33.8442607] },
      "properties": {
        "id": 2439814458,
        "amenity": "drinking_water",
        "check_date": "2023-03-17",
        "fountain": "bubbler"
      }
    },
    {
      "type": "Feature",
      "geometry": { "type": "Point", "coordinates": [132.7923158, 33.8431633] },
      "properties": { "id": 5498380521, "amenity": "drinking_water" }
    },
    {
      "type": "Feature",
      "geometry": { "type": "Point", "coordinates": [132.7901223, 33.8421127] },
      "properties": { "id": 5498380622, "amenity": "drinking_water" }
    },
    {
      "type": "Feature",
      "geometry": { "type": "Point", "coordinates": [132.7637596, 33.8411621] },
      "properties": { "id": 5499048221, "amenity": "drinking_water" }
    },
    {
      "type": "Feature",
      "geometry": { "type": "Point", "coordinates": [132.7943931, 33.8439879] },
      "properties": { "id": 5499048222, "amenity": "drinking_water" }
    },
    {
      "type": "Feature",
      "geometry": { "type": "Point", "coordinates": [132.7431978, 33.844857] },
      "properties": { "id": 5500054121, "amenity": "drinking_water" }
    },
    {
      "type": "Feature",
      "geometry": { "type": "Point", "coordinates": [132.7497604, 33.9071622] },
      "properties": { "id": 5500182421, "amenity": "drinking_water" }
    },
    {
      "type": "Feature",
      "geometry": { "type": "Point", "coordinates": [132.7471544, 33.8932259] },
      "properties": { "id": 6856192342, "amenity": "drinking_water" }
    },
    {
      "type": "Feature",
      "geometry": { "type": "Point", "coordinates": [132.4981307, 33.6208725] },
      "properties": { "id": 6856847484, "amenity": "drinking_water" }
    },
    {
      "type": "Feature",
      "geometry": { "type": "Point", "coordinates": [132.7389773, 33.225938] },
      "properties": { "id": 6861933401, "amenity": "drinking_water" }
    },
    {
      "type": "Feature",
      "geometry": { "type": "Point", "coordinates": [132.5973925, 33.3079212] },
      "properties": { "id": 7950694322, "amenity": "drinking_water" }
    },
    {
      "type": "Feature",
      "geometry": { "type": "Point", "coordinates": [132.7662092, 33.5218098] },
      "properties": { "id": 9689795906, "amenity": "drinking_water" }
    },
    {
      "type": "Feature",
      "geometry": { "type": "Point", "coordinates": [132.565662, 33.2285627] },
      "properties": { "id": 9729882870, "amenity": "drinking_water" }
    },
    {
      "type": "Feature",
      "geometry": { "type": "Point", "coordinates": [132.7104251, 33.3586483] },
      "properties": { "id": 9734948098, "amenity": "drinking_water" }
    },
    {
      "type": "Feature",
      "geometry": { "type": "Point", "coordinates": [132.710913, 33.3588166] },
      "properties": { "id": 9734948099, "amenity": "drinking_water" }
    },
    {
      "type": "Feature",
      "geometry": { "type": "Point", "coordinates": [132.771374, 33.4949513] },
      "properties": { "id": 9790231898, "amenity": "drinking_water" }
    },
    {
      "type": "Feature",
      "geometry": { "type": "Point", "coordinates": [132.77138, 33.4956983] },
      "properties": { "id": 9790231906, "amenity": "drinking_water" }
    },
    {
      "type": "Feature",
      "geometry": { "type": "Point", "coordinates": [132.7408242, 33.8445059] },
      "properties": { "id": 9918314607, "amenity": "drinking_water" }
    },
    {
      "type": "Feature",
      "geometry": { "type": "Point", "coordinates": [132.7385529, 33.8431442] },
      "properties": { "id": 9918314608, "amenity": "drinking_water" }
    },
    {
      "type": "Feature",
      "geometry": { "type": "Point", "coordinates": [132.7378265, 33.8449775] },
      "properties": { "id": 9918314609, "amenity": "drinking_water" }
    },
    {
      "type": "Feature",
      "geometry": { "type": "Point", "coordinates": [132.7442865, 33.8432038] },
      "properties": { "id": 9918350830, "amenity": "drinking_water" }
    },
    {
      "type": "Feature",
      "geometry": { "type": "Point", "coordinates": [132.7404536, 33.8443434] },
      "properties": { "id": 10126184130, "amenity": "drinking_water" }
    },
    {
      "type": "Feature",
      "geometry": { "type": "Point", "coordinates": [132.5378295, 33.1626789] },
      "properties": { "id": 10858002086, "amenity": "drinking_water" }
    },
    {
      "type": "Feature",
      "geometry": { "type": "Point", "coordinates": [132.8082304, 33.5728252] },
      "properties": {
        "id": 11393212770,
        "amenity": "drinking_water",
        "name:en": "Ohenro Rest House"
      }
    },
    {
      "type": "Feature",
      "geometry": { "type": "Point", "coordinates": [132.7865122, 33.84893] },
      "properties": { "id": 11947518369, "amenity": "drinking_water" }
    },
    {
      "type": "Feature",
      "geometry": { "type": "Point", "coordinates": [132.4339414, 33.3673584] },
      "properties": {
        "id": 12009177513,
        "amenity": "drinking_water",
        "natural": "spring"
      }
    },
    {
      "type": "Feature",
      "geometry": { "type": "Point", "coordinates": [133.182892, 33.9144597] },
      "properties": { "id": 12177877084, "amenity": "drinking_water" }
    },
    {
      "type": "Feature",
      "geometry": { "type": "Point", "coordinates": [133.1829217, 33.9144789] },
      "properties": { "id": 12177877085, "amenity": "drinking_water" }
    },
    {
      "type": "Feature",
      "geometry": { "type": "Point", "coordinates": [133.5673741, 34.0132004] },
      "properties": {
        "id": 12177885521,
        "access": "yes",
        "amenity": "drinking_water",
        "fee": "no"
      }
    },
    {
      "type": "Feature",
      "geometry": { "type": "Point", "coordinates": [133.5761424, 34.0147231] },
      "properties": { "id": 12177885526, "amenity": "drinking_water" }
    },
    {
      "type": "Feature",
      "geometry": { "type": "Point", "coordinates": [132.5969667, 33.3092334] },
      "properties": { "id": 12213978892, "amenity": "drinking_water" }
    },
    {
      "type": "Feature",
      "geometry": { "type": "Point", "coordinates": [132.5964971, 33.3094877] },
      "properties": { "id": 12213978937, "amenity": "drinking_water" }
    },
    {
      "type": "Feature",
      "geometry": { "type": "Point", "coordinates": [132.5975494, 33.3108005] },
      "properties": { "id": 12213979197, "amenity": "drinking_water" }
    },
    {
      "type": "Feature",
      "geometry": { "type": "Point", "coordinates": [132.5960303, 33.285914] },
      "properties": { "id": 12309544517, "amenity": "drinking_water" }
    },
    {
      "type": "Feature",
      "geometry": { "type": "Point", "coordinates": [132.7103215, 33.3602033] },
      "properties": { "id": 12879126138, "amenity": "drinking_water" }
    }
  ]
}
