{"type":"FeatureCollection","features":[{"type":"Feature","geometry":{"type":"Point","coordinates":[140.8279963,37.1251835]},"properties":{"id":267615508,"element_type":"node","amenity":"toilets","created_by":"Potlatch 0.9c"}},{"type":"Feature","geometry":{"type":"Point","coordinates":[140.2544922,37.7164747]},"properties":{"id":287266270,"element_type":"node","amenity":"toilets","check_date":"2024-08-27","created_by":"Potlatch 0.10b","fee":"no","wheelchair":"no"}},{"type":"Feature","geometry":{"type":"Point","coordinates":[140.2544922,37.7164883]},"properties":{"id":287266817,"element_type":"node","amenity":"toilets","check_date":"2024-08-27","created_by":"Potlatch 0.10b","fee":"no","wheelchair":"no"}},{"type":"Feature","geometry":{"type":"Point","coordinates":[140.9852561,37.8222791]},"properties":{"id":293388624,"element_type":"node","amenity":"toilets"}},{"type":"Feature","geometry":{"type":"Point","coordinates":[140.8054585,37.3419284]},"properties":{"id":297396004,"element_type":"node","amenity":"toilets","created_by":"Potlatch 0.10b"}},{"type":"Feature","geometry":{"type":"Point","coordinates":[140.3153026,37.4851756]},"properties":{"id":300812765,"element_type":"node","amenity":"toilets"}},{"type":"Feature","geometry":{"type":"Point","coordinates":[139.2847488,37.3117747]},"properties":{"id":301033726,"element_type":"node","amenity":"toilets"}},{"type":"Feature","geometry":{"type":"Point","coordinates":[140.3798194,37.515812]},"properties":{"id":301286422,"element_type":"node","amenity":"toilets"}},{"type":"Feature","geometry":{"type":"Point","coordinates":[140.4432027,37.6616635]},"properties":{"id":301286708,"element_type":"node","amenity":"toilets"}},{"type":"Feature","geometry":{"type":"Point","coordinates":[140.5820593,37.438297]},"properties":{"id":305877341,"element_type":"node","amenity":"toilets"}},{"type":"Feature","geometry":{"type":"Point","coordinates":[140.0296971,37.5356879]},"properties":{"id":305879556,"element_type":"node","amenity":"toilets","created_by":"Potlatch 0.10e"}},{"type":"Feature","geometry":{"type":"Point","coordinates":[140.5960344,37.3876634]},"properties":{"id":306159975,"element_type":"node","amenity":"toilets","created_by":"Potlatch 0.10e"}},{"type":"Feature","geometry":{"type":"Point","coordinates":[140.7217506,37.1758542]},"properties":{"id":306165302,"element_type":"node","amenity":"toilets","created_by":"Potlatch 0.10e"}},{"type":"Feature","geometry":{"type":"Point","coordinates":[139.6699046,37.4777013]},"properties":{"id":308201962,"element_type":"node","amenity":"toilets"}},{"type":"Feature","geometry":{"type":"Point","coordinates":[140.484794,37.4301919]},"properties":{"id":311976362,"element_type":"node","amenity":"toilets","fee":"no","female":"yes","male":"yes","toilets:disposal":"flush","unisex":"yes","wheelchair":"yes"}},{"type":"Feature","geometry":{"type":"Point","coordinates":[140.911538,37.1172582]},"properties":{"id":315231947,"element_type":"node","amenity":"toilets"}},{"type":"Feature","geometry":{"type":"Point","coordinates":[141.0125659,37.2416995]},"properties":{"id":320112143,"element_type":"node","amenity":"toilets","created_by":"Potlatch 0.10f"}},{"type":"Feature","geometry":{"type":"Point","coordinates":[140.9115729,37.1159374]},"properties":{"id":325613656,"element_type":"node","amenity":"toilets"}},{"type":"Feature","geometry":{"type":"Point","coordinates":[140.7201554,37.1754344]},"properties":{"id":325622871,"element_type":"node","amenity":"toilets"}},{"type":"Feature","geometry":{"type":"Point","coordinates":[140.9200384,36.9395844]},"properties":{"id":340371194,"element_type":"node","amenity":"toilets","created_by":"Potlatch 0.10f"}},{"type":"Feature","geometry":{"type":"Point","coordinates":[140.920641,36.9389573]},"properties":{"id":340372648,"element_type":"node","amenity":"toilets"}},{"type":"Feature","geometry":{"type":"Point","coordinates":[140.3218503,37.3524932]},"properties":{"id":343599003,"element_type":"node","amenity":"toilets"}},{"type":"Feature","geometry":{"type":"Point","coordinates":[140.4317754,37.7238402]},"properties":{"id":364888069,"element_type":"node","amenity":"toilets"}},{"type":"Feature","geometry":{"type":"Point","coordinates":[140.323468,37.3540964]},"properties":{"id":370251541,"element_type":"node","amenity":"toilets","created_by":"Potlatch 0.10f"}},{"type":"Feature","geometry":{"type":"Point","coordinates":[139.9279645,37.4878467]},"properties":{"id":418992225,"element_type":"node","amenity":"toilets","name":"鶴ヶ城西出丸駐車場公衆トイレ","name:en":"Nishidemaru Parking Restroom"}},{"type":"Feature","geometry":{"type":"Point","coordinates":[140.4559855,37.7237719]},"properties":{"id":469080340,"element_type":"node","amenity":"toilets"}},{"type":"Feature","geometry":{"type":"Point","coordinates":[140.4077017,37.7595825]},"properties":{"id":482188682,"element_type":"node","amenity":"toilets"}},{"type":"Feature","geometry":{"type":"Point","coordinates":[140.9836261,37.6358989]},"properties":{"id":482818457,"element_type":"node","amenity":"toilets","website":"http://www.nomaoinosato.co.jp/","wheelchair":"yes"}},{"type":"Feature","geometry":{"type":"Point","coordinates":[140.090058,37.6533876]},"properties":{"id":506429618,"element_type":"node","access":"yes","amenity":"toilets","changing_table":"yes","changing_table:location":"room","fee":"no","level":"1","toilets:disposal":"flush","toilets:position":"squat;seated;urinal","wheelchair":"designated"}},{"type":"Feature","geometry":{"type":"Point","coordinates":[140.0650343,37.6510816]},"properties":{"id":506464523,"element_type":"node","access":"yes","amenity":"toilets","changing_table":"yes","changing_table:location":"room","fee":"no","opening_hours":"09:00-17:00","toilets:disposal":"flush","toilets:position":"squat;seated;urinal","unisex":"yes","wheelchair":"designated"}},{"type":"Feature","geometry":{"type":"Point","coordinates":[140.0749161,37.561097]},"properties":{"id":506549687,"element_type":"node","amenity":"toilets"}},{"type":"Feature","geometry":{"type":"Point","coordinates":[140.2219579,37.6420698]},"properties":{"id":506553219,"element_type":"node","amenity":"toilets"}},{"type":"Feature","geometry":{"type":"Point","coordinates":[140.5599723,37.2503147]},"properties":{"id":534020483,"element_type":"node","amenity":"toilets","changing_table":"yes","female":"yes","male":"yes","unisex":"yes"}},{"type":"Feature","geometry":{"type":"Point","coordinates":[140.7631445,37.5607461]},"properties":{"id":597182075,"element_type":"node","amenity":"toilets"}},{"type":"Feature","geometry":{"type":"Point","coordinates":[140.147967,37.6711411]},"properties":{"id":723609611,"element_type":"node","amenity":"toilets"}},{"type":"Feature","geometry":{"type":"Point","coordinates":[140.4167289,37.8161996]},"properties":{"id":773587661,"element_type":"node","amenity":"toilets"}},{"type":"Feature","geometry":{"type":"Point","coordinates":[139.3157351,37.34921]},"properties":{"id":858192341,"element_type":"node","amenity":"toilets"}},{"type":"Feature","geometry":{"type":"Point","coordinates":[140.9225131,37.0166034]},"properties":{"id":932845621,"element_type":"node","amenity":"toilets"}},{"type":"Feature","geometry":{"type":"Point","coordinates":[139.8408987,37.5293568]},"properties":{"id":942057159,"element_type":"node","amenity":"toilets","name":"新鶴PA","wheelchair":"yes"}},{"type":"Feature","geometry":{"type":"Point","coordinates":[140.4428392,37.8050104]},"properties":{"id":942265119,"element_type":"node","amenity":"toilets"}},{"type":"Feature","geometry":{"type":"Point","coordinates":[140.6875904,37.7550375]},"properties":{"id":945658708,"element_type":"node","amenity":"toilets"}},{"type":"Feature","geometry":{"type":"Point","coordinates":[140.6938295,37.7554449]},"properties":{"id":945658710,"element_type":"node","amenity":"toilets"}},{"type":"Feature","geometry":{"type":"Point","coordinates":[141.0123541,37.681614]},"properties":{"id":999110304,"element_type":"node","amenity":"toilets"}},{"type":"Feature","geometry":{"type":"Point","coordinates":[140.4752126,37.7738978]},"properties":{"id":999528147,"element_type":"node","amenity":"toilets","description":"冬期閉鎖期間あり"}},{"type":"Feature","geometry":{"type":"Point","coordinates":[140.7967712,36.9207345]},"properties":{"id":1271795696,"element_type":"node","amenity":"toilets","wheelchair":"yes"}},{"type":"Feature","geometry":{"type":"Point","coordinates":[140.7968312,36.9207357]},"properties":{"id":1271795725,"element_type":"node","amenity":"toilets","wheelchair":"no"}},{"type":"Feature","geometry":{"type":"Point","coordinates":[140.8015705,36.9212203]},"properties":{"id":1271993541,"element_type":"node","amenity":"toilets","wheelchair":"yes"}},{"type":"Feature","geometry":{"type":"Point","coordinates":[140.8539759,36.9554222]},"properties":{"id":1278148268,"element_type":"node","amenity":"toilets","wheelchair":"yes"}},{"type":"Feature","geometry":{"type":"Point","coordinates":[140.2832974,37.7495852]},"properties":{"id":1444105448,"element_type":"node","amenity":"toilets","fee":"no","wheelchair":"yes"}},{"type":"Feature","geometry":{"type":"Point","coordinates":[140.8924419,37.057646]},"properties":{"id":1742569685,"element_type":"node","amenity":"toilets","source":"survey","wheelchair":"yes"}},{"type":"Feature","geometry":{"type":"Point","coordinates":[140.8880667,37.0554667]},"properties":{"id":1746599927,"element_type":"node","amenity":"toilets","wheelchair":"yes"}},{"type":"Feature","geometry":{"type":"Point","coordinates":[140.0666444,37.6840753]},"properties":{"id":1910002224,"element_type":"node","amenity":"toilets","fee":"no","wheelchair":"no"}},{"type":"Feature","geometry":{"type":"Point","coordinates":[139.9387836,37.5248965]},"properties":{"id":1912565678,"element_type":"node","amenity":"toilets","name":"会津大学部活棟トイレ"}},{"type":"Feature","geometry":{"type":"Point","coordinates":[139.9329696,37.5141735]},"properties":{"id":1999978552,"element_type":"node","amenity":"toilets","name":"まんまーじゃ付近公衆トイレ","wheelchair":"yes"}},{"type":"Feature","geometry":{"type":"Point","coordinates":[140.4680659,37.75789]},"properties":{"id":2036194057,"element_type":"node","amenity":"toilets"}},{"type":"Feature","geometry":{"type":"Point","coordinates":[139.927883,37.4954948]},"properties":{"id":2053921040,"element_type":"node","amenity":"toilets","name":"時計宝飾メガネ サトウ","shop":"optician","wheelchair":"limited"}},{"type":"Feature","geometry":{"type":"Point","coordinates":[140.4683411,37.7558482]},"properties":{"id":2064605090,"element_type":"node","amenity":"toilets"}},{"type":"Feature","geometry":{"type":"Point","coordinates":[139.3151545,37.3501936]},"properties":{"id":2090106890,"element_type":"node","amenity":"toilets"}},{"type":"Feature","geometry":{"type":"Point","coordinates":[139.9277344,37.4996634]},"properties":{"id":2270249607,"element_type":"node","amenity":"toilets","survey:date":"2013"}},{"type":"Feature","geometry":{"type":"Point","coordinates":[139.9292738,37.5023336]},"properties":{"id":2271310844,"element_type":"node","amenity":"toilets","name":"サト―こまもの店","shop":"chemist","wheelchair":"yes"}},{"type":"Feature","geometry":{"type":"Point","coordinates":[139.9379815,37.4869982]},"properties":{"id":2279055693,"element_type":"node","amenity":"toilets","name":"赤べえ会津風雅堂前"}},{"type":"Feature","geometry":{"type":"Point","coordinates":[139.922063,37.4929884]},"properties":{"id":2280277429,"element_type":"node","amenity":"toilets","name":"美容室スワン","shop":"hairdresser","wheelchair":"limited","wheelchair:description":"駐車場あり"}},{"type":"Feature","geometry":{"type":"Point","coordinates":[139.8976088,37.4472474]},"properties":{"id":2336789805,"element_type":"node","amenity":"toilets","name":"向羽黒山公衆トイレ"}},{"type":"Feature","geometry":{"type":"Point","coordinates":[139.9436555,37.4804111]},"properties":{"id":2375816535,"element_type":"node","amenity":"toilets","fee":"no","name":"小田山","operator":"会津若松市","wheelchair":"no"}},{"type":"Feature","geometry":{"type":"Point","coordinates":[139.9482882,37.4802181]},"properties":{"id":2378851010,"element_type":"node","amenity":"toilets","name":"子どもの森スキー場","wheelchair":"no"}},{"type":"Feature","geometry":{"type":"Point","coordinates":[139.9633946,37.4763986]},"properties":{"id":2393491066,"element_type":"node","amenity":"toilets","name":"unknown"}},{"type":"Feature","geometry":{"type":"Point","coordinates":[139.9513414,37.5044084]},"properties":{"id":2483211664,"element_type":"node","amenity":"toilets","name":"まちの駅飯盛山公衆トイレ"}},{"type":"Feature","geometry":{"type":"Point","coordinates":[139.7276388,37.5316454]},"properties":{"id":2518624898,"element_type":"node","amenity":"toilets"}},{"type":"Feature","geometry":{"type":"Point","coordinates":[139.5303667,37.4718965]},"properties":{"id":2519438052,"element_type":"node","amenity":"toilets"}},{"type":"Feature","geometry":{"type":"Point","coordinates":[140.0831116,37.5640148]},"properties":{"id":2588595312,"element_type":"node","amenity":"toilets"}},{"type":"Feature","geometry":{"type":"Point","coordinates":[140.0849975,37.5653639]},"properties":{"id":2588595437,"element_type":"node","amenity":"toilets"}},{"type":"Feature","geometry":{"type":"Point","coordinates":[140.0332611,37.5857833]},"properties":{"id":2595828442,"element_type":"node","amenity":"toilets"}},{"type":"Feature","geometry":{"type":"Point","coordinates":[140.0860409,37.5813722]},"properties":{"id":2597926306,"element_type":"node","amenity":"toilets"}},{"type":"Feature","geometry":{"type":"Point","coordinates":[140.0914158,37.5731458]},"properties":{"id":2597946712,"element_type":"node","amenity":"toilets"}},{"type":"Feature","geometry":{"type":"Point","coordinates":[140.0930065,37.574305]},"properties":{"id":2597946740,"element_type":"node","amenity":"toilets"}},{"type":"Feature","geometry":{"type":"Point","coordinates":[140.0944892,37.5754393]},"properties":{"id":2597946752,"element_type":"node","amenity":"toilets"}},{"type":"Feature","geometry":{"type":"Point","coordinates":[140.0983828,37.5780149]},"properties":{"id":2597946789,"element_type":"node","amenity":"toilets"}},{"type":"Feature","geometry":{"type":"Point","coordinates":[140.09243,37.5877762]},"properties":{"id":2597946799,"element_type":"node","amenity":"toilets"}},{"type":"Feature","geometry":{"type":"Point","coordinates":[140.0377222,37.6274798]},"properties":{"id":2598357422,"element_type":"node","amenity":"toilets"}},{"type":"Feature","geometry":{"type":"Point","coordinates":[140.1253014,37.7072835]},"properties":{"id":2599143600,"element_type":"node","amenity":"toilets"}},{"type":"Feature","geometry":{"type":"Point","coordinates":[140.1270477,37.7163421]},"properties":{"id":2599143688,"element_type":"node","amenity":"toilets"}},{"type":"Feature","geometry":{"type":"Point","coordinates":[140.2291703,37.6171376]},"properties":{"id":2599185670,"element_type":"node","amenity":"toilets"}},{"type":"Feature","geometry":{"type":"Point","coordinates":[140.2295915,37.6225675]},"properties":{"id":2599185726,"element_type":"node","amenity":"toilets"}},{"type":"Feature","geometry":{"type":"Point","coordinates":[140.2279584,37.6225908]},"properties":{"id":2599185729,"element_type":"node","amenity":"toilets"}},{"type":"Feature","geometry":{"type":"Point","coordinates":[140.2349971,37.6245998]},"properties":{"id":2599185735,"element_type":"node","amenity":"toilets"}},{"type":"Feature","geometry":{"type":"Point","coordinates":[140.3591756,37.7186619]},"properties":{"id":2602114880,"element_type":"node","amenity":"toilets","drinking_water":"yes","fee":"no","toilets:disposal":"flush","toilets:position":"seated","wheelchair":"yes"}},{"type":"Feature","geometry":{"type":"Point","coordinates":[140.3561194,37.7190704]},"properties":{"id":2602445522,"element_type":"node","amenity":"toilets","wheelchair":"yes"}},{"type":"Feature","geometry":{"type":"Point","coordinates":[140.3600029,37.7208675]},"properties":{"id":2602445531,"element_type":"node","amenity":"toilets","wheelchair":"yes"}},{"type":"Feature","geometry":{"type":"Point","coordinates":[140.362309,37.7218119]},"properties":{"id":2602445540,"element_type":"node","amenity":"toilets","wheelchair":"yes"}},{"type":"Feature","geometry":{"type":"Point","coordinates":[140.3589773,37.7217871]},"properties":{"id":2602445543,"element_type":"node","amenity":"toilets","wheelchair":"yes"}},{"type":"Feature","geometry":{"type":"Point","coordinates":[140.3659628,37.7232738]},"properties":{"id":2602445553,"element_type":"node","amenity":"toilets","wheelchair":"yes"}},{"type":"Feature","geometry":{"type":"Point","coordinates":[140.3622404,37.7240204]},"properties":{"id":2602445555,"element_type":"node","amenity":"toilets","wheelchair":"yes"}},{"type":"Feature","geometry":{"type":"Point","coordinates":[140.3637421,37.7242898]},"properties":{"id":2602445558,"element_type":"node","amenity":"toilets"}},{"type":"Feature","geometry":{"type":"Point","coordinates":[140.3756443,37.7330148]},"properties":{"id":2619731548,"element_type":"node","amenity":"toilets","toilets:disposal":"flush"}},{"type":"Feature","geometry":{"type":"Point","coordinates":[139.454931,37.0971321]},"properties":{"id":2628135679,"element_type":"node","amenity":"toilets"}},{"type":"Feature","geometry":{"type":"Point","coordinates":[139.4493509,37.1005633]},"properties":{"id":2628135715,"element_type":"node","amenity":"toilets"}},{"type":"Feature","geometry":{"type":"Point","coordinates":[140.1170914,37.5176844]},"properties":{"id":2636372419,"element_type":"node","amenity":"toilets"}},{"type":"Feature","geometry":{"type":"Point","coordinates":[139.8677667,37.6440916]},"properties":{"id":2642862494,"element_type":"node","amenity":"toilets"}},{"type":"Feature","geometry":{"type":"Point","coordinates":[139.9526423,37.4921866]},"properties":{"id":2649099566,"element_type":"node","amenity":"toilets","name":"愛宕神社社務所裏公衆トイレ"}},{"type":"Feature","geometry":{"type":"Point","coordinates":[139.3049699,36.9836054]},"properties":{"id":2682801210,"element_type":"node","amenity":"toilets"}},{"type":"Feature","geometry":{"type":"Point","coordinates":[139.9915783,37.4711215]},"properties":{"id":2684412399,"element_type":"node","amenity":"toilets","name":"背あぶり高原"}},{"type":"Feature","geometry":{"type":"Point","coordinates":[140.1338352,37.4230705]},"properties":{"id":2753120569,"element_type":"node","access":"yes","amenity":"toilets","name":"館浜第2"}},{"type":"Feature","geometry":{"type":"Point","coordinates":[140.1469856,37.43741]},"properties":{"id":2753120630,"element_type":"node","amenity":"toilets","name":"浜路公衆便所"}},{"type":"Feature","geometry":{"type":"Point","coordinates":[140.924212,37.798582]},"properties":{"id":2833239802,"element_type":"node","amenity":"toilets","wheelchair":"no"}},{"type":"Feature","geometry":{"type":"Point","coordinates":[140.9151091,37.7973676]},"properties":{"id":2834624830,"element_type":"node","amenity":"toilets"}},{"type":"Feature","geometry":{"type":"Point","coordinates":[140.925431,37.803034]},"properties":{"id":2834755601,"element_type":"node","amenity":"toilets","wheelchair":"no"}},{"type":"Feature","geometry":{"type":"Point","coordinates":[140.3350468,37.2557522]},"properties":{"id":2838849896,"element_type":"node","amenity":"toilets"}},{"type":"Feature","geometry":{"type":"Point","coordinates":[140.3363348,37.2553578]},"properties":{"id":2838849898,"element_type":"node","amenity":"toilets"}},{"type":"Feature","geometry":{"type":"Point","coordinates":[140.3291929,37.3664271]},"properties":{"id":2839816242,"element_type":"node","access":"public","amenity":"toilets","toilets:disposal":"flush","toilets:wheelchair":"yes","wheelchair":"yes"}},{"type":"Feature","geometry":{"type":"Point","coordinates":[140.3270371,37.3666085]},"properties":{"id":2839816307,"element_type":"node","amenity":"toilets","wheelchair":"limited"}},{"type":"Feature","geometry":{"type":"Point","coordinates":[140.3279341,37.3672994]},"properties":{"id":2839816703,"element_type":"node","amenity":"toilets"}},{"type":"Feature","geometry":{"type":"Point","coordinates":[139.9433763,37.4913442]},"properties":{"id":2844784807,"element_type":"node","amenity":"toilets","name":"御薬園"}},{"type":"Feature","geometry":{"type":"Point","coordinates":[140.0328413,37.5363388]},"properties":{"id":2859919584,"element_type":"node","amenity":"toilets"}},{"type":"Feature","geometry":{"type":"Point","coordinates":[140.3553146,37.7162507]},"properties":{"id":2880959915,"element_type":"node","amenity":"toilets","drinking_water":"no","toilets:disposal":"flush","wheelchair":"yes"}},{"type":"Feature","geometry":{"type":"Point","coordinates":[140.3631032,37.7229578]},"properties":{"id":2880968182,"element_type":"node","amenity":"toilets","drinking_water":"yes","wheelchair":"yes"}},{"type":"Feature","geometry":{"type":"Point","coordinates":[140.4626812,37.7694972]},"properties":{"id":2904187127,"element_type":"node","amenity":"toilets","description":"冬期閉鎖期間あり"}},{"type":"Feature","geometry":{"type":"Point","coordinates":[140.3342171,37.6548835]},"properties":{"id":2917998268,"element_type":"node","amenity":"toilets"}},{"type":"Feature","geometry":{"type":"Point","coordinates":[140.0181092,37.5099152]},"properties":{"id":2925461735,"element_type":"node","amenity":"toilets","name":"会津レクリエーション公園 第4駐車場前公衆トイレ"}},{"type":"Feature","geometry":{"type":"Point","coordinates":[140.0176172,37.5136629]},"properties":{"id":2925462654,"element_type":"node","amenity":"toilets","name":"会津レクリエーション公園 ハンノキ沼前公衆トイレ"}},{"type":"Feature","geometry":{"type":"Point","coordinates":[140.015256,37.5142318]},"properties":{"id":2925462680,"element_type":"node","amenity":"toilets","name":"会津レクリエーション公園 モニュメント広場公衆トイレ"}},{"type":"Feature","geometry":{"type":"Point","coordinates":[140.0185254,37.5142547]},"properties":{"id":2925462684,"element_type":"node","amenity":"toilets","name":"会津レクリエーション公園公衆トイレ"}},{"type":"Feature","geometry":{"type":"Point","coordinates":[140.0187807,37.5157351]},"properties":{"id":2925462773,"element_type":"node","amenity":"toilets","name":"会津レクリエーション公園 第2駐車場前公衆トイレ"}},{"type":"Feature","geometry":{"type":"Point","coordinates":[140.0169648,37.5186863]},"properties":{"id":2925462917,"element_type":"node","amenity":"toilets","name":"会津レクリエーション公園 第1駐車場前公衆トイレ"}},{"type":"Feature","geometry":{"type":"Point","coordinates":[140.0639076,37.6521483]},"properties":{"id":2926845701,"element_type":"node","access":"yes","amenity":"toilets","fee":"no","name":"桧原湖南岸駐車場公衆便所","wheelchair":"designated"}},{"type":"Feature","geometry":{"type":"Point","coordinates":[140.0656531,37.6530666]},"properties":{"id":2929257879,"element_type":"node","amenity":"toilets","toilets:disposal":"flush"}},{"type":"Feature","geometry":{"type":"Point","coordinates":[140.091628,37.6558276]},"properties":{"id":2930552968,"element_type":"node","amenity":"toilets"}},{"type":"Feature","geometry":{"type":"Point","coordinates":[139.8406895,37.455663]},"properties":{"id":2953441126,"element_type":"node","amenity":"toilets"}},{"type":"Feature","geometry":{"type":"Point","coordinates":[139.617643,37.5419754]},"properties":{"id":2959901919,"element_type":"node","amenity":"toilets","description":"簡易トイレ 紙状況不明","toilets:disposal":"pitlatrine"}},{"type":"Feature","geometry":{"type":"Point","coordinates":[139.6060203,37.5361088]},"properties":{"id":2960012901,"element_type":"node","amenity":"toilets"}},{"type":"Feature","geometry":{"type":"Point","coordinates":[139.623387,37.5559513]},"properties":{"id":2960015607,"element_type":"node","amenity":"toilets"}},{"type":"Feature","geometry":{"type":"Point","coordinates":[140.0462308,37.5221379]},"properties":{"id":2975858787,"element_type":"node","amenity":"toilets","toilets:disposal":"flush","toilets:position":"seated","wheelchair":"yes"}},{"type":"Feature","geometry":{"type":"Point","coordinates":[140.0746357,37.5352472]},"properties":{"id":3007943428,"element_type":"node","amenity":"toilets"}},{"type":"Feature","geometry":{"type":"Point","coordinates":[140.0755293,37.5365926]},"properties":{"id":3007945488,"element_type":"node","amenity":"toilets"}},{"type":"Feature","geometry":{"type":"Point","coordinates":[140.0428837,37.5214813]},"properties":{"id":3008117393,"element_type":"node","amenity":"toilets"}},{"type":"Feature","geometry":{"type":"Point","coordinates":[140.3621797,37.3969374]},"properties":{"id":3086933896,"element_type":"node","amenity":"toilets"}},{"type":"Feature","geometry":{"type":"Point","coordinates":[140.3574914,37.3966939]},"properties":{"id":3105256793,"element_type":"node","amenity":"toilets"}},{"type":"Feature","geometry":{"type":"Point","coordinates":[140.3559425,37.396462]},"properties":{"id":3105257854,"element_type":"node","amenity":"toilets"}},{"type":"Feature","geometry":{"type":"Point","coordinates":[139.8619469,37.5569121]},"properties":{"id":3174827836,"element_type":"node","amenity":"toilets","fee":"no","female":"yes","male":"yes","unisex":"yes","wheelchair":"yes"}},{"type":"Feature","geometry":{"type":"Point","coordinates":[139.860355,37.3280827]},"properties":{"id":3175856562,"element_type":"node","amenity":"toilets","note":"臨時観光客用トイレ","source":"survey"}},{"type":"Feature","geometry":{"type":"Point","coordinates":[139.8605216,37.3300948]},"properties":{"id":3175856598,"element_type":"node","amenity":"toilets","source":"survey","wheelchair":"yes"}},{"type":"Feature","geometry":{"type":"Point","coordinates":[139.8606575,37.3343109]},"properties":{"id":3175856613,"element_type":"node","access":"public","amenity":"toilets","name":"公衆トイレ","wheelchair":"yes"}},{"type":"Feature","geometry":{"type":"Point","coordinates":[140.9714719,37.6374674]},"properties":{"id":3423991550,"element_type":"node","amenity":"toilets","wheelchair":"yes"}},{"type":"Feature","geometry":{"type":"Point","coordinates":[140.4907406,37.7454102]},"properties":{"id":3441060847,"element_type":"node","amenity":"toilets"}},{"type":"Feature","geometry":{"type":"Point","coordinates":[139.9562901,37.4826837]},"properties":{"id":3448049959,"element_type":"node","amenity":"toilets","name":"東山駐車場公衆トイレ"}},{"type":"Feature","geometry":{"type":"Point","coordinates":[140.495403,37.7430792]},"properties":{"id":3450093384,"element_type":"node","amenity":"toilets","source":"survey"}},{"type":"Feature","geometry":{"type":"Point","coordinates":[140.4948313,37.740011]},"properties":{"id":3450711902,"element_type":"node","amenity":"toilets"}},{"type":"Feature","geometry":{"type":"Point","coordinates":[140.4940554,37.7398293]},"properties":{"id":3451891121,"element_type":"node","amenity":"toilets"}},{"type":"Feature","geometry":{"type":"Point","coordinates":[140.4940817,37.7398322]},"properties":{"id":3451891122,"element_type":"node","amenity":"toilets"}},{"type":"Feature","geometry":{"type":"Point","coordinates":[140.4941091,37.7398356]},"properties":{"id":3451891123,"element_type":"node","amenity":"toilets"}},{"type":"Feature","geometry":{"type":"Point","coordinates":[140.4941377,37.73984]},"properties":{"id":3451891124,"element_type":"node","amenity":"toilets"}},{"type":"Feature","geometry":{"type":"Point","coordinates":[140.2143363,37.1317792]},"properties":{"id":3451956433,"element_type":"node","amenity":"toilets","toilets:wheelchair":"yes","wheelchair":"yes"}},{"type":"Feature","geometry":{"type":"Point","coordinates":[140.9825485,37.2869046]},"properties":{"id":3537260267,"element_type":"node","amenity":"toilets","fee":"no","male":"yes","toilets:disposal":"flush","wheelchair":"yes"}},{"type":"Feature","geometry":{"type":"Point","coordinates":[140.9808955,37.2872203]},"properties":{"id":3537260276,"element_type":"node","amenity":"toilets","fee":"no","male":"yes","toilets:disposal":"flush","wheelchair":"yes"}},{"type":"Feature","geometry":{"type":"Point","coordinates":[140.922683,37.7144483]},"properties":{"id":3537260440,"element_type":"node","access":"yes","amenity":"toilets"}},{"type":"Feature","geometry":{"type":"Point","coordinates":[140.2273395,37.0469217]},"properties":{"id":3592274885,"element_type":"node","amenity":"toilets"}},{"type":"Feature","geometry":{"type":"Point","coordinates":[140.2125275,37.1096507]},"properties":{"id":3605275332,"element_type":"node","amenity":"toilets"}},{"type":"Feature","geometry":{"type":"Point","coordinates":[140.2184059,37.1115435]},"properties":{"id":3605462023,"element_type":"node","amenity":"toilets"}},{"type":"Feature","geometry":{"type":"Point","coordinates":[139.8810471,37.5970727]},"properties":{"id":3608784331,"element_type":"node","amenity":"toilets"}},{"type":"Feature","geometry":{"type":"Point","coordinates":[140.9491481,37.6210352]},"properties":{"id":3698282401,"element_type":"node","amenity":"toilets","fee":"no"}},{"type":"Feature","geometry":{"type":"Point","coordinates":[140.9625201,37.6961282]},"properties":{"id":3698525701,"element_type":"node","amenity":"toilets"}},{"type":"Feature","geometry":{"type":"Point","coordinates":[140.970316,37.7023582]},"properties":{"id":3699365327,"element_type":"node","amenity":"toilets"}},{"type":"Feature","geometry":{"type":"Point","coordinates":[140.8330433,37.7206454]},"properties":{"id":3699397781,"element_type":"node","amenity":"toilets","changing_table":"no"}},{"type":"Feature","geometry":{"type":"Point","coordinates":[140.99618,37.5627529]},"properties":{"id":3699457670,"element_type":"node","amenity":"toilets"}},{"type":"Feature","geometry":{"type":"Point","coordinates":[140.968577,37.6444835]},"properties":{"id":3699464375,"element_type":"node","amenity":"toilets"}},{"type":"Feature","geometry":{"type":"Point","coordinates":[139.9129777,37.3455916]},"properties":{"id":3699881438,"element_type":"node","amenity":"toilets"}},{"type":"Feature","geometry":{"type":"Point","coordinates":[139.9156885,37.3473119]},"properties":{"id":3699882042,"element_type":"node","amenity":"toilets"}},{"type":"Feature","geometry":{"type":"Point","coordinates":[140.9478855,37.7611558]},"properties":{"id":3700907086,"element_type":"node","amenity":"toilets"}},{"type":"Feature","geometry":{"type":"Point","coordinates":[140.8861625,37.0567348]},"properties":{"id":3750344682,"element_type":"node","amenity":"toilets"}},{"type":"Feature","geometry":{"type":"Point","coordinates":[141.0143198,37.2679667]},"properties":{"id":3751590384,"element_type":"node","amenity":"toilets","wheelchair":"no"}},{"type":"Feature","geometry":{"type":"Point","coordinates":[141.0130834,37.2671156]},"properties":{"id":3751590388,"element_type":"node","amenity":"toilets","wheelchair":"yes"}},{"type":"Feature","geometry":{"type":"Point","coordinates":[139.9322391,37.4842723]},"properties":{"id":3762416148,"element_type":"node","access":"yes","amenity":"toilets","fee":"no","name":"鶴ヶ城南口駐車場公衆トイレ","name:en":"Tsurugajo North Entrance Parking Restroom","name:ja_rm":"Tsurugajo Minamiguchi chushajo toire","toilets:disposal":"flush"}},{"type":"Feature","geometry":{"type":"Point","coordinates":[139.9338112,37.4877308]},"properties":{"id":3762419748,"element_type":"node","access":"yes","amenity":"toilets","fee":"no","name":"鶴ヶ城東口駐車場公衆トイレ","toilets:disposal":"flush","toilets:position":"seated;urinal","wheelchair":"yes"}},{"type":"Feature","geometry":{"type":"Point","coordinates":[139.9540472,37.504173]},"properties":{"id":3776345354,"element_type":"node","amenity":"toilets","name":"飯盛分店"}},{"type":"Feature","geometry":{"type":"Point","coordinates":[139.9067156,37.4471955]},"properties":{"id":3776359264,"element_type":"node","amenity":"toilets","name":"せせらぎ公園公衆トイレ"}},{"type":"Feature","geometry":{"type":"Point","coordinates":[139.9062584,37.4482493]},"properties":{"id":3776359265,"element_type":"node","amenity":"toilets","name":"せせらぎ公園公衆トイレ"}},{"type":"Feature","geometry":{"type":"Point","coordinates":[139.9025946,37.4452948]},"properties":{"id":3776359266,"element_type":"node","amenity":"toilets","name":"向羽黒山公衆トイレ"}},{"type":"Feature","geometry":{"type":"Point","coordinates":[139.8991916,37.4454647]},"properties":{"id":3776359267,"element_type":"node","amenity":"toilets","name":"向羽黒山公衆トイレ"}},{"type":"Feature","geometry":{"type":"Point","coordinates":[139.901406,37.4444503]},"properties":{"id":3776359268,"element_type":"node","amenity":"toilets","name":"向羽黒山城二ノ丸跡駐車場公衆トイレ"}},{"type":"Feature","geometry":{"type":"Point","coordinates":[139.9190103,37.5011764]},"properties":{"id":3778410257,"element_type":"node","amenity":"toilets","name":"JR東日本　七日町駅","opening_hours":"Mo-Su 05:30-23:20","source":"CC BY 2.1 JP http://www.data4citizen.jp/app/users/"}},{"type":"Feature","geometry":{"type":"Point","coordinates":[139.9304576,37.5082851]},"properties":{"id":3778410258,"element_type":"node","amenity":"toilets","description":"女子と共用","opening_hours":"Mo-Su 05:00-24:00","source":"CC BY 2.1 JP http://www.data4citizen.jp/app/users/"}},{"type":"Feature","geometry":{"type":"Point","coordinates":[139.933499,37.549387]},"properties":{"id":3778410259,"element_type":"node","amenity":"toilets","name":"JR東日本　広田駅","opening_hours":"24/7","source":"CC BY 2.1 JP http://openstreetmap.org And http://www.data4citizen.jp/app/users/"}},{"type":"Feature","geometry":{"type":"Point","coordinates":[139.9142113,37.4860337]},"properties":{"id":3778410260,"element_type":"node","amenity":"toilets","level":"1","name":"JR東日本　西若松駅","opening_hours":"Mo-Su 05:57-21:40","source":"CC BY 2.1 JP http://www.data4citizen.jp/app/users/"}},{"type":"Feature","geometry":{"type":"Point","coordinates":[139.9250905,37.4621482]},"properties":{"id":3778410261,"element_type":"node","amenity":"toilets","name":"あいづ総合体育館","opening_hours":"Mo-Su 09:00-21:00; Dec 29-31 off; Jun 1-3 off","source":"ODBL And CC BY 2.1 JP http://www.data4citizen.jp/app/users/"}},{"type":"Feature","geometry":{"type":"Point","coordinates":[139.9370313,37.4900868]},"properties":{"id":3778410262,"element_type":"node","amenity":"toilets","description":"和式 おむつ台x2 トイレの数x2","name":"つばくろ公園","opening_hours":"24/7","operator":"会津若松市 花と緑の課","phone":"+81-242-39-1262","source":"http://www.mapillary.com/map/im/-rTDa2FpSkQ_QvUGY9sfMQ/photo","toilets:position":"squat","website":"https://www.city.aizuwakamatsu.fukushima.jp/soshiki/hanatomidorinoka/"}},{"type":"Feature","geometry":{"type":"Point","coordinates":[139.9383118,37.51991]},"properties":{"id":3778410263,"element_type":"node","amenity":"toilets","description":"和式 おむつ台x2 トイレの数x2","name":"つるかめ公園","opening_hours":"24/7","operator":"会津若松市 花と緑の課","phone":"+81-242-39-1262","source":"http://www.mapillary.com/map/im/NpFYp5qbgTEK0dXViXTjNg/photo","toilets:position":"squat","website":"https://www.city.aizuwakamatsu.fukushima.jp/soshiki/hanatomidorinoka/"}},{"type":"Feature","geometry":{"type":"Point","coordinates":[139.86981,37.498789]},"properties":{"id":3778410264,"element_type":"node","amenity":"toilets","description":"和式 トイレの数x2","name":"やすらぎ広場ホタルの森公園","opening_hours":"24/7","source":"ODBL And CC BY 2.1 JP http://www.aizukanko.com/spot/210/ And http://www.data4citizen.jp/app/users/","toilets:position":"squat"}},{"type":"Feature","geometry":{"type":"Point","coordinates":[139.9324519,37.4889282]},"properties":{"id":3778410265,"element_type":"node","amenity":"toilets","description":"和式 トイレの数x2","name":"二の丸トイレ","name:en":"Ninomaru Restroom","opening_hours":"24/7","source":"ODBL And CC BY 2.1 JP http://www.data4citizen.jp/app/users/","toilets:position":"squat"}},{"type":"Feature","geometry":{"type":"Point","coordinates":[139.9327983,37.4921193]},"properties":{"id":3778410266,"element_type":"node","amenity":"toilets","name":"会津労働基準監督署","opening_hours":"Mo-Fr 08:30-17:15; Dec 29-31 off; Jun 1-3 off; PH off","source":"CC BY 2.1 JP http://www.data4citizen.jp/app/users/"}},{"type":"Feature","geometry":{"type":"Point","coordinates":[139.9361037,37.4890919]},"properties":{"id":3778410267,"element_type":"node","amenity":"toilets","description":"女子と共用　第四木曜日休み","opening_hours":"Tu-Fr 10:00-18:00; Dec 29-31 off; Jun 1-3 off; PH off","source":"CC BY 2.1 JP http://www.data4citizen.jp/app/users/"}},{"type":"Feature","geometry":{"type":"Point","coordinates":[139.9459659,37.5068344]},"properties":{"id":3778410268,"element_type":"node","amenity":"toilets","name":"会津大学短期大学部","opening_hours":"Mo-Su 08:00-18:00; Dec 29-31 off; Jun 1-3 off","source":"CC BY 2.1 JP http://www.data4citizen.jp/app/users/"}},{"type":"Feature","geometry":{"type":"Point","coordinates":[139.9291621,37.5019737]},"properties":{"id":3778410269,"element_type":"node","amenity":"toilets","description":"和式","name":"会津町方伝承館","opening_hours":"Tu-Fr 09:00-18:00; Dec 29-31 off; Jun 1-3 off; PH off","source":"CC BY 2.1 JP http://www.data4citizen.jp/app/users/","toilets:position":"squat"}},{"type":"Feature","geometry":{"type":"Point","coordinates":[139.9296506,37.4615862]},"properties":{"id":3778410270,"element_type":"node","amenity":"toilets","name":"会津総合運動公園あいづドーム","opening_hours":"Mo-Su 09:00-21:00; Dec 29-31 off; Jun 1-3 off","source":"ODBL And CC BY 2.1 JP http://www.data4citizen.jp/app/users/"}},{"type":"Feature","geometry":{"type":"Point","coordinates":[139.9290202,37.4606191]},"properties":{"id":3778410271,"element_type":"node","amenity":"toilets","name":"会津総合運動公園（わんぱく広場）","opening_hours":"24/7","source":"ODBL And CC BY 2.1 JP http://www.data4citizen.jp/app/users/"}},{"type":"Feature","geometry":{"type":"Point","coordinates":[139.9289543,37.4906444]},"properties":{"id":3778410272,"element_type":"node","amenity":"toilets","name":"会津若松合同庁舎","opening_hours":"Mo-Fr 08:30-17:15; Dec 29-31 off; Jun 1-3 off; PH off","source":"CC BY 2.1 JP http://www.data4citizen.jp/app/users/","toilets:position":"seated;urinal"}},{"type":"Feature","geometry":{"type":"Point","coordinates":[139.9451165,37.4918305]},"properties":{"id":3778410273,"element_type":"node","amenity":"toilets","description":"和式 トイレの数x2","name":"会津若松商工会議所","opening_hours":"Mo-Fr 08:30-17:30; Dec 29-31 off; Jun 1-3 off; PH off","source":"CC BY 2.1 JP http://www.aizu-cci.or.jp/ And http://www.data4citizen.jp/app/users/","toilets:position":"squat"}},{"type":"Feature","geometry":{"type":"Point","coordinates":[139.9468045,37.5136197]},"properties":{"id":3778410274,"element_type":"node","amenity":"toilets","check_date":"2024-11-26","name":"会津若松市一箕公民館（一箕市民センター）","opening_hours":"Mo-Su 08:30-19:00; Dec 29-31 off; Jun 1-3 off","source":"CC BY 2.1 JP http://www.data4citizen.jp/app/users/"}},{"type":"Feature","geometry":{"type":"Point","coordinates":[139.9276897,37.4898535]},"properties":{"id":3778410275,"element_type":"node","amenity":"toilets","description":"不定休 8時30分～17時30分（(その他)部屋貸出時間は9時～22時まで）","name":"追手町第二庁舎","opening_hours":"Mo-Su 09:00-17:30","source":"CC BY 2.1 JP http://www.data4citizen.jp/app/users/"}},{"type":"Feature","geometry":{"type":"Point","coordinates":[139.9010948,37.5175241]},"properties":{"id":3778410276,"element_type":"node","amenity":"toilets","name":"会津若松市中央公民館神指分館","opening_hours":"Mo-Fr 09:00-22:00; Dec 29-31 off; Jun 1-3 off","source":"CC BY 2.1 JP http://www.data4citizen.jp/app/users/"}},{"type":"Feature","geometry":{"type":"Point","coordinates":[139.8691321,37.4983674]},"properties":{"id":3778410277,"element_type":"node","amenity":"toilets","description":"月曜・月曜が祝日なら次の日・12月29日～1月3日（デイサービスのみ）","name":"会津若松市北会津保健センター","opening_hours":"Mo-Fr 09:00-21:00; Dec 29-31 off; Jun 1-3 off; PH off","source":"CC BY 2.1 JP http://www.data4citizen.jp/app/users/","toilets:position":"seated;urinal"}},{"type":"Feature","geometry":{"type":"Point","coordinates":[139.8741957,37.492146]},"properties":{"id":3778410278,"element_type":"node","amenity":"toilets","description":"女子と共用","name":"会津若松市北会津公民館","opening_hours":"Mo-Su 09:00-22:00; Dec 29-31 off; Jun 1-3 off","source":"CC BY 2.1 JP http://www.data4citizen.jp/app/users/"}},{"type":"Feature","geometry":{"type":"Point","coordinates":[139.9111548,37.521882]},"properties":{"id":3778410279,"element_type":"node","amenity":"toilets","name":"会津若松市北公民館（北市民センター）","opening_hours":"Mo-Fr 08:30-22:00; Dec 29-31 off; Jun 1-3 off; PH off","source":"CC BY 2.1 JP http://www.data4citizen.jp/app/users/"}},{"type":"Feature","geometry":{"type":"Point","coordinates":[139.9220502,37.4676718]},"properties":{"id":3778410280,"element_type":"node","amenity":"toilets","name":"会津若松市南公民館（南市民センター）","opening_hours":"Mo-Su 08:30-17:15; Dec 29-31 off; Jun 1-3 off","source":"CC BY 2.1 JP http://www.data4citizen.jp/app/users/"}},{"type":"Feature","geometry":{"type":"Point","coordinates":[140.0117507,37.4670365]},"properties":{"id":3778410281,"element_type":"node","amenity":"toilets","description":"女子と共用","name":"会津若松市基幹集落センター","opening_hours":"Mo-Fr 08:30-17:15; Dec 29-31 off; Jun 1-3 off; PH off","source":"CC BY 2.1 JP http://www.data4citizen.jp/app/users/"}},{"type":"Feature","geometry":{"type":"Point","coordinates":[139.925063,37.4905888]},"properties":{"id":3778410282,"element_type":"node","amenity":"toilets","description":"おむつ交換台は女子トイレのみ おむつ台x1","name":"会津若松市夜間急病センター","opening_hours":"Mo-Su 19:00-22:30","source":"CC BY 2.1 JP http://www.data4citizen.jp/app/users/"}},{"type":"Feature","geometry":{"type":"Point","coordinates":[139.8741102,37.4914447]},"properties":{"id":3778410284,"element_type":"node","amenity":"toilets","name":"会津若松市役所北会津支所","opening_hours":"Mo-Su 09:00-18:00","source":"CC BY 2.1 JP http://www.data4citizen.jp/app/users/"}},{"type":"Feature","geometry":{"type":"Point","coordinates":[139.9313594,37.4965465]},"properties":{"id":3778410285,"element_type":"node","amenity":"toilets","name":"会津若松市役所栄町第一庁舎","opening_hours":"Mo-Fr 08:30-17:30; Dec 29-31 off; Jun 1-3 off; PH off","source":"CC BY 2.1 JP http://www.data4citizen.jp/app/users/"}},{"type":"Feature","geometry":{"type":"Point","coordinates":[139.9308706,37.4959161]},"properties":{"id":3778410286,"element_type":"node","amenity":"toilets","description":"トイレにはベッド無し、窓口近くに有","name":"会津若松市役所栄町第二庁舎","opening_hours":"Mo-Fr 08:30-17:30; Dec 29-31 off; Jun 1-3 off; PH off","source":"CC BY 2.1 JP http://www.data4citizen.jp/app/users/"}},{"type":"Feature","geometry":{"type":"Point","coordinates":[139.9258605,37.5518151]},"properties":{"id":3778410287,"element_type":"node","amenity":"toilets","description":"女子と共用","name":"会津若松市役所河東支所","opening_hours":"Mo-Fr 08:30-17:30; Dec 29-31 off; Jun 1-3 off; PH off","source":"CC BY 2.1 JP http://www.data4citizen.jp/app/users/"}},{"type":"Feature","geometry":{"type":"Point","coordinates":[139.9343639,37.4858246]},"properties":{"id":3778410288,"element_type":"node","amenity":"toilets","description":"月曜・月曜が祝日の場合は翌日・12月29日～1月3日","opening_hours":"Mo-Su 09:00-22:00; Dec 29-31 off; Jun 1-3 off","source":"CC BY 2.1 JP http://www.data4citizen.jp/app/users/","toilets:position":"seated;urinal","wheelchair":"yes"}},{"type":"Feature","geometry":{"type":"Point","coordinates":[139.9459691,37.4930471]},"properties":{"id":3778410289,"element_type":"node","amenity":"toilets","name":"会津若松市東公民館（東市民センター）","opening_hours":"Mo-Su 08:30-22:00; Dec 29-31 off; Jun 1-3 off","source":"CC BY 2.1 JP http://www.data4citizen.jp/app/users/"}},{"type":"Feature","geometry":{"type":"Point","coordinates":[139.9460685,37.5102701]},"properties":{"id":3778410290,"element_type":"node","amenity":"toilets","check_date":"2025-05-19","fee":"no","name":"会津若松市民ふれあいスポーツ広場　ふれあい体育館","opening_hours":"Mo-Su 09:00-21:00; Dec 29-31 off; Jun 1-3 off","source":"CC BY 2.1 JP http://www.data4citizen.jp/app/users/"}},{"type":"Feature","geometry":{"type":"Point","coordinates":[139.9096914,37.5123]},"properties":{"id":3778410291,"element_type":"node","amenity":"toilets","name":"会津若松市水道部","opening_hours":"Mo-Su 09:00-19:15; Dec 29-31 off; Jun 1-3 off","source":"CC BY 2.1 JP http://www.data4citizen.jp/app/users/"}},{"type":"Feature","geometry":{"type":"Point","coordinates":[139.9263633,37.5498931]},"properties":{"id":3778410292,"element_type":"node","amenity":"toilets","description":"事業がある日以外の日が開館時間 女子と共用","name":"会津若松市河東保健センター","opening_hours":"Mo-Fr 08:30-17:30; Dec 29-31 off; Jun 1-3 off; PH off","source":"CC BY 2.1 JP http://www.data4citizen.jp/app/users/"}},{"type":"Feature","geometry":{"type":"Point","coordinates":[139.9565399,37.546066]},"properties":{"id":3778410293,"element_type":"node","amenity":"toilets","name":"会津若松市河東総合体育館","opening_hours":"Mo-Su 09:00-21:00; Dec 29-31 off; Jun 1-3 off","source":"CC BY 2.1 JP http://www.data4citizen.jp/app/users/"}},{"type":"Feature","geometry":{"type":"Point","coordinates":[139.9257051,37.5497098]},"properties":{"id":3778410294,"element_type":"node","amenity":"toilets","name":"会津若松市社会福祉協議会河東支所","opening_hours":"Mo-Fr 08:30-17:15; Dec 29-31 off; Jun 1-3 off; PH off","source":"CC BY 2.1 JP http://www.data4citizen.jp/app/users/"}},{"type":"Feature","geometry":{"type":"Point","coordinates":[139.9341282,37.5062621]},"properties":{"id":3778410296,"element_type":"node","amenity":"toilets","description":"和式 トイレの数x2","name":"会津若松消防署","opening_hours":"24/7","source":"CC BY 2.1 JP http://www.data4citizen.jp/app/users/","toilets:position":"squat"}},{"type":"Feature","geometry":{"type":"Point","coordinates":[139.9327935,37.4901861]},"properties":{"id":3778410297,"element_type":"node","amenity":"toilets","name":"会津若松税務署","opening_hours":"Mo-Fr 08:30-17:00; Dec 29-31 off; Jun 1-3 off; PH off","source":"http://www.data4citizen.jp/app/users/ and http://www.nta.go.jp/sendai/guide/zeimusho/fukushima/aizu-wakamatsu/"}},{"type":"Feature","geometry":{"type":"Point","coordinates":[139.945763,37.5117727]},"properties":{"id":3778410299,"element_type":"node","amenity":"toilets","name":"会津若松警察署一箕交番","opening_hours":"24/7","source":"CC BY 2.1 JP http://www.data4citizen.jp/app/users/"}},{"type":"Feature","geometry":{"type":"Point","coordinates":[139.9191881,37.5011459]},"properties":{"id":3778410300,"element_type":"node","amenity":"toilets","name":"会津若松警察署七日町交番","opening_hours":"24/7","source":"CC BY 2.1 JP http://www.data4citizen.jp/app/users/"}},{"type":"Feature","geometry":{"type":"Point","coordinates":[139.8693068,37.5043445]},"properties":{"id":3778410301,"element_type":"node","amenity":"toilets","name":"会津若松警察署北会津駐在所","opening_hours":"24/7","source":"CC BY 2.1 JP http://www.data4citizen.jp/app/users/ And http://www.police.pref.fukushima.jp/police/wakamatsu/koban.html"}},{"type":"Feature","geometry":{"type":"Point","coordinates":[139.9327989,37.3981721]},"properties":{"id":3778410304,"element_type":"node","amenity":"toilets","name":"会津若松警察署大戸駐在所","opening_hours":"24/7","source":"CC BY 2.1 JP http://www.data4citizen.jp/app/users/"}},{"type":"Feature","geometry":{"type":"Point","coordinates":[139.9302873,37.4962355]},"properties":{"id":3778410305,"element_type":"node","amenity":"toilets","name":"会津若松警察署栄町交番","opening_hours":"24/7","source":"CC BY 2.1 JP http://www.data4citizen.jp/app/users/"}},{"type":"Feature","geometry":{"type":"Point","coordinates":[139.9270826,37.5514707]},"properties":{"id":3778410306,"element_type":"node","amenity":"toilets","name":"会津若松警察署河東駐在所","opening_hours":"24/7","source":"CC BY 2.1 JP http://www.data4citizen.jp/app/users/"}},{"type":"Feature","geometry":{"type":"Point","coordinates":[140.0122005,37.4736858]},"properties":{"id":3778410307,"element_type":"node","amenity":"toilets","name":"会津若松警察署湊駐在所","opening_hours":"24/7","source":"CC BY 2.1 JP http://www.data4citizen.jp/app/users/"}},{"type":"Feature","geometry":{"type":"Point","coordinates":[139.9218783,37.459406]},"properties":{"id":3778410308,"element_type":"node","amenity":"toilets","name":"会津若松警察署門田駐在所","opening_hours":"24/7","source":"CC BY 2.1 JP http://www.data4citizen.jp/app/users/"}},{"type":"Feature","geometry":{"type":"Point","coordinates":[139.9143706,37.4594781]},"properties":{"id":3778410310,"element_type":"node","amenity":"toilets","name":"会津鉄道　南若松駅","opening_hours":"Mo-Su 06:00-21:50","source":"CC BY 2.1 JP http://www.data4citizen.jp/app/users/"}},{"type":"Feature","geometry":{"type":"Point","coordinates":[139.932201,37.395794]},"properties":{"id":3778410311,"element_type":"node","amenity":"toilets","name":"会津鉄道　芦ノ牧温泉駅","opening_hours":"Mo-Su 06:08-22:02","source":"CC BY 2.1 JP http://openstreetmap.org And http://www.data4citizen.jp/app/users/"}},{"type":"Feature","geometry":{"type":"Point","coordinates":[139.9381067,37.5234112]},"properties":{"id":3778410312,"element_type":"node","amenity":"toilets","name":"公立大学法人　会津大学　体育館棟","opening_hours":"Mo-Fr 12:00-18:00; Dec 29-31 off; Jun 1-3 off; PH off","source":"ODBL And CC BY 2.1 JP http://www.data4citizen.jp/app/users/","toilets:position":"seated;urinal","wheelchair":"no"}},{"type":"Feature","geometry":{"type":"Point","coordinates":[139.9372607,37.523485]},"properties":{"id":3778410313,"element_type":"node","amenity":"toilets","description":"(その他)春季、夏季、冬季の休業期間中平日9：00～17：00土曜9：00～12：00）","name":"公立大学法人　会津大学　情報センター附属図書館","opening_hours":"Mo-Fr 09:00-20:00; Dec 29-31 off; Jun 1-3 off; PH off","source":"ODBL And CC BY 2.1 JP http://www.data4citizen.jp/app/users/","toilets:position":"seated;urinal"}},{"type":"Feature","geometry":{"type":"Point","coordinates":[139.9387111,37.5246042]},"properties":{"id":3778410314,"element_type":"node","amenity":"toilets","name":"公立大学法人　会津大学　産学イノベーションセンター　UBIC","opening_hours":"Mo-Fr 08:30-17:00; Dec 29-31 off; Jun 1-3 off; PH off","source":"ODBL And CC BY 2.1 JP http://www.data4citizen.jp/app/users/","toilets:position":"seated;urinal"}},{"type":"Feature","geometry":{"type":"Point","coordinates":[139.9373209,37.5224871]},"properties":{"id":3778410315,"element_type":"node","amenity":"toilets","description":"おむつ台x1","name":"公立大学法人　会津大学　講堂","opening_hours":"Mo-Su 09:00-21:00; Dec 29-31 off; Jun 1-3 off; PH off","source":"ODBL And CC BY 2.1 JP http://www.data4citizen.jp/app/users/","toilets:position":"seated;urinal"}},{"type":"Feature","geometry":{"type":"Point","coordinates":[139.9381313,37.5244706]},"properties":{"id":3778410316,"element_type":"node","amenity":"toilets","name":"公立大学法人　会津大学　講義棟","opening_hours":"Mo-Su 09:00-21:00; Dec 29-31 off; Jun 1-3 off; PH off","source":"ODBL And CC BY 2.1 JP http://www.data4citizen.jp/app/users/","toilets:position":"seated;urinal"}},{"type":"Feature","geometry":{"type":"Point","coordinates":[139.9372446,37.5239287]},"properties":{"id":3778410317,"element_type":"node","amenity":"toilets","name":"公立大学法人　会津大学　食堂","opening_hours":"Mo-Fr 11:00-19:00; Dec 29-31 off; Jun 1-3 off; PH off","source":"ODBL And CC BY 2.1 JP http://www.data4citizen.jp/app/users/","toilets:position":"seated;urinal"}},{"type":"Feature","geometry":{"type":"Point","coordinates":[139.9253114,37.5049427]},"properties":{"id":3778410318,"element_type":"node","amenity":"toilets","name":"城北コミュニティセンター","opening_hours":"Tu-Fr 13:00-21:00;Sa 09:00-21:00; Dec 29-31 off; Jun 1-3 off; PH off","source":"CC BY 2.1 JP http://www.data4citizen.jp/app/users/"}},{"type":"Feature","geometry":{"type":"Point","coordinates":[139.9308131,37.4755489]},"properties":{"id":3778410319,"element_type":"node","amenity":"toilets","name":"城南コミュニティセンター","opening_hours":"Tu-Fr 13:00-21:00;Sa 09:00-21:00; Dec 29-31 off; Jun 1-3 off; PH off","source":"CC BY 2.1 JP http://www.data4citizen.jp/app/users/"}},{"type":"Feature","geometry":{"type":"Point","coordinates":[139.9154218,37.4831579]},"properties":{"id":3778410321,"element_type":"node","amenity":"toilets","description":"和式 おむつ台x2 トイレの数x2","name":"城西町公園","opening_hours":"24/7","operator":"会津若松市 花と緑の課","phone":"+81-242-39-1262","source":"http://www.mapillary.com/map/im/AaK4sdHF2v8YoZ0j-XhVlQ/photo","toilets:position":"squat","website":"https://www.city.aizuwakamatsu.fukushima.jp/soshiki/hanatomidorinoka/"}},{"type":"Feature","geometry":{"type":"Point","coordinates":[139.9324239,37.3980443]},"properties":{"id":3778410322,"element_type":"node","amenity":"toilets","name":"大戸公民館・大戸市民センター","opening_hours":"Mo-Fr 08:30-17:00; Dec 29-31 off; Jun 1-3 off; PH off","source":"CC BY 2.1 JP http://www.data4citizen.jp/app/users/","toilets:position":"seated;urinal"}},{"type":"Feature","geometry":{"type":"Point","coordinates":[139.9311229,37.5026699]},"properties":{"id":3778410323,"element_type":"node","amenity":"toilets","description":"街区公園 大町中央公園","name":"大町中央公園 多目的トイレ","opening_hours":"24/7","operator":"会津若松市 花と緑の課","phone":"+81-242-39-1262","source":"http://www.mapillary.com/map/im/TVfXPCZZAPdajHqJHlEjsw/photo","website":"https://www.city.aizuwakamatsu.fukushima.jp/soshiki/hanatomidorinoka/"}},{"type":"Feature","geometry":{"type":"Point","coordinates":[139.9339901,37.5081691]},"properties":{"id":3778410324,"element_type":"node","amenity":"toilets","description":"和式 トイレの数x2","name":"大町白虎公園","opening_hours":"24/7","operator":"会津若松市 花と緑の課","phone":"+81-242-39-1262","source":"http://www.mapillary.com/map/im/-_-suGbJD18krw6dQa7R9A/photo","toilets:position":"squat","website":"https://www.city.aizuwakamatsu.fukushima.jp/soshiki/hanatomidorinoka/"}},{"type":"Feature","geometry":{"type":"Point","coordinates":[139.9530241,37.4902196]},"properties":{"id":3778410325,"element_type":"node","amenity":"toilets","name":"天寧寺","opening_hours":"Mo-Su 09:00-17:00","source":"CC BY 2.1 JP http://www.data4citizen.jp/app/users/"}},{"type":"Feature","geometry":{"type":"Point","coordinates":[139.936541,37.4885056]},"properties":{"id":3778410326,"element_type":"node","amenity":"toilets","description":"和式 おむつ台x2 トイレの数x2","name":"小田垣公園","opening_hours":"24/7","operator":"会津若松市 花と緑の課","phone":"+81-242-39-1262","source":"http://www.mapillary.com/map/im/CAL5cp48XBMNW92sEFiVaQ/photo","toilets:position":"squat","website":"https://www.city.aizuwakamatsu.fukushima.jp/soshiki/hanatomidorinoka/"}},{"type":"Feature","geometry":{"type":"Point","coordinates":[139.9515826,37.493055]},"properties":{"id":3778410327,"element_type":"node","amenity":"toilets","description":"和式 トイレの数x2 街区公園 愛宕山公園","name":"愛宕山公園","opening_hours":"24/7","operator":"会津若松市 花と緑の課","phone":"+81-242-39-1262","source":"http://www.mapillary.com/map/im/Tk3XxlGpfpWWchdgnHfkKA/photo","toilets:position":"squat","website":"https://www.city.aizuwakamatsu.fukushima.jp/soshiki/hanatomidorinoka/"}},{"type":"Feature","geometry":{"type":"Point","coordinates":[139.9183633,37.4975878]},"properties":{"id":3778410328,"element_type":"node","amenity":"toilets","description":"年末年始・お盆休み","name":"日新コミュニティセンター","opening_hours":"Tu-Fr 13:00-21:00;Su 09:00-21:00; Dec 29-31 off; Jun 1-3 off; PH off","source":"CC BY 2.1 JP http://www.data4citizen.jp/app/users/"}},{"type":"Feature","geometry":{"type":"Point","coordinates":[139.9178963,37.4955848]},"properties":{"id":3778410329,"element_type":"node","amenity":"toilets","description":"和式 トイレの数x2","name":"日新町公園","opening_hours":"24/7","operator":"会津若松市 花と緑の課","phone":"+81-242-39-1262","source":"http://www.mapillary.com/map/im/mtI61QXVCwRT78_gIHWSdw/photo","toilets:position":"squat","website":"https://www.city.aizuwakamatsu.fukushima.jp/soshiki/hanatomidorinoka/"}},{"type":"Feature","geometry":{"type":"Point","coordinates":[139.9456783,37.4998993]},"properties":{"id":3778410330,"element_type":"node","amenity":"toilets","name":"東部公園","opening_hours":"24/7","source":"CC BY 2.1 JP http://www.data4citizen.jp/app/users/"}},{"type":"Feature","geometry":{"type":"Point","coordinates":[139.9592386,37.5284114]},"properties":{"id":3778410331,"element_type":"node","amenity":"toilets","description":"年末年始・お盆休み","opening_hours":"Mo-Fr 08:30-18:00; Dec 29-31 off; Jun 1-3 off; PH off","source":"CC BY 2.1 JP http://www.data4citizen.jp/app/users/","toilets:position":"seated;urinal"}},{"type":"Feature","geometry":{"type":"Point","coordinates":[139.956643,37.5270438]},"properties":{"id":3778410332,"element_type":"node","amenity":"toilets","name":"松長緑道","opening_hours":"24/7","operator":"会津若松市 花と緑の課","phone":"+81-242-39-1262","source":"http://www.mapillary.com/map/im/2n3vZHbqdX75_RHAxVf1qQ/photo","toilets:position":"seated;urinal","website":"https://www.city.aizuwakamatsu.fukushima.jp/soshiki/hanatomidorinoka/"}},{"type":"Feature","geometry":{"type":"Point","coordinates":[139.9544994,37.5305986]},"properties":{"id":3778410333,"element_type":"node","amenity":"toilets","description":"和式 トイレの数x2","name":"松長１号公園","opening_hours":"24/7","operator":"会津若松市 花と緑の課","phone":"+81-242-39-1262","source":"http://www.mapillary.com/map/im/9Gxc67e_AC2z_DI88BUwsw/photo","toilets:position":"squat","website":"https://www.city.aizuwakamatsu.fukushima.jp/soshiki/hanatomidorinoka/"}},{"type":"Feature","geometry":{"type":"Point","coordinates":[139.9600189,37.5263975]},"properties":{"id":3778410334,"element_type":"node","amenity":"toilets","description":"女子と共用","name":"松長３号公園","opening_hours":"24/7","operator":"会津若松市 花と緑の課","phone":"+81-242-39-1262","source":"http://www.mapillary.com/map/im/tpLWhgdAlby69GcvMi5J8A/photo","website":"https://www.city.aizuwakamatsu.fukushima.jp/soshiki/hanatomidorinoka/"}},{"type":"Feature","geometry":{"type":"Point","coordinates":[140.0113479,37.4674225]},"properties":{"id":3778410335,"element_type":"node","amenity":"toilets","name":"湊公民館","opening_hours":"Mo-Fr 09:00-17:00","source":"CC BY 2.1 JP http://www.data4citizen.jp/app/users/","toilets:position":"seated;urinal"}},{"type":"Feature","geometry":{"type":"Point","coordinates":[139.926732,37.4983602]},"properties":{"id":3778410336,"element_type":"node","amenity":"toilets","name":"田中稲荷神社","opening_hours":"24/7","source":"CC BY 2.1 JP http://www.data4citizen.jp/app/users/"}},{"type":"Feature","geometry":{"type":"Point","coordinates":[139.8667314,37.51021]},"properties":{"id":3778410337,"element_type":"node","amenity":"toilets","name":"白山沼公園","opening_hours":"24/7","source":"ODBL And CC BY 2.1 JP http://openstreetmap.org And http://www.data4citizen.jp/app/users/"}},{"type":"Feature","geometry":{"type":"Point","coordinates":[139.8757751,37.517968]},"properties":{"id":3778410338,"element_type":"node","amenity":"toilets","description":"年末年始・お盆休み","name":"真宮コミュニティセンター","opening_hours":"Tu-Fr 13:00-21:00;Su 09:00-21:00; Dec 29-31 off; Jun 1-3 off; PH off","source":"CC BY 2.1 JP http://www.data4citizen.jp/app/users/"}},{"type":"Feature","geometry":{"type":"Point","coordinates":[139.926935,37.5121033]},"properties":{"id":3778410339,"element_type":"node","amenity":"toilets","description":"和式 トイレの数x2","name":"石堂町公園","opening_hours":"24/7","operator":"会津若松市 花と緑の課","phone":"+81-242-39-1262","source":"http://www.mapillary.com/map/im/iobJ3j9pEJ1exHvZJXwC5w/photo","toilets:position":"squat","website":"https://www.city.aizuwakamatsu.fukushima.jp/soshiki/hanatomidorinoka/"}},{"type":"Feature","geometry":{"type":"Point","coordinates":[139.9279192,37.4965326]},"properties":{"id":3778410340,"element_type":"node","amenity":"toilets","description":"女子と共用 おむつ台x2","name":"神明通り公衆便所","opening_hours":"24/7","source":"CC BY 2.1 JP http://openstreetmap.org And http://www.data4citizen.jp/app/users/"}},{"type":"Feature","geometry":{"type":"Point","coordinates":[139.9295209,37.4908694]},"properties":{"id":3778410341,"element_type":"node","amenity":"toilets","name":"福島地方裁判所会津若松支部","opening_hours":"Mo-Fr 08:30-17:00; Dec 29-31 off; Jun 1-3 off; PH off","source":"CC BY 2.1 JP http://www.data4citizen.jp/app/users/","toilets:position":"seated;urinal"}},{"type":"Feature","geometry":{"type":"Point","coordinates":[139.9283182,37.4915415]},"properties":{"id":3778410342,"element_type":"node","amenity":"toilets","name":"福島県会津保健福祉事務所","opening_hours":"Mo-Fr 08:30-17:30; Dec 29-31 off; Jun 1-3 off; PH off","source":"CC BY 2.1 JP http://www.data4citizen.jp/app/users/"}},{"type":"Feature","geometry":{"type":"Point","coordinates":[139.9280794,37.4911999]},"properties":{"id":3778410343,"element_type":"node","amenity":"toilets","name":"福島県会津若松合同庁舎","opening_hours":"Mo-Fr 08:30-17:30; Dec 29-31 off; Jun 1-3 off; PH off","source":"CC BY 2.1 JP http://www.data4citizen.jp/app/users/"}},{"type":"Feature","geometry":{"type":"Point","coordinates":[139.9345928,37.4889197]},"properties":{"id":3778410344,"element_type":"node","amenity":"toilets","name":"福島県立博物館","opening_hours":"Tu-Fr 09:30-17:00; Dec 29-31 off; Jun 1-3 off; PH off","source":"CC BY 2.1 JP http://www.data4citizen.jp/app/users/"}},{"type":"Feature","geometry":{"type":"Point","coordinates":[139.9212317,37.4812814]},"properties":{"id":3778410345,"element_type":"node","amenity":"toilets","description":"和式 おむつ台x2 トイレの数x2","name":"薬師公園","opening_hours":"24/7","operator":"会津若松市 花と緑の課","phone":"+81-242-39-1262","source":"http://www.mapillary.com/map/im/07FTkWuixkxFPkmkD1AV3w/photo","toilets:position":"squat","website":"https://www.city.aizuwakamatsu.fukushima.jp/soshiki/hanatomidorinoka/"}},{"type":"Feature","geometry":{"type":"Point","coordinates":[139.9371532,37.4986186]},"properties":{"id":3778410346,"element_type":"node","amenity":"toilets","description":"年末年始・お盆休み","name":"行仁コミュニティセンター","opening_hours":"Tu-Fr 13:00-21:00;Sa 09:00-21:00; Dec 29-31 off; Jun 1-3 off; PH off","source":"CC BY 2.1 JP http://www.data4citizen.jp/app/users/"}},{"type":"Feature","geometry":{"type":"Point","coordinates":[139.9153989,37.5018648]},"properties":{"id":3778410347,"element_type":"node","amenity":"toilets","description":"和式 トイレの数x2","name":"西七日町児童公園（七日町公園）","opening_hours":"24/7","operator":"会津若松市 花と緑の課","phone":"+81-242-39-1262","source":"http://www.mapillary.com/map/im/dyK73KVyXsG5qQek-dGjWw/photo","toilets:position":"squat","website":"https://www.city.aizuwakamatsu.fukushima.jp/soshiki/hanatomidorinoka/"}},{"type":"Feature","geometry":{"type":"Point","coordinates":[139.925063,37.4905888]},"properties":{"id":3778410348,"element_type":"node","amenity":"toilets","description":"年末年始・お盆休み","name":"謹教コミュニティセンター","opening_hours":"Tu-Fr 13:00-21:00;Sa 09:00-21:00; Dec 29-31 off; Jun 1-3 off; PH off","source":"CC BY 2.1 JP http://www.data4citizen.jp/app/users/"}},{"type":"Feature","geometry":{"type":"Point","coordinates":[139.9271681,37.4965798]},"properties":{"id":3778410349,"element_type":"node","amenity":"toilets","name":"野口英世青春広場","opening_hours":"24/7","source":"CC BY 2.1 JP http://www.data4citizen.jp/app/users/"}},{"type":"Feature","geometry":{"type":"Point","coordinates":[139.9205171,37.5058721]},"properties":{"id":3778410350,"element_type":"node","amenity":"toilets","description":"和式 トイレの数x2","name":"金川町公園","opening_hours":"24/7","operator":"会津若松市 花と緑の課","phone":"+81-242-39-1262","source":"http://www.mapillary.com/map/im/V7cWxn0TshaRadmoH-ne8Q/photo","toilets:position":"squat","website":"https://www.city.aizuwakamatsu.fukushima.jp/soshiki/hanatomidorinoka/"}},{"type":"Feature","geometry":{"type":"Point","coordinates":[139.9354121,37.4856032]},"properties":{"id":3778410351,"element_type":"node","amenity":"toilets","description":"車いす用トイレは３か所有 女子と共用","name":"鶴ケ城体育館","opening_hours":"Mo-Su 09:00-21:00; Dec 29-31 off; Jun 1-3 off","source":"CC BY 2.1 JP http://www.data4citizen.jp/app/users/"}},{"type":"Feature","geometry":{"type":"Point","coordinates":[139.9293934,37.4889458]},"properties":{"id":3778410352,"element_type":"node","amenity":"toilets","name":"鶴ケ城武徳殿前トイレ","name:en":"Tsurugajo Butokuden mae toilet","opening_hours":"24/7","source":"ODBL And CC BY 2.1 JP http://www.data4citizen.jp/app/users/"}},{"type":"Feature","geometry":{"type":"Point","coordinates":[139.9291721,37.48825]},"properties":{"id":3778410353,"element_type":"node","amenity":"toilets","name":"鶴ケ城観光案内所","opening_hours":"Mo-Su 08:30-17:00","source":"ODBL And CC BY 2.1 JP http://www.data4citizen.jp/app/users/"}},{"type":"Feature","geometry":{"type":"Point","coordinates":[139.9345011,37.489564]},"properties":{"id":3778410354,"element_type":"node","amenity":"toilets","name":"鶴城コミュニティセンター","opening_hours":"Tu-Fr 13:00-21:00;Sa 09:00-21:00; Dec 29-31 off; Jun 1-3 off; PH off","source":"CC BY 2.1 JP http://www.city.aizuwakamatsu.fukushima.jp/docs/2008091800040/ And http://www.data4citizen.jp/app/users/"}},{"type":"Feature","geometry":{"type":"Point","coordinates":[139.9340896,37.4816667]},"properties":{"id":3778410355,"element_type":"node","amenity":"toilets","description":"和式　年末年始・お盆休み おむつ台x2 トイレの数x2","name":"黒岩公園","opening_hours":"24/7","operator":"会津若松市 花と緑の課","phone":"+81-242-39-1262","source":"http://www.mapillary.com/map/im/iVFwLKIVlFuXUt1oisPU2w/photo","toilets:position":"squat","website":"https://www.city.aizuwakamatsu.fukushima.jp/soshiki/hanatomidorinoka/"}},{"type":"Feature","geometry":{"type":"Point","coordinates":[139.9448505,37.5568995]},"properties":{"id":3790455771,"element_type":"node","amenity":"toilets","description":"故障中使用禁止","operator":"会津若松市 花と緑の課","phone":"+81-242-39-1262","source":"http://www.mapillary.com/map/im/y5_RCn0a20NPUw1Rx7EnJQ/photo","website":"https://www.city.aizuwakamatsu.fukushima.jp/soshiki/hanatomidorinoka/"}},{"type":"Feature","geometry":{"type":"Point","coordinates":[139.9558837,37.528424]},"properties":{"id":3791372364,"element_type":"node","amenity":"toilets","description":"街区公園 松長2号公園","name":"松長2号公園","operator":"会津若松市 花と緑の課","phone":"+81-242-39-1262","source":"http://www.mapillary.com/map/im/priUi2Rio9p5h1c-R8j78A/photo","website":"https://www.city.aizuwakamatsu.fukushima.jp/soshiki/hanatomidorinoka/"}},{"type":"Feature","geometry":{"type":"Point","coordinates":[139.8697915,37.5251189]},"properties":{"id":3794510303,"element_type":"node","amenity":"toilets","description":"街区公園 亀公園","name":"亀公園","operator":"会津若松市 花と緑の課","phone":"+81-242-39-1262","source":"http://www.mapillary.com/map/im/MZCdBjVoZnBHWoe18v7j0w/photo","website":"https://www.city.aizuwakamatsu.fukushima.jp/soshiki/hanatomidorinoka/"}},{"type":"Feature","geometry":{"type":"Point","coordinates":[139.8744282,37.5215195]},"properties":{"id":3794614981,"element_type":"node","amenity":"toilets","description":"街区公園 中央公園","name":"中央公園","operator":"会津若松市 花と緑の課","phone":"+81-242-39-1262","source":"http://www.mapillary.com/map/im/rHERzYAIh8rGSvhjMNK-PQ/photo","website":"https://www.city.aizuwakamatsu.fukushima.jp/soshiki/hanatomidorinoka/"}},{"type":"Feature","geometry":{"type":"Point","coordinates":[139.8760826,37.5141221]},"properties":{"id":3794857564,"element_type":"node","amenity":"toilets","description":"街区公園 さくら公園","name":"さくら公園","operator":"会津若松市 花と緑の課","phone":"+81-242-39-1262","source":"http://www.mapillary.com/map/im/efKmhJeCwx2HPSvS1m3B9A/photo","website":"https://www.city.aizuwakamatsu.fukushima.jp/soshiki/hanatomidorinoka/"}},{"type":"Feature","geometry":{"type":"Point","coordinates":[139.8650358,37.5099397]},"properties":{"id":3796760793,"element_type":"node","amenity":"toilets","name":"大木の芝原公園"}},{"type":"Feature","geometry":{"type":"Point","coordinates":[139.8944929,37.4768958]},"properties":{"id":3797046519,"element_type":"node","amenity":"toilets","name":"三本松農村公園"}},{"type":"Feature","geometry":{"type":"Point","coordinates":[139.2520065,37.3188919]},"properties":{"id":3798376161,"element_type":"node","amenity":"toilets"}},{"type":"Feature","geometry":{"type":"Point","coordinates":[139.9441784,37.5146223]},"properties":{"id":3800072893,"element_type":"node","amenity":"toilets","name":"大塚山墓園"}},{"type":"Feature","geometry":{"type":"Point","coordinates":[139.9081516,37.467528]},"properties":{"id":3801652596,"element_type":"node","amenity":"toilets","name":"門田緑地"}},{"type":"Feature","geometry":{"type":"Point","coordinates":[139.9098393,37.487867]},"properties":{"id":3801663315,"element_type":"node","amenity":"toilets","description":"街区公園 住吉児童公園","name":"住吉児童公園","operator":"会津若松市 花と緑の課","phone":"+81-242-39-1262","source":"http://www.mapillary.com/map/im/GHDcm_AitGjHDvEt8l4uFA/photo","website":"https://www.city.aizuwakamatsu.fukushima.jp/soshiki/hanatomidorinoka/"}},{"type":"Feature","geometry":{"type":"Point","coordinates":[139.9311787,37.5026935]},"properties":{"id":3802279581,"element_type":"node","amenity":"toilets","description":"街区公園 大町中央公園","name":"大町中央公園","opening_hours":"24/7","operator":"会津若松市 花と緑の課","phone":"+81-242-39-1262","source":"http://www.mapillary.com/map/im/zMBaWTY9VOK3O5WR7SpK8Q/photo","website":"https://www.city.aizuwakamatsu.fukushima.jp/soshiki/hanatomidorinoka/"}},{"type":"Feature","geometry":{"type":"Point","coordinates":[139.92169,37.4933964]},"properties":{"id":3804473195,"element_type":"node","amenity":"toilets","description":"街区公園 諏訪公園","name":"諏訪公園","operator":"会津若松市 花と緑の課","phone":"+81-242-39-1262","source":"http://www.mapillary.com/map/im/ZruO_GqpuTRwhsUcsTUJVA/photo","website":"https://www.city.aizuwakamatsu.fukushima.jp/soshiki/hanatomidorinoka/"}},{"type":"Feature","geometry":{"type":"Point","coordinates":[139.8777797,37.5415798]},"properties":{"id":3810081086,"element_type":"node","amenity":"toilets","name":"たかく公園"}},{"type":"Feature","geometry":{"type":"Point","coordinates":[139.9264445,37.4632224]},"properties":{"id":3813245077,"element_type":"node","amenity":"toilets","name":"会津総合運動公園 あいづ陸上競技場北西"}},{"type":"Feature","geometry":{"type":"Point","coordinates":[139.9267906,37.4619286]},"properties":{"id":3814952883,"element_type":"node","amenity":"toilets","name":"会津総合運動公園 あいづ陸上競技場正面"}},{"type":"Feature","geometry":{"type":"Point","coordinates":[139.9230308,37.4619576]},"properties":{"id":3815275828,"element_type":"node","amenity":"toilets","name":"会津総合運動公園 多目的広場前"}},{"type":"Feature","geometry":{"type":"Point","coordinates":[139.9250372,37.459981]},"properties":{"id":3815601383,"element_type":"node","amenity":"toilets","name":"会津総合運動公園 あいづ球場南側"}},{"type":"Feature","geometry":{"type":"Point","coordinates":[139.9287123,37.463079]},"properties":{"id":3815608533,"element_type":"node","amenity":"toilets","name":"会津総合運動公園 あいづ陸上競技場北東"}},{"type":"Feature","geometry":{"type":"Point","coordinates":[140.0434435,37.6649887]},"properties":{"id":3840277858,"element_type":"node","access":"public","amenity":"toilets","fee":"no","toilets:disposal":"flush","unisex":"yes"}},{"type":"Feature","geometry":{"type":"Point","coordinates":[140.0186883,37.6598081]},"properties":{"id":3840280268,"element_type":"node","access":"public","amenity":"toilets","fee":"no","toilets:disposal":"flush","unisex":"yes"}},{"type":"Feature","geometry":{"type":"Point","coordinates":[139.8783618,37.7012878]},"properties":{"id":3870696413,"element_type":"node","amenity":"toilets"}},{"type":"Feature","geometry":{"type":"Point","coordinates":[139.873829,37.4917061]},"properties":{"id":3894571557,"element_type":"node","amenity":"toilets"}},{"type":"Feature","geometry":{"type":"Point","coordinates":[140.1127917,37.7114514]},"properties":{"id":3916096020,"element_type":"node","amenity":"toilets","name":"トイレ閉鎖中"}},{"type":"Feature","geometry":{"type":"Point","coordinates":[140.5004996,37.4067905]},"properties":{"id":4258312654,"element_type":"node","amenity":"toilets"}},{"type":"Feature","geometry":{"type":"Point","coordinates":[140.9923194,37.5636555]},"properties":{"id":4308051083,"element_type":"node","amenity":"toilets","wheelchair":"yes"}},{"type":"Feature","geometry":{"type":"Point","coordinates":[140.9919559,37.6045986]},"properties":{"id":4308051829,"element_type":"node","amenity":"toilets","wheelchair":"no"}},{"type":"Feature","geometry":{"type":"Point","coordinates":[140.3103534,37.4436294]},"properties":{"id":4335318635,"element_type":"node","amenity":"toilets","fee":"no","operator":"郡山市"}},{"type":"Feature","geometry":{"type":"Point","coordinates":[140.3419735,37.4517042]},"properties":{"id":4346948954,"element_type":"node","amenity":"toilets"}},{"type":"Feature","geometry":{"type":"Point","coordinates":[140.5693244,37.820335]},"properties":{"id":4371616168,"element_type":"node","amenity":"toilets","operator":"伊達市役所","toilets:disposal":"flush","unisex":"yes"}},{"type":"Feature","geometry":{"type":"Point","coordinates":[139.8603342,37.6324326]},"properties":{"id":4406825706,"element_type":"node","amenity":"toilets","name":"といれ","operator":"綾金公会堂","source":"https://www.mapillary.com/app/?focus=photo&pKey=zok4edHk0VNWH3xO4t-meA&lat=37.6324379&lng=139.8604281&z=17"}},{"type":"Feature","geometry":{"type":"Point","coordinates":[139.8455012,37.6082592]},"properties":{"id":4406956128,"element_type":"node","amenity":"toilets","source":"https://www.mapillary.com/app/?focus=photo&pKey=h50z7QWqvpAuyHcBuKh4AA&lat=37.6083584&lng=139.8455723&z=17"}},{"type":"Feature","geometry":{"type":"Point","coordinates":[139.832836,37.6302247]},"properties":{"id":4408159782,"element_type":"node","amenity":"toilets"}},{"type":"Feature","geometry":{"type":"Point","coordinates":[139.7979545,37.5748603]},"properties":{"id":4422901109,"element_type":"node","amenity":"toilets"}},{"type":"Feature","geometry":{"type":"Point","coordinates":[139.7997611,37.574658]},"properties":{"id":4424296839,"element_type":"node","amenity":"toilets","source":"https://www.mapillary.com/app/?focus=photo&pKey=7pKXsuCyoqn70LdihQnMwA&lat=37.5745352&lng=139.7996737&z=17"}},{"type":"Feature","geometry":{"type":"Point","coordinates":[139.8313653,37.5907574]},"properties":{"id":4425954422,"element_type":"node","amenity":"toilets","source":"https://www.mapillary.com/app/?focus=photo&pKey=qHNvYAu1iNithmG0wsGsuw&lat=37.5907322&lng=139.8314746&z=17&menu=false"}},{"type":"Feature","geometry":{"type":"Point","coordinates":[139.8391179,37.5756642]},"properties":{"id":4427247714,"element_type":"node","amenity":"toilets"}},{"type":"Feature","geometry":{"type":"Point","coordinates":[139.8709352,37.5624153]},"properties":{"id":4427687927,"element_type":"node","amenity":"toilets","name":"湯川村公衆トイレ","source":"https://www.mapillary.com/app/?focus=photo&pKey=hW9nkg430ueZ9izooZWsGQ&lat=37.5624692&lng=139.8711319&z=17"}},{"type":"Feature","geometry":{"type":"Point","coordinates":[139.8699456,37.5630882]},"properties":{"id":4428428318,"element_type":"node","amenity":"toilets","source":"https://www.mapillary.com/app/?focus=photo&pKey=SajCU32U8znvv3xyprPa-Q&lat=37.5630202&lng=139.870161&z=17"}},{"type":"Feature","geometry":{"type":"Point","coordinates":[139.8206174,37.5153148]},"properties":{"id":4433466809,"element_type":"node","amenity":"toilets","source":"https://www.mapillary.com/app/?focus=photo&pKey=qXYaOahh0kERqfFMuNZ3vA&lat=37.5152368&lng=139.8204525&z=17"}},{"type":"Feature","geometry":{"type":"Point","coordinates":[139.8226,37.501889]},"properties":{"id":4439801754,"element_type":"node","amenity":"toilets"}},{"type":"Feature","geometry":{"type":"Point","coordinates":[139.8147151,37.48817]},"properties":{"id":4454399803,"element_type":"node","amenity":"toilets","name":"観光トイレ"}},{"type":"Feature","geometry":{"type":"Point","coordinates":[139.8451491,37.4413247]},"properties":{"id":4497507821,"element_type":"node","amenity":"toilets","source":"https://www.mapillary.com/app/?focus=photo&pKey=x6t3lD19_B0XIo3cg3wXVw&lat=37.4412065&lng=139.8453221&z=17"}},{"type":"Feature","geometry":{"type":"Point","coordinates":[139.8753355,37.4134928]},"properties":{"id":4498470544,"element_type":"node","amenity":"toilets","source":"https://www.mapillary.com/app/?focus=photo&pKey=rbigD0x1yqjPXvGzU9O8fw&lat=37.4135795&lng=139.875412&z=17","toilets:position":"squat"}},{"type":"Feature","geometry":{"type":"Point","coordinates":[139.8958406,37.5142209]},"properties":{"id":4500995415,"element_type":"node","amenity":"toilets","source":"https://www.mapillary.com/app/?focus=photo&pKey=MqywR6M9zwt3hoWF7Zf-KA&lat=37.51438&lng=139.8959305&z=17"}},{"type":"Feature","geometry":{"type":"Point","coordinates":[139.6419857,37.5756656]},"properties":{"id":4504678352,"element_type":"node","amenity":"toilets","source":"https://www.mapillary.com/app/?focus=photo&pKey=sbb5Fvf6meWsp6sRkDYkWg&lat=37.5757765&lng=139.6419927&z=17"}},{"type":"Feature","geometry":{"type":"Point","coordinates":[139.9371665,37.4554853]},"properties":{"id":4505285126,"element_type":"node","amenity":"toilets","source":"https://www.mapillary.com/app/?focus=photo&pKey=a__M8lONzcB8S0KW0oIpng&lat=37.4554626&lng=139.937291&z=17"}},{"type":"Feature","geometry":{"type":"Point","coordinates":[139.7256377,37.5336324]},"properties":{"id":4505537423,"element_type":"node","amenity":"toilets","source":"https://www.mapillary.com/app/?focus=photo&pKey=tDeSbB93C7LI_FYutrp5Nw&lat=37.5335444&lng=139.7255427&z=17"}},{"type":"Feature","geometry":{"type":"Point","coordinates":[140.4651422,37.77025]},"properties":{"id":4744600877,"element_type":"node","amenity":"toilets","toilets:disposal":"pitlatrine"}},{"type":"Feature","geometry":{"type":"Point","coordinates":[140.471244,37.7741505]},"properties":{"id":4744905236,"element_type":"node","amenity":"toilets"}},{"type":"Feature","geometry":{"type":"Point","coordinates":[139.8913424,37.5000625]},"properties":{"id":4782239649,"element_type":"node","amenity":"toilets"}},{"type":"Feature","geometry":{"type":"Point","coordinates":[140.9959017,37.1425192]},"properties":{"id":4827988920,"element_type":"node","amenity":"toilets"}},{"type":"Feature","geometry":{"type":"Point","coordinates":[141.0221796,37.3350827]},"properties":{"id":4827989824,"element_type":"node","amenity":"toilets"}},{"type":"Feature","geometry":{"type":"Point","coordinates":[140.9952617,37.1726425]},"properties":{"id":4827989826,"element_type":"node","amenity":"toilets"}},{"type":"Feature","geometry":{"type":"Point","coordinates":[140.9815414,37.1027983]},"properties":{"id":4827989828,"element_type":"node","amenity":"toilets"}},{"type":"Feature","geometry":{"type":"Point","coordinates":[141.0011379,37.49412]},"properties":{"id":4828035815,"element_type":"node","amenity":"toilets","wheelchair":"yes"}},{"type":"Feature","geometry":{"type":"Point","coordinates":[141.0218122,37.4810065]},"properties":{"id":4893044821,"element_type":"node","amenity":"toilets"}},{"type":"Feature","geometry":{"type":"Point","coordinates":[140.9940406,37.4935378]},"properties":{"id":4893272224,"element_type":"node","amenity":"toilets","changing_table":"no","opening_hours":"24/7","toilets:disposal":"flush","toilets:wheelchair":"yes","wheelchair":"yes"}},{"type":"Feature","geometry":{"type":"Point","coordinates":[139.9161872,37.2034215]},"properties":{"id":4976789622,"element_type":"node","amenity":"toilets","female":"yes","male":"yes","wheelchair":"yes"}},{"type":"Feature","geometry":{"type":"Point","coordinates":[140.6739302,37.3444687]},"properties":{"id":4977185101,"element_type":"node","amenity":"toilets","changing_table":"yes","female":"yes","male":"yes"}},{"type":"Feature","geometry":{"type":"Point","coordinates":[140.6738142,37.3443008]},"properties":{"id":4977185108,"element_type":"node","amenity":"toilets","female":"yes","male":"yes"}},{"type":"Feature","geometry":{"type":"Point","coordinates":[140.6750876,37.3439921]},"properties":{"id":4977185153,"element_type":"node","amenity":"toilets","changing_table":"yes","female":"yes","male":"yes","name":"さわやかトイレ","wheelchair":"yes"}},{"type":"Feature","geometry":{"type":"Point","coordinates":[139.9865457,37.5625211]},"properties":{"id":4979276869,"element_type":"node","amenity":"toilets","female":"yes","male":"yes"}},{"type":"Feature","geometry":{"type":"Point","coordinates":[139.9866852,37.5626571]},"properties":{"id":4979276871,"element_type":"node","amenity":"toilets","female":"yes","male":"yes","wheelchair":"yes"}},{"type":"Feature","geometry":{"type":"Point","coordinates":[140.6595206,37.3240362]},"properties":{"id":5008520627,"element_type":"node","amenity":"toilets","opening_hours":"24/7"}},{"type":"Feature","geometry":{"type":"Point","coordinates":[140.3882142,37.3989819]},"properties":{"id":5040048121,"element_type":"node","amenity":"toilets"}},{"type":"Feature","geometry":{"type":"Point","coordinates":[140.980908,37.2871437]},"properties":{"id":5047311716,"element_type":"node","amenity":"toilets","fee":"no","toilets:disposal":"flush","unisex":"yes","wheelchair":"yes"}},{"type":"Feature","geometry":{"type":"Point","coordinates":[140.980854,37.2871113]},"properties":{"id":5047311717,"element_type":"node","amenity":"toilets","fee":"no","female":"yes","toilets:disposal":"flush","wheelchair":"yes"}},{"type":"Feature","geometry":{"type":"Point","coordinates":[140.9825673,37.2870577]},"properties":{"id":5047542314,"element_type":"node","amenity":"toilets","fee":"no","toilets:disposal":"flush","wheelchair":"yes","woman":"yes"}},{"type":"Feature","geometry":{"type":"Point","coordinates":[140.9825232,37.286998]},"properties":{"id":5047542315,"element_type":"node","amenity":"toilets","fee":"no","toilets:disposal":"flush","unisex":"yes","wheelchair":"yes"}},{"type":"Feature","geometry":{"type":"Point","coordinates":[140.8609002,36.9536089]},"properties":{"id":5074906835,"element_type":"node","amenity":"toilets"}},{"type":"Feature","geometry":{"type":"Point","coordinates":[140.4191738,37.571925]},"properties":{"id":5158194723,"element_type":"node","amenity":"toilets"}},{"type":"Feature","geometry":{"type":"Point","coordinates":[140.5599786,37.2505127]},"properties":{"id":5601292434,"element_type":"node","amenity":"toilets","female":"yes","male":"yes"}},{"type":"Feature","geometry":{"type":"Point","coordinates":[140.4091877,36.8551321]},"properties":{"id":5685255482,"element_type":"node","amenity":"toilets","fee":"no","toilets:disposal":"flush"}},{"type":"Feature","geometry":{"type":"Point","coordinates":[140.9789868,37.0009006]},"properties":{"id":5756006391,"element_type":"node","amenity":"toilets"}},{"type":"Feature","geometry":{"type":"Point","coordinates":[140.7495734,37.2061981]},"properties":{"id":5760053228,"element_type":"node","amenity":"toilets","wheelchair":"yes"}},{"type":"Feature","geometry":{"type":"Point","coordinates":[140.996088,37.2785402]},"properties":{"id":5761032066,"element_type":"node","amenity":"toilets"}},{"type":"Feature","geometry":{"type":"Point","coordinates":[140.4814229,37.6359022]},"properties":{"id":5837953236,"element_type":"node","amenity":"toilets"}},{"type":"Feature","geometry":{"type":"Point","coordinates":[140.1073097,37.5373599]},"properties":{"id":5960287763,"element_type":"node","amenity":"toilets","female":"yes","male":"yes","wheelchair":"yes"}},{"type":"Feature","geometry":{"type":"Point","coordinates":[140.1072689,37.5376889]},"properties":{"id":5960287769,"element_type":"node","amenity":"toilets","female":"yes","male":"yes","wheelchair":"yes"}},{"type":"Feature","geometry":{"type":"Point","coordinates":[140.8375463,37.0341154]},"properties":{"id":6244542579,"element_type":"node","amenity":"toilets"}},{"type":"Feature","geometry":{"type":"Point","coordinates":[140.4332864,37.7265855]},"properties":{"id":6259644548,"element_type":"node","access":"yes","amenity":"toilets"}},{"type":"Feature","geometry":{"type":"Point","coordinates":[141.0223445,37.3351902]},"properties":{"id":6308161304,"element_type":"node","access":"customers","amenity":"toilets"}},{"type":"Feature","geometry":{"type":"Point","coordinates":[140.9974779,37.2496402]},"properties":{"id":6435457055,"element_type":"node","amenity":"toilets","wheelchair":"yes"}},{"type":"Feature","geometry":{"type":"Point","coordinates":[141.0035311,37.2438653]},"properties":{"id":6437377355,"element_type":"node","amenity":"toilets"}},{"type":"Feature","geometry":{"type":"Point","coordinates":[141.0035431,37.2463679]},"properties":{"id":6437377370,"element_type":"node","amenity":"toilets"}},{"type":"Feature","geometry":{"type":"Point","coordinates":[141.0047178,37.2438011]},"properties":{"id":6437424747,"element_type":"node","amenity":"toilets"}},{"type":"Feature","geometry":{"type":"Point","coordinates":[141.0054157,37.245196]},"properties":{"id":6437910873,"element_type":"node","amenity":"toilets"}},{"type":"Feature","geometry":{"type":"Point","coordinates":[141.0017451,37.2446548]},"properties":{"id":6451045242,"element_type":"node","amenity":"toilets"}},{"type":"Feature","geometry":{"type":"Point","coordinates":[140.9352672,37.874847]},"properties":{"id":6484641343,"element_type":"node","access":"yes","amenity":"toilets"}},{"type":"Feature","geometry":{"type":"Point","coordinates":[140.9318192,37.8873429]},"properties":{"id":6495396346,"element_type":"node","amenity":"toilets"}},{"type":"Feature","geometry":{"type":"Point","coordinates":[140.9768099,37.8252765]},"properties":{"id":6499315087,"element_type":"node","amenity":"toilets"}},{"type":"Feature","geometry":{"type":"Point","coordinates":[140.1122332,37.5767332]},"properties":{"id":6534741138,"element_type":"node","amenity":"toilets"}},{"type":"Feature","geometry":{"type":"Point","coordinates":[141.0144802,37.6548017]},"properties":{"id":6590032495,"element_type":"node","amenity":"toilets","wheelchair":"yes"}},{"type":"Feature","geometry":{"type":"Point","coordinates":[141.0161861,37.6565626]},"properties":{"id":6591026369,"element_type":"node","amenity":"toilets","wheelchair":"yes"}},{"type":"Feature","geometry":{"type":"Point","coordinates":[140.1989619,37.4328602]},"properties":{"id":6741760405,"element_type":"node","access":"yes","amenity":"toilets","note":"御霊櫃峠公衆トイレ"}},{"type":"Feature","geometry":{"type":"Point","coordinates":[139.9046234,37.2737911]},"properties":{"id":6780927990,"element_type":"node","amenity":"toilets"}},{"type":"Feature","geometry":{"type":"Point","coordinates":[140.4591121,37.7544312]},"properties":{"id":6815343852,"element_type":"node","access":"customers","amenity":"toilets","fee":"no","level":"1","toilets:disposal":"flush","toilets:position":"squat;seated;urinal","wheelchair":"designated"}},{"type":"Feature","geometry":{"type":"Point","coordinates":[140.3888272,37.3988975]},"properties":{"id":6815343866,"element_type":"node","access":"customers","amenity":"toilets","fee":"no","level":"0","toilets:disposal":"flush","toilets:position":"squat;seated;urinal","wheelchair":"designated"}},{"type":"Feature","geometry":{"type":"Point","coordinates":[140.3888378,37.3990078]},"properties":{"id":6815343872,"element_type":"node","access":"customers","amenity":"toilets","fee":"no","level":"1","toilets:disposal":"flush","toilets:position":"seated;urinal","wheelchair":"designated"}},{"type":"Feature","geometry":{"type":"Point","coordinates":[140.0853488,37.6594858]},"properties":{"id":6815358220,"element_type":"node","amenity":"toilets"}},{"type":"Feature","geometry":{"type":"Point","coordinates":[140.4602064,37.7537339]},"properties":{"id":6815358224,"element_type":"node","access":"customers","amenity":"toilets","fee":"no","level":"0","toilets:disposal":"flush","toilets:position":"squat;seated;urinal","wheelchair":"designated"}},{"type":"Feature","geometry":{"type":"Point","coordinates":[140.2708024,37.4809374]},"properties":{"id":6815358232,"element_type":"node","access":"yes","amenity":"toilets","fee":"no","wheelchair":"designated"}},{"type":"Feature","geometry":{"type":"Point","coordinates":[140.4588703,37.7548988]},"properties":{"id":6815358259,"element_type":"node","access":"customers","amenity":"toilets","fee":"no","level":"0","toilets:disposal":"flush","toilets:position":"squat;seated;urinal","wheelchair":"designated"}},{"type":"Feature","geometry":{"type":"Point","coordinates":[140.2707935,37.4809]},"properties":{"id":6815358280,"element_type":"node","access":"customers","amenity":"toilets","fee":"no"}},{"type":"Feature","geometry":{"type":"Point","coordinates":[140.1029923,37.5464837]},"properties":{"id":6815358297,"element_type":"node","access":"yes","amenity":"toilets","fee":"no","toilets:disposal":"flush","toilets:position":"seated;urinal"}},{"type":"Feature","geometry":{"type":"Point","coordinates":[140.8829356,37.0555841]},"properties":{"id":7196742034,"element_type":"node","amenity":"toilets"}},{"type":"Feature","geometry":{"type":"Point","coordinates":[141.0028909,37.2096493]},"properties":{"id":7294232780,"element_type":"node","amenity":"toilets"}},{"type":"Feature","geometry":{"type":"Point","coordinates":[140.9923419,37.3659799]},"properties":{"id":7301840240,"element_type":"node","amenity":"toilets","wheelchair":"yes"}},{"type":"Feature","geometry":{"type":"Point","coordinates":[140.9840224,37.4091991]},"properties":{"id":7301903155,"element_type":"node","amenity":"toilets","level":"1"}},{"type":"Feature","geometry":{"type":"Point","coordinates":[141.0058971,37.453568]},"properties":{"id":7308702340,"element_type":"node","amenity":"toilets"}},{"type":"Feature","geometry":{"type":"Point","coordinates":[140.3818676,37.2910579]},"properties":{"id":7409109086,"element_type":"node","amenity":"toilets"}},{"type":"Feature","geometry":{"type":"Point","coordinates":[140.4658493,37.5939343]},"properties":{"id":7409496285,"element_type":"node","amenity":"toilets"}},{"type":"Feature","geometry":{"type":"Point","coordinates":[140.4899696,37.7745045]},"properties":{"id":7703857580,"element_type":"node","amenity":"toilets"}},{"type":"Feature","geometry":{"type":"Point","coordinates":[140.9692857,37.6260724]},"properties":{"id":7727794415,"element_type":"node","amenity":"toilets"}},{"type":"Feature","geometry":{"type":"Point","coordinates":[139.6190214,37.4941604]},"properties":{"id":7793796414,"element_type":"node","amenity":"toilets"}},{"type":"Feature","geometry":{"type":"Point","coordinates":[139.7245029,37.5325892]},"properties":{"id":8265617375,"element_type":"node","amenity":"toilets"}},{"type":"Feature","geometry":{"type":"Point","coordinates":[139.7275718,37.5294408]},"properties":{"id":8266378656,"element_type":"node","amenity":"toilets"}},{"type":"Feature","geometry":{"type":"Point","coordinates":[139.7211242,37.5227769]},"properties":{"id":8266381369,"element_type":"node","amenity":"toilets"}},{"type":"Feature","geometry":{"type":"Point","coordinates":[139.7253102,37.5313403]},"properties":{"id":8270035456,"element_type":"node","amenity":"toilets"}},{"type":"Feature","geometry":{"type":"Point","coordinates":[140.4609434,37.7531579]},"properties":{"id":8324935004,"element_type":"node","amenity":"toilets"}},{"type":"Feature","geometry":{"type":"Point","coordinates":[140.360492,37.3992751]},"properties":{"id":8417262421,"element_type":"node","amenity":"toilets"}},{"type":"Feature","geometry":{"type":"Point","coordinates":[140.9638073,37.8307429]},"properties":{"id":8487480045,"element_type":"node","amenity":"toilets"}},{"type":"Feature","geometry":{"type":"Point","coordinates":[140.9697671,37.8269433]},"properties":{"id":8490651315,"element_type":"node","amenity":"toilets"}},{"type":"Feature","geometry":{"type":"Point","coordinates":[140.9684522,37.8271102]},"properties":{"id":8490651316,"element_type":"node","amenity":"toilets"}},{"type":"Feature","geometry":{"type":"Point","coordinates":[140.9664948,37.8277256]},"properties":{"id":8490651325,"element_type":"node","amenity":"toilets"}},{"type":"Feature","geometry":{"type":"Point","coordinates":[140.8158043,37.124433]},"properties":{"id":8573086439,"element_type":"node","access":"yes","amenity":"toilets","fee":"no","female":"yes","male":"yes","toilets:disposal":"flush","unisex":"yes","wheelchair":"yes"}},{"type":"Feature","geometry":{"type":"Point","coordinates":[140.7976779,37.1068057]},"properties":{"id":8573119759,"element_type":"node","amenity":"toilets","fee":"no","female":"yes","male":"yes","toilets:disposal":"pitlatrine"}},{"type":"Feature","geometry":{"type":"Point","coordinates":[140.0788164,37.4197098]},"properties":{"id":8573143002,"element_type":"node","amenity":"toilets"}},{"type":"Feature","geometry":{"type":"Point","coordinates":[140.0782773,37.4197918]},"properties":{"id":8573143003,"element_type":"node","amenity":"toilets"}},{"type":"Feature","geometry":{"type":"Point","coordinates":[139.939487,37.5244814]},"properties":{"id":8723258117,"element_type":"node","amenity":"toilets","survey:date":"2021-05-12","toilets:disposal":"flush"}},{"type":"Feature","geometry":{"type":"Point","coordinates":[140.5471625,37.2631416]},"properties":{"id":8909335176,"element_type":"node","amenity":"toilets"}},{"type":"Feature","geometry":{"type":"Point","coordinates":[141.0005149,37.4964209]},"properties":{"id":8940280478,"element_type":"node","amenity":"toilets"}},{"type":"Feature","geometry":{"type":"Point","coordinates":[141.0001259,37.4964463]},"properties":{"id":8940280480,"element_type":"node","amenity":"toilets"}},{"type":"Feature","geometry":{"type":"Point","coordinates":[140.9609649,37.3827331]},"properties":{"id":8942977352,"element_type":"node","amenity":"toilets"}},{"type":"Feature","geometry":{"type":"Point","coordinates":[141.0030454,37.2821409]},"properties":{"id":8943300745,"element_type":"node","amenity":"toilets"}},{"type":"Feature","geometry":{"type":"Point","coordinates":[140.1322317,37.6955746]},"properties":{"id":9221459610,"element_type":"node","amenity":"toilets"}},{"type":"Feature","geometry":{"type":"Point","coordinates":[140.4116475,37.8048837]},"properties":{"id":9696651702,"element_type":"node","amenity":"toilets","fee":"no","female":"yes","level":"0","male":"yes","opening_hours":"24/7","toilets:disposal":"flush","toilets:position":"seated;urinal","wheelchair":"designated"}},{"type":"Feature","geometry":{"type":"Point","coordinates":[140.5889167,37.7667108]},"properties":{"id":9696653921,"element_type":"node","amenity":"toilets"}},{"type":"Feature","geometry":{"type":"Point","coordinates":[140.876454,37.051889]},"properties":{"id":9820199634,"element_type":"node","amenity":"toilets","changing_table":"no","description":"男性小便器２\n個室和式便器１","toilets:handwashing":"yes","wheelchair":"no"}},{"type":"Feature","geometry":{"type":"Point","coordinates":[140.8690756,37.0464207]},"properties":{"id":9820345441,"element_type":"node","amenity":"toilets","changing_table":"no"}},{"type":"Feature","geometry":{"type":"Point","coordinates":[139.8619946,37.3352069]},"properties":{"id":9837561117,"element_type":"node","amenity":"toilets"}},{"type":"Feature","geometry":{"type":"Point","coordinates":[139.8954724,37.3036496]},"properties":{"id":9837561217,"element_type":"node","amenity":"toilets"}},{"type":"Feature","geometry":{"type":"Point","coordinates":[140.9321545,37.8778651]},"properties":{"id":10028726344,"element_type":"node","amenity":"toilets"}},{"type":"Feature","geometry":{"type":"Point","coordinates":[139.8982556,37.276826]},"properties":{"id":10216131876,"element_type":"node","amenity":"toilets"}},{"type":"Feature","geometry":{"type":"Point","coordinates":[139.9388981,37.5041145]},"properties":{"id":10281790578,"element_type":"node","access":"permissive","amenity":"toilets","check_date":"2022-12-23","fee":"no","toilets:disposal":"flush","toilets:handwashing":"yes","toilets:position":"urinal;squat"}},{"type":"Feature","geometry":{"type":"Point","coordinates":[140.4403926,37.8224258]},"properties":{"id":10813075071,"element_type":"node","amenity":"toilets","check_date":"2023-04-15"}},{"type":"Feature","geometry":{"type":"Point","coordinates":[140.4442528,37.8240172]},"properties":{"id":10813126148,"element_type":"node","amenity":"toilets","check_date":"2023-04-15"}},{"type":"Feature","geometry":{"type":"Point","coordinates":[140.4521461,37.8327535]},"properties":{"id":10813716982,"element_type":"node","amenity":"toilets"}},{"type":"Feature","geometry":{"type":"Point","coordinates":[140.4493757,37.8325965]},"properties":{"id":10814020322,"element_type":"node","amenity":"toilets","check_date":"2023-04-15"}},{"type":"Feature","geometry":{"type":"Point","coordinates":[140.4428066,37.8054628]},"properties":{"id":10814449161,"element_type":"node","amenity":"toilets","check_date":"2023-04-15"}},{"type":"Feature","geometry":{"type":"Point","coordinates":[140.455198,37.8336423]},"properties":{"id":10815515252,"element_type":"node","access":"yes","amenity":"toilets","changing_table":"yes","check_date":"2023-04-16","level":"0","toilets:disposal":"flush","wheelchair":"yes"}},{"type":"Feature","geometry":{"type":"Point","coordinates":[140.4563463,37.8339666]},"properties":{"id":10815515259,"element_type":"node","access":"yes","amenity":"toilets","check_date":"2023-04-16","name":"愛宕山公園ファミリートイレ","name:ja":"愛宕山公園ファミリートイレ","toilets:disposal":"flush"}},{"type":"Feature","geometry":{"type":"Point","coordinates":[140.460168,37.8307827]},"properties":{"id":10815515280,"element_type":"node","amenity":"toilets","check_date":"2023-04-16"}},{"type":"Feature","geometry":{"type":"Point","coordinates":[140.4525367,37.8307067]},"properties":{"id":10815589206,"element_type":"node","amenity":"toilets","check_date":"2023-04-16"}},{"type":"Feature","geometry":{"type":"Point","coordinates":[140.4546859,37.8303537]},"properties":{"id":10831110415,"element_type":"node","amenity":"toilets","level":"-1"}},{"type":"Feature","geometry":{"type":"Point","coordinates":[140.4429124,37.8321002]},"properties":{"id":10832068817,"element_type":"node","access":"yes","amenity":"toilets"}},{"type":"Feature","geometry":{"type":"Point","coordinates":[139.2919113,37.3222387]},"properties":{"id":10834070090,"element_type":"node","amenity":"toilets"}},{"type":"Feature","geometry":{"type":"Point","coordinates":[139.3151218,37.3496534]},"properties":{"id":10840893996,"element_type":"node","access":"yes","amenity":"toilets","fee":"no","female":"yes","male":"yes","name:en":"Tadami Information Center","toilets:disposal":"flush","unisex":"yes","wheelchair":"yes"}},{"type":"Feature","geometry":{"type":"Point","coordinates":[140.2176442,37.6342501]},"properties":{"id":10933344639,"element_type":"node","access":"private","amenity":"toilets"}},{"type":"Feature","geometry":{"type":"Point","coordinates":[139.7235726,37.5384767]},"properties":{"id":10950814230,"element_type":"node","access":"yes","amenity":"toilets","fee":"no","unisex":"yes"}},{"type":"Feature","geometry":{"type":"Point","coordinates":[139.6465114,37.4720386]},"properties":{"id":10956385817,"element_type":"node","access":"yes","amenity":"toilets"}},{"type":"Feature","geometry":{"type":"Point","coordinates":[140.4092337,37.7602101]},"properties":{"id":11101827576,"element_type":"node","amenity":"toilets"}},{"type":"Feature","geometry":{"type":"Point","coordinates":[140.4447496,37.6611188]},"properties":{"id":11101827579,"element_type":"node","amenity":"toilets"}},{"type":"Feature","geometry":{"type":"Point","coordinates":[140.3827616,37.5155246]},"properties":{"id":11101827582,"element_type":"node","amenity":"toilets"}},{"type":"Feature","geometry":{"type":"Point","coordinates":[139.3346942,36.9480386]},"properties":{"id":11467264852,"element_type":"node","amenity":"toilets","source":"survey"}},{"type":"Feature","geometry":{"type":"Point","coordinates":[140.4875554,37.6566487]},"properties":{"id":11932662396,"element_type":"node","amenity":"toilets"}},{"type":"Feature","geometry":{"type":"Point","coordinates":[140.4715097,37.6654914]},"properties":{"id":11932976579,"element_type":"node","amenity":"toilets"}},{"type":"Feature","geometry":{"type":"Point","coordinates":[140.4323101,37.6006343]},"properties":{"id":11952778262,"element_type":"node","access":"yes","amenity":"toilets"}},{"type":"Feature","geometry":{"type":"Point","coordinates":[140.4669532,37.6599568]},"properties":{"id":11964052474,"element_type":"node","amenity":"toilets"}},{"type":"Feature","geometry":{"type":"Point","coordinates":[140.4669215,37.6597966]},"properties":{"id":11964052489,"element_type":"node","amenity":"toilets"}},{"type":"Feature","geometry":{"type":"Point","coordinates":[140.546622,37.8725898]},"properties":{"id":12131003188,"element_type":"node","access":"yes","amenity":"toilets"}},{"type":"Feature","geometry":{"type":"Point","coordinates":[140.5504491,37.0887949]},"properties":{"id":12732625261,"element_type":"node","amenity":"toilets"}},{"type":"Feature","geometry":{"type":"Point","coordinates":[140.4145352,37.0799293]},"properties":{"id":12751838327,"element_type":"node","amenity":"toilets"}},{"type":"Feature","geometry":{"type":"Point","coordinates":[140.982753,37.4100465]},"properties":{"id":12799700181,"element_type":"node","amenity":"toilets"}},{"type":"Feature","geometry":{"type":"Point","coordinates":[140.9010087,36.943589]},"properties":{"id":12800282976,"element_type":"node","amenity":"toilets"}},{"type":"Feature","geometry":{"type":"Point","coordinates":[140.9016082,36.9445778]},"properties":{"id":12800283030,"element_type":"node","amenity":"toilets"}},{"type":"Feature","geometry":{"type":"Point","coordinates":[139.914414,37.4861527]},"properties":{"id":12944084281,"element_type":"node","amenity":"toilets"}},{"type":"Feature","geometry":{"type":"Point","coordinates":[140.9899905,37.4922252]},"properties":{"id":13124114382,"element_type":"node","amenity":"toilets"}},{"type":"Feature","geometry":{"type":"Point","coordinates":[139.7276744,37.0862866]},"properties":{"id":13124117201,"element_type":"node","amenity":"toilets"}},{"type":"Feature","geometry":{"type":"Point","coordinates":[139.7219289,37.5280924]},"properties":{"id":13124380404,"element_type":"node","amenity":"toilets"}},{"type":"Feature","geometry":{"type":"Point","coordinates":[140.25632029230772,37.72401196153846]},"properties":{"id":26211365,"element_type":"way","amenity":"toilets","building":"yes","fee":"no","wheelchair":"yes"}},{"type":"Feature","geometry":{"type":"Point","coordinates":[140.81446409999998,37.0232764]},"properties":{"id":28519388,"element_type":"way","amenity":"toilets","building":"yes"}},{"type":"Feature","geometry":{"type":"Point","coordinates":[140.919764,36.93807030000001]},"properties":{"id":30779268,"element_type":"way","amenity":"toilets","building":"yes"}},{"type":"Feature","geometry":{"type":"Point","coordinates":[140.09105184,37.75109325999999]},"properties":{"id":35127592,"element_type":"way","amenity":"toilets","building":"yes"}},{"type":"Feature","geometry":{"type":"Point","coordinates":[140.04854252,37.61398322]},"properties":{"id":41415966,"element_type":"way","amenity":"toilets","building":"yes","source":"GSImaps/ort"}},{"type":"Feature","geometry":{"type":"Point","coordinates":[140.92625754,37.016046839999994]},"properties":{"id":104625610,"element_type":"way","amenity":"toilets","building":"yes"}},{"type":"Feature","geometry":{"type":"Point","coordinates":[141.00250024444443,37.282901555555554]},"properties":{"id":105213416,"element_type":"way","amenity":"toilets","building":"yes","source":"Bing 2011-03-1"}},{"type":"Feature","geometry":{"type":"Point","coordinates":[140.8380966,36.9187303]},"properties":{"id":107486742,"element_type":"way","amenity":"toilets","building":"yes","source":"Bing"}},{"type":"Feature","geometry":{"type":"Point","coordinates":[141.0024035,37.25751782]},"properties":{"id":155162208,"element_type":"way","amenity":"toilets","building":"yes","toilets:disposal":"flush"}},{"type":"Feature","geometry":{"type":"Point","coordinates":[140.06675278,37.683550679999996]},"properties":{"id":180575882,"element_type":"way","amenity":"toilets","building":"yes","fee":"no","female":"no","male":"yes","source":"Bing, 2011/9/15","wheelchair":"no"}},{"type":"Feature","geometry":{"type":"Point","coordinates":[140.06668438,37.68361846]},"properties":{"id":180575901,"element_type":"way","amenity":"toilets","building":"yes","fee":"no","female":"yes","male":"no","source":"Bing, 2011/9/15","wheelchair":"no"}},{"type":"Feature","geometry":{"type":"Point","coordinates":[139.88306763999998,37.7308777]},"properties":{"id":223076792,"element_type":"way","amenity":"toilets","building":"yes"}},{"type":"Feature","geometry":{"type":"Point","coordinates":[139.72516634000002,37.53291222]},"properties":{"id":223401958,"element_type":"way","amenity":"toilets","building":"service","building:levels":"1","source":"https://www.mapillary.com/app/?focus=photo&pKey=ExiT7zM84jjLtpdJMBfnOA&lat=20&lng=0&z=1.5"}},{"type":"Feature","geometry":{"type":"Point","coordinates":[139.89762968,37.44723816]},"properties":{"id":224061791,"element_type":"way","amenity":"toilets","building":"yes","source":"GSI/KIBAN 2500","source_ref":"http://wiki.osm.org/wiki/GSI_KIBAN"}},{"type":"Feature","geometry":{"type":"Point","coordinates":[140.10082893999999,37.56952748]},"properties":{"id":233081931,"element_type":"way","amenity":"toilets","building":"yes"}},{"type":"Feature","geometry":{"type":"Point","coordinates":[139.80117492,37.47916794]},"properties":{"id":234962241,"element_type":"way","amenity":"toilets","building":"residential","source":"bing"}},{"type":"Feature","geometry":{"type":"Point","coordinates":[140.46826416000002,37.76664684]},"properties":{"id":239521702,"element_type":"way","amenity":"toilets","building":"yes","source":"GSI/KIBAN 2500","source_ref":"http://wiki.osm.org/wiki/GSI_KIBAN"}},{"type":"Feature","geometry":{"type":"Point","coordinates":[140.46747942000002,37.76662942]},"properties":{"id":239521735,"element_type":"way","amenity":"toilets","building":"yes","source":"GSI/KIBAN 2500","source_ref":"http://wiki.osm.org/wiki/GSI_KIBAN","toilets:disposal":"flush"}},{"type":"Feature","geometry":{"type":"Point","coordinates":[139.92669678,37.55113298]},"properties":{"id":239843135,"element_type":"way","amenity":"toilets","fee":"no"}},{"type":"Feature","geometry":{"type":"Point","coordinates":[140.46589512,37.76922940000001]},"properties":{"id":240249134,"element_type":"way","amenity":"toilets","building":"yes","name":"第１展望台トイレ","source":"GSI/KIBAN 2500","source_ref":"http://wiki.osm.org/wiki/GSI_KIBAN"}},{"type":"Feature","geometry":{"type":"Point","coordinates":[140.47795068,37.77505732]},"properties":{"id":240249142,"element_type":"way","amenity":"toilets","building":"yes","source":"GSI/KIBAN 2500","source_ref":"http://wiki.osm.org/wiki/GSI_KIBAN"}},{"type":"Feature","geometry":{"type":"Point","coordinates":[139.95414613999998,37.504521]},"properties":{"id":241066622,"element_type":"way","access":"yes","amenity":"toilets","building":"yes","wheelchair":"no"}},{"type":"Feature","geometry":{"type":"Point","coordinates":[140.36183626666664,37.707842125000006]},"properties":{"id":242412292,"element_type":"way","amenity":"toilets","source":"bing"}},{"type":"Feature","geometry":{"type":"Point","coordinates":[139.42270666,37.39460234]},"properties":{"id":243639991,"element_type":"way","amenity":"toilets","building":"yes","source":"survey"}},{"type":"Feature","geometry":{"type":"Point","coordinates":[139.69872998,37.49483588]},"properties":{"id":246587758,"element_type":"way","KSJ2:LIN":"只見線","amenity":"toilets","building":"yes","note":"National-Land Numerical Information (Railway) 2007, MLIT Japan","note:ja":"国土数値情報（鉄道データ）平成19年　国土交通省","source":"KSJ2","source_ref":"http://nlftp.mlit.go.jp/ksj/jpgis/datalist/KsjTmplt-N02-v1_1.html"}},{"type":"Feature","geometry":{"type":"Point","coordinates":[139.28460413846153,37.311609238461536]},"properties":{"id":247984421,"element_type":"way","amenity":"toilets","building":"yes","source":"bing"}},{"type":"Feature","geometry":{"type":"Point","coordinates":[140.39002046,37.82270836]},"properties":{"id":268403281,"element_type":"way","amenity":"toilets","building":"yes","source":"GSImaps/ort"}},{"type":"Feature","geometry":{"type":"Point","coordinates":[140.33486842,37.655871559999994]},"properties":{"id":288244849,"element_type":"way","amenity":"toilets","building":"yes","building:levels":"1","roof:shape":"gabled"}},{"type":"Feature","geometry":{"type":"Point","coordinates":[140.09183339999998,37.655782939999995]},"properties":{"id":288557825,"element_type":"way","access":"yes","amenity":"toilets","building":"yes","fee":"no","wheelchair":"designated"}},{"type":"Feature","geometry":{"type":"Point","coordinates":[139.87403512,37.65096596]},"properties":{"id":293236167,"element_type":"way","amenity":"toilets","building":"yes","source":"bing"}},{"type":"Feature","geometry":{"type":"Point","coordinates":[139.54306104,37.221618539999994]},"properties":{"id":302027483,"element_type":"way","amenity":"toilets","building":"yes","source":"bing 2017"}},{"type":"Feature","geometry":{"type":"Point","coordinates":[140.38249328,37.39817832]},"properties":{"id":304524324,"element_type":"way","access":"yes","amenity":"toilets","building":"yes","male":"yes","name":"郡山市清水台公衆便所","source":"GSI/KIBAN 2500;NARO","toilets:disposal":"flush"}},{"type":"Feature","geometry":{"type":"Point","coordinates":[139.8419895,37.22453628]},"properties":{"id":307877143,"element_type":"way","amenity":"toilets","building":"yes"}},{"type":"Feature","geometry":{"type":"Point","coordinates":[139.52863826,37.473734179999994]},"properties":{"id":311856305,"element_type":"way","amenity":"toilets","building":"yes"}},{"type":"Feature","geometry":{"type":"Point","coordinates":[139.91708136,37.19053198]},"properties":{"id":314940470,"element_type":"way","amenity":"toilets","building":"yes","source":"bing"}},{"type":"Feature","geometry":{"type":"Point","coordinates":[139.85813656,37.245087139999995]},"properties":{"id":317436672,"element_type":"way","amenity":"toilets","building":"yes","source":"bing"}},{"type":"Feature","geometry":{"type":"Point","coordinates":[139.90325031666669,37.28636113333334]},"properties":{"id":319045644,"element_type":"way","amenity":"toilets","building":"yes","source":"bing"}},{"type":"Feature","geometry":{"type":"Point","coordinates":[139.6176741,37.212225960000005]},"properties":{"id":321492621,"element_type":"way","amenity":"toilets","building":"yes"}},{"type":"Feature","geometry":{"type":"Point","coordinates":[140.88789494615386,37.05380572307692]},"properties":{"id":325120798,"element_type":"way","amenity":"toilets","building":"yes","source":"GSImaps/std"}},{"type":"Feature","geometry":{"type":"Point","coordinates":[140.88236377857143,37.055310278571426]},"properties":{"id":327526518,"element_type":"way","amenity":"toilets","building":"yes","source":"GSImaps/std"}},{"type":"Feature","geometry":{"type":"Point","coordinates":[140.89275216000001,37.051546460000004]},"properties":{"id":329281266,"element_type":"way","amenity":"toilets","building":"yes","source":"GSImaps/std","toilets:disposal":"flush","wheelchair":"yes"}},{"type":"Feature","geometry":{"type":"Point","coordinates":[140.92188794444445,37.71441537777778]},"properties":{"id":347399648,"element_type":"way","amenity":"toilets","building":"yes"}},{"type":"Feature","geometry":{"type":"Point","coordinates":[140.97134796,37.04267554]},"properties":{"id":352332857,"element_type":"way","amenity":"toilets","building":"toilets"}},{"type":"Feature","geometry":{"type":"Point","coordinates":[140.97264334,37.043641980000004]},"properties":{"id":352332863,"element_type":"way","amenity":"toilets","building":"toilets"}},{"type":"Feature","geometry":{"type":"Point","coordinates":[139.71736335999998,37.1482575]},"properties":{"id":352828704,"element_type":"way","amenity":"toilets","building":"yes"}},{"type":"Feature","geometry":{"type":"Point","coordinates":[140.48376702,37.63629607]},"properties":{"id":385393842,"element_type":"way","access":"yes","amenity":"toilets","building":"commercial"}},{"type":"Feature","geometry":{"type":"Point","coordinates":[139.2528524,36.93980456666667]},"properties":{"id":428022212,"element_type":"way","amenity":"toilets","building":"yes","name":"見晴公衆トイレ","name:en":"Miharashi Public Toilet","name:ja-Hira":"みはらしこうしゅうといれ","website":"https://oze-fnd.or.jp/ozb/wc/"}},{"type":"Feature","geometry":{"type":"Point","coordinates":[140.29354332,37.448853559999996]},"properties":{"id":436828561,"element_type":"way","amenity":"toilets","building":"yes"}},{"type":"Feature","geometry":{"type":"Point","coordinates":[140.29543326,37.42221988]},"properties":{"id":436830281,"element_type":"way","amenity":"toilets","building":"yes"}},{"type":"Feature","geometry":{"type":"Point","coordinates":[140.34037256000002,37.456234800000004]},"properties":{"id":436832808,"element_type":"way","amenity":"toilets","building":"yes"}},{"type":"Feature","geometry":{"type":"Point","coordinates":[140.30247518000002,37.4504927]},"properties":{"id":441997105,"element_type":"way","amenity":"toilets","building":"yes"}},{"type":"Feature","geometry":{"type":"Point","coordinates":[140.36035496,37.42933194]},"properties":{"id":441997164,"element_type":"way","amenity":"toilets","building":"yes"}},{"type":"Feature","geometry":{"type":"Point","coordinates":[139.99627279999999,37.62091618]},"properties":{"id":447633041,"element_type":"way","amenity":"toilets","building":"yes","female":"yes","male":"yes"}},{"type":"Feature","geometry":{"type":"Point","coordinates":[139.72229023333335,37.52771669166666]},"properties":{"id":453353492,"element_type":"way","amenity":"toilets","building":"yes"}},{"type":"Feature","geometry":{"type":"Point","coordinates":[139.31633096666667,36.92746645]},"properties":{"id":479261466,"element_type":"way","amenity":"toilets","building":"yes"}},{"type":"Feature","geometry":{"type":"Point","coordinates":[140.46885318,37.76564998]},"properties":{"id":481548254,"element_type":"way","amenity":"toilets","building":"yes","toilets:disposal":"flush"}},{"type":"Feature","geometry":{"type":"Point","coordinates":[140.81238986,37.02000253999999]},"properties":{"id":492147818,"element_type":"way","amenity":"toilets","building":"yes"}},{"type":"Feature","geometry":{"type":"Point","coordinates":[139.35237375,37.043036883333336]},"properties":{"id":504548411,"element_type":"way","amenity":"toilets","building":"yes"}},{"type":"Feature","geometry":{"type":"Point","coordinates":[140.45255183999998,37.833393799999996]},"properties":{"id":533790966,"element_type":"way","amenity":"toilets","building":"yes","check_date":"2023-04-15","source":"GSImaps/std"}},{"type":"Feature","geometry":{"type":"Point","coordinates":[140.46878637999998,37.766098580000005]},"properties":{"id":549280935,"element_type":"way","amenity":"toilets","building":"yes","description":"大日堂トイレ。冬期閉鎖。"}},{"type":"Feature","geometry":{"type":"Point","coordinates":[140.44659662222224,37.76618138888889]},"properties":{"id":604214932,"element_type":"way","amenity":"toilets","building":"yes"}},{"type":"Feature","geometry":{"type":"Point","coordinates":[140.78645537777777,36.8666056]},"properties":{"id":624317762,"element_type":"way","amenity":"toilets","building":"yes","source":"GSImaps/std"}},{"type":"Feature","geometry":{"type":"Point","coordinates":[140.99441159999998,37.16649718]},"properties":{"id":638660188,"element_type":"way","amenity":"toilets","building":"yes","toilets:disposal":"flush"}},{"type":"Feature","geometry":{"type":"Point","coordinates":[140.47150040000002,37.6654975]},"properties":{"id":668992754,"element_type":"way","amenity":"toilets","building":"yes"}},{"type":"Feature","geometry":{"type":"Point","coordinates":[140.92481526,37.84247746]},"properties":{"id":671027709,"element_type":"way","amenity":"toilets","building":"yes","wheelchair":"no"}},{"type":"Feature","geometry":{"type":"Point","coordinates":[140.92554912,37.87893194]},"properties":{"id":674169122,"element_type":"way","amenity":"toilets","building":"yes","toilets:disposal":"flush","wheelchair":"yes"}},{"type":"Feature","geometry":{"type":"Point","coordinates":[140.82615968,37.18346294]},"properties":{"id":678666495,"element_type":"way","amenity":"toilets","building":"yes"}},{"type":"Feature","geometry":{"type":"Point","coordinates":[140.9939698888889,37.10772877777778]},"properties":{"id":680511691,"element_type":"way","amenity":"toilets","building":"yes","toilets:disposal":"flush","unisex":"yes","wheelchair":"yes"}},{"type":"Feature","geometry":{"type":"Point","coordinates":[139.29312104999997,36.93477421666667]},"properties":{"id":697161682,"element_type":"way","amenity":"toilets","building":"yes"}},{"type":"Feature","geometry":{"type":"Point","coordinates":[139.25170873333334,36.954833783333335]},"properties":{"id":697171597,"element_type":"way","amenity":"toilets","building":"yes","building:levels":"1","name":"尾瀬温泉地区公衆トイレ"}},{"type":"Feature","geometry":{"type":"Point","coordinates":[139.61567854,37.06905104]},"properties":{"id":700129364,"element_type":"way","amenity":"toilets","building":"yes"}},{"type":"Feature","geometry":{"type":"Point","coordinates":[140.36626466666664,37.63868968333333]},"properties":{"id":710602239,"element_type":"way","amenity":"toilets","building":"yes"}},{"type":"Feature","geometry":{"type":"Point","coordinates":[140.99931655999998,37.21238204]},"properties":{"id":743212636,"element_type":"way","access":"yes","amenity":"toilets","building":"yes","toilets:disposal":"flush","unisex":"yes"}},{"type":"Feature","geometry":{"type":"Point","coordinates":[140.49139816000002,37.443301319999996]},"properties":{"id":769802519,"element_type":"way","amenity":"toilets","building":"yes"}},{"type":"Feature","geometry":{"type":"Point","coordinates":[140.96368895999998,37.62506276]},"properties":{"id":799292884,"element_type":"way","amenity":"toilets","building":"yes","operator":"福島県","unisex":"yes"}},{"type":"Feature","geometry":{"type":"Point","coordinates":[140.37070978,37.63941218]},"properties":{"id":814613628,"element_type":"way","amenity":"toilets","building":"yes","toilets:disposal":"flush"}},{"type":"Feature","geometry":{"type":"Point","coordinates":[140.37197666,37.64410482]},"properties":{"id":814613648,"element_type":"way","amenity":"toilets","building":"yes"}},{"type":"Feature","geometry":{"type":"Point","coordinates":[140.36464276,37.6463986]},"properties":{"id":814613651,"element_type":"way","amenity":"toilets","building":"yes"}},{"type":"Feature","geometry":{"type":"Point","coordinates":[140.37100665999998,37.64472662]},"properties":{"id":826511823,"element_type":"way","amenity":"toilets","building":"yes"}},{"type":"Feature","geometry":{"type":"Point","coordinates":[140.37068244,37.64189188]},"properties":{"id":826511836,"element_type":"way","amenity":"toilets","building":"yes"}},{"type":"Feature","geometry":{"type":"Point","coordinates":[140.3656351125,37.6422181625]},"properties":{"id":826518409,"element_type":"way","amenity":"toilets","building":"yes"}},{"type":"Feature","geometry":{"type":"Point","coordinates":[139.71415316,37.8534234]},"properties":{"id":833871248,"element_type":"way","amenity":"toilets","building":"yes"}},{"type":"Feature","geometry":{"type":"Point","coordinates":[140.59433752857143,37.38728245714286]},"properties":{"id":835616368,"element_type":"way","amenity":"toilets"}},{"type":"Feature","geometry":{"type":"Point","coordinates":[140.39094076,37.24703694]},"properties":{"id":852247269,"element_type":"way","access":"yes","amenity":"toilets","building":"yes","toilets:disposal":"flush","wheelchair":"yes"}},{"type":"Feature","geometry":{"type":"Point","coordinates":[140.61102742000003,37.87574168]},"properties":{"id":852248360,"element_type":"way","amenity":"toilets","building":"yes","changing_table":"no","unisex":"yes","wheelchair":"no"}},{"type":"Feature","geometry":{"type":"Point","coordinates":[140.46856244999998,37.750914566666665]},"properties":{"id":893679795,"element_type":"way","amenity":"toilets","building":"yes"}},{"type":"Feature","geometry":{"type":"Point","coordinates":[140.61271726,37.15685206]},"properties":{"id":923564434,"element_type":"way","amenity":"toilets"}},{"type":"Feature","geometry":{"type":"Point","coordinates":[140.83758788,37.0712461]},"properties":{"id":976392210,"element_type":"way","amenity":"toilets","building":"yes"}},{"type":"Feature","geometry":{"type":"Point","coordinates":[140.85506758000002,37.03588286]},"properties":{"id":1070304111,"element_type":"way","amenity":"toilets","building":"yes"}},{"type":"Feature","geometry":{"type":"Point","coordinates":[139.86527006,37.255316040000004]},"properties":{"id":1110145223,"element_type":"way","amenity":"toilets","building":"yes"}},{"type":"Feature","geometry":{"type":"Point","coordinates":[140.4303906,37.597197439999995]},"properties":{"id":1188766630,"element_type":"way","amenity":"toilets","building":"yes"}},{"type":"Feature","geometry":{"type":"Point","coordinates":[140.44616996000002,37.59185222]},"properties":{"id":1189013141,"element_type":"way","amenity":"toilets","building":"yes"}},{"type":"Feature","geometry":{"type":"Point","coordinates":[140.42961178000002,37.59679202]},"properties":{"id":1189311797,"element_type":"way","amenity":"toilets","building":"yes"}},{"type":"Feature","geometry":{"type":"Point","coordinates":[140.42947606,37.59787766]},"properties":{"id":1189365326,"element_type":"way","amenity":"toilets","building":"yes"}},{"type":"Feature","geometry":{"type":"Point","coordinates":[140.4311937,37.598253820000004]},"properties":{"id":1189506153,"element_type":"way","amenity":"toilets","building":"yes"}},{"type":"Feature","geometry":{"type":"Point","coordinates":[140.49640338,37.442569400000004]},"properties":{"id":1190714445,"element_type":"way","amenity":"toilets","building":"yes"}},{"type":"Feature","geometry":{"type":"Point","coordinates":[140.45242506000002,37.14431076]},"properties":{"id":1191499146,"element_type":"way","amenity":"toilets","building":"yes"}},{"type":"Feature","geometry":{"type":"Point","coordinates":[140.45103967999998,37.145227139999996]},"properties":{"id":1191512559,"element_type":"way","amenity":"toilets","building":"yes"}},{"type":"Feature","geometry":{"type":"Point","coordinates":[140.386325,37.029208239999996]},"properties":{"id":1191516623,"element_type":"way","amenity":"toilets","building":"yes"}},{"type":"Feature","geometry":{"type":"Point","coordinates":[140.5770373,37.90734684]},"properties":{"id":1196394378,"element_type":"way","amenity":"toilets","building":"yes"}},{"type":"Feature","geometry":{"type":"Point","coordinates":[140.57788661428575,37.908116885714286]},"properties":{"id":1196394382,"element_type":"way","amenity":"toilets","building":"yes"}},{"type":"Feature","geometry":{"type":"Point","coordinates":[140.57929866,37.90721764]},"properties":{"id":1196394393,"element_type":"way","amenity":"toilets","building":"yes"}},{"type":"Feature","geometry":{"type":"Point","coordinates":[140.24320772000002,37.15146658]},"properties":{"id":1196394406,"element_type":"way","amenity":"toilets","building":"yes"}},{"type":"Feature","geometry":{"type":"Point","coordinates":[140.24142344,37.151232900000004]},"properties":{"id":1196394410,"element_type":"way","amenity":"toilets","building":"yes"}},{"type":"Feature","geometry":{"type":"Point","coordinates":[140.47438308,37.471332159999996]},"properties":{"id":1223489174,"element_type":"way","amenity":"toilets","building":"yes","building:levels":"1","source":"GSImaps/seamlessphoto;survey"}},{"type":"Feature","geometry":{"type":"Point","coordinates":[140.98222104,37.63639714]},"properties":{"id":1284119151,"element_type":"way","amenity":"toilets","building":"yes"}},{"type":"Feature","geometry":{"type":"Point","coordinates":[140.48755002000001,37.65664862]},"properties":{"id":1286524120,"element_type":"way","amenity":"toilets","building":"yes"}},{"type":"Feature","geometry":{"type":"Point","coordinates":[140.96640104,37.638105780000004]},"properties":{"id":1292074547,"element_type":"way","amenity":"toilets","building":"yes"}},{"type":"Feature","geometry":{"type":"Point","coordinates":[140.95952898000002,37.622275619999996]},"properties":{"id":1296213590,"element_type":"way","amenity":"toilets","building":"yes","name":"馬トイレ"}},{"type":"Feature","geometry":{"type":"Point","coordinates":[140.96075186000002,37.62421202]},"properties":{"id":1296213596,"element_type":"way","amenity":"toilets","building":"yes"}},{"type":"Feature","geometry":{"type":"Point","coordinates":[140.96329255999999,37.62223264]},"properties":{"id":1296623679,"element_type":"way","amenity":"toilets","building":"yes"}},{"type":"Feature","geometry":{"type":"Point","coordinates":[140.96920341428572,37.632725185714285]},"properties":{"id":1296757462,"element_type":"way","amenity":"toilets","building":"yes"}},{"type":"Feature","geometry":{"type":"Point","coordinates":[140.95339461999998,37.61533232000001]},"properties":{"id":1300550672,"element_type":"way","amenity":"toilets","building":"yes"}},{"type":"Feature","geometry":{"type":"Point","coordinates":[140.98704813333336,37.49094898888889]},"properties":{"id":1327757348,"element_type":"way","amenity":"toilets","building":"yes"}}]}