{
  "type": "FeatureCollection",
  "features": [
    {
      "type": "Feature",
      "geometry": {
        "type": "Point",
        "coordinates": [
          140.3599916,
          37.7203954
        ]
      },
      "properties": {
        "id": 569955737,
        "amenity": "drinking_water"
      }
    },
    {
      "type": "Feature",
      "geometry": {
        "type": "Point",
        "coordinates": [
          140.7973212,
          36.9227821
        ]
      },
      "properties": {
        "id": 1272049145,
        "amenity": "drinking_water",
        "name": "非常用貯水装置",
        "ref": "勿来No1"
      }
    },
    {
      "type": "Feature",
      "geometry": {
        "type": "Point",
        "coordinates": [
          139.936145,
          37.5250288
        ]
      },
      "properties": {
        "id": 1920124121,
        "amenity": "drinking_water",
        "check_date": "2023-08-31",
        "fountain": "bubbler"
      }
    },
    {
      "type": "Feature",
      "geometry": {
        "type": "Point",
        "coordinates": [
          139.9334022,
          37.488159
        ]
      },
      "properties": {
        "id": 2012050946,
        "amenity": "drinking_water"
      }
    },
    {
      "type": "Feature",
      "geometry": {
        "type": "Point",
        "coordinates": [
          139.9298995,
          37.4872348
        ]
      },
      "properties": {
        "id": 2334237522,
        "amenity": "drinking_water"
      }
    },
    {
      "type": "Feature",
      "geometry": {
        "type": "Point",
        "coordinates": [
          139.8976776,
          37.4472142
        ]
      },
      "properties": {
        "id": 2336789802,
        "amenity": "drinking_water"
      }
    },
    {
      "type": "Feature",
      "geometry": {
        "type": "Point",
        "coordinates": [
          139.8976448,
          37.4484864
        ]
      },
      "properties": {
        "id": 2336792265,
        "amenity": "drinking_water"
      }
    },
    {
      "type": "Feature",
      "geometry": {
        "type": "Point",
        "coordinates": [
          139.9013961,
          37.4444061
        ]
      },
      "properties": {
        "id": 2341759647,
        "amenity": "drinking_water"
      }
    },
    {
      "type": "Feature",
      "geometry": {
        "type": "Point",
        "coordinates": [
          139.9014325,
          37.4450074
        ]
      },
      "properties": {
        "id": 2341759778,
        "amenity": "drinking_water"
      }
    },
    {
      "type": "Feature",
      "geometry": {
        "type": "Point",
        "coordinates": [
          139.9021381,
          37.4461862
        ]
      },
      "properties": {
        "id": 2342023288,
        "amenity": "drinking_water"
      }
    },
    {
      "type": "Feature",
      "geometry": {
        "type": "Point",
        "coordinates": [
          139.894977,
          37.4501256
        ]
      },
      "properties": {
        "id": 2342088657,
        "amenity": "drinking_water"
      }
    },
    {
      "type": "Feature",
      "geometry": {
        "type": "Point",
        "coordinates": [
          140.901027,
          36.9414168
        ]
      },
      "properties": {
        "id": 2496929160,
        "amenity": "drinking_water"
      }
    },
    {
      "type": "Feature",
      "geometry": {
        "type": "Point",
        "coordinates": [
          140.3752639,
          37.7332134
        ]
      },
      "properties": {
        "id": 2619731619,
        "amenity": "drinking_water"
      }
    },
    {
      "type": "Feature",
      "geometry": {
        "type": "Point",
        "coordinates": [
          139.9770068,
          37.4718078
        ]
      },
      "properties": {
        "id": 2706336667,
        "amenity": "drinking_water"
      }
    },
    {
      "type": "Feature",
      "geometry": {
        "type": "Point",
        "coordinates": [
          139.9769329,
          37.4750037
        ]
      },
      "properties": {
        "id": 2706336927,
        "amenity": "drinking_water"
      }
    },
    {
      "type": "Feature",
      "geometry": {
        "type": "Point",
        "coordinates": [
          140.4808766,
          37.7725284
        ]
      },
      "properties": {
        "id": 2904187272,
        "amenity": "drinking_water"
      }
    },
    {
      "type": "Feature",
      "geometry": {
        "type": "Point",
        "coordinates": [
          140.4754515,
          37.7733196
        ]
      },
      "properties": {
        "id": 2904187404,
        "amenity": "drinking_water"
      }
    },
    {
      "type": "Feature",
      "geometry": {
        "type": "Point",
        "coordinates": [
          140.4753526,
          37.774082
        ]
      },
      "properties": {
        "id": 2904187412,
        "amenity": "drinking_water"
      }
    },
    {
      "type": "Feature",
      "geometry": {
        "type": "Point",
        "coordinates": [
          140.0173447,
          37.5099186
        ]
      },
      "properties": {
        "id": 2925461736,
        "amenity": "drinking_water"
      }
    },
    {
      "type": "Feature",
      "geometry": {
        "type": "Point",
        "coordinates": [
          140.0186361,
          37.5126299
        ]
      },
      "properties": {
        "id": 2925462603,
        "amenity": "drinking_water"
      }
    },
    {
      "type": "Feature",
      "geometry": {
        "type": "Point",
        "coordinates": [
          140.0148173,
          37.5175683
        ]
      },
      "properties": {
        "id": 2925462884,
        "amenity": "drinking_water"
      }
    },
    {
      "type": "Feature",
      "geometry": {
        "type": "Point",
        "coordinates": [
          140.0639364,
          37.6522472
        ]
      },
      "properties": {
        "id": 2933929506,
        "amenity": "drinking_water"
      }
    },
    {
      "type": "Feature",
      "geometry": {
        "type": "Point",
        "coordinates": [
          139.6059892,
          37.5360904
        ]
      },
      "properties": {
        "id": 2960012896,
        "amenity": "drinking_water"
      }
    },
    {
      "type": "Feature",
      "geometry": {
        "type": "Point",
        "coordinates": [
          140.0436101,
          37.5211455
        ]
      },
      "properties": {
        "id": 3008117352,
        "amenity": "drinking_water"
      }
    },
    {
      "type": "Feature",
      "geometry": {
        "type": "Point",
        "coordinates": [
          140.0432189,
          37.5213847
        ]
      },
      "properties": {
        "id": 3008117376,
        "amenity": "drinking_water"
      }
    },
    {
      "type": "Feature",
      "geometry": {
        "type": "Point",
        "coordinates": [
          139.8457949,
          37.2777112
        ]
      },
      "properties": {
        "id": 3176060984,
        "amenity": "drinking_water",
        "name": "高倉山の湧き水"
      }
    },
    {
      "type": "Feature",
      "geometry": {
        "type": "Point",
        "coordinates": [
          139.9143885,
          37.3463281
        ]
      },
      "properties": {
        "id": 3699881625,
        "amenity": "drinking_water"
      }
    },
    {
      "type": "Feature",
      "geometry": {
        "type": "Point",
        "coordinates": [
          139.9154509,
          37.346672
        ]
      },
      "properties": {
        "id": 3699881705,
        "amenity": "drinking_water"
      }
    },
    {
      "type": "Feature",
      "geometry": {
        "type": "Point",
        "coordinates": [
          141.0126464,
          37.2688097
        ]
      },
      "properties": {
        "id": 3751590397,
        "amenity": "drinking_water"
      }
    },
    {
      "type": "Feature",
      "geometry": {
        "type": "Point",
        "coordinates": [
          139.9445562,
          37.499027
        ]
      },
      "properties": {
        "id": 3774895276,
        "amenity": "drinking_water",
        "description": "街区公園 千石東の杜公園",
        "operator": "会津若松市 花と緑の課",
        "phone": "+81-242-39-1262",
        "source": "http://www.mapillary.com/map/im/kM-_4LQhNd5J1Kogvql1kw/photo",
        "website": "https://www.city.aizuwakamatsu.fukushima.jp/soshiki/hanatomidorinoka/"
      }
    },
    {
      "type": "Feature",
      "geometry": {
        "type": "Point",
        "coordinates": [
          139.9545244,
          37.5305706
        ]
      },
      "properties": {
        "id": 3789854594,
        "amenity": "drinking_water",
        "description": "街区公園 松長1号公園",
        "operator": "会津若松市 花と緑の課",
        "phone": "+81-242-39-1262",
        "source": "http://www.mapillary.com/map/im/p6BDPDB4UNWl4qclroRtrw/photo",
        "website": "https://www.city.aizuwakamatsu.fukushima.jp/soshiki/hanatomidorinoka/"
      }
    },
    {
      "type": "Feature",
      "geometry": {
        "type": "Point",
        "coordinates": [
          139.9442033,
          37.5571245
        ]
      },
      "properties": {
        "id": 3790455818,
        "amenity": "drinking_water",
        "description": "街区公園 高塚公園",
        "operator": "会津若松市 花と緑の課",
        "phone": "+81-242-39-1262",
        "source": "http://www.mapillary.com/map/im/EF14ssVmUHnQzSwnGOxxUA/photo",
        "website": "https://www.city.aizuwakamatsu.fukushima.jp/soshiki/hanatomidorinoka/"
      }
    },
    {
      "type": "Feature",
      "geometry": {
        "type": "Point",
        "coordinates": [
          139.9446902,
          37.5570478
        ]
      },
      "properties": {
        "id": 3790472341,
        "amenity": "drinking_water",
        "description": "街区公園 高塚公園",
        "operator": "会津若松市 花と緑の課",
        "phone": "+81-242-39-1262",
        "source": "http://www.mapillary.com/map/im/PaR-N4TD-ztgiQDLJU5hhQ/photo",
        "website": "https://www.city.aizuwakamatsu.fukushima.jp/soshiki/hanatomidorinoka/"
      }
    },
    {
      "type": "Feature",
      "geometry": {
        "type": "Point",
        "coordinates": [
          139.9562927,
          37.5284028
        ]
      },
      "properties": {
        "id": 3791371149,
        "amenity": "drinking_water",
        "description": "街区公園 松長2号公園",
        "operator": "会津若松市 花と緑の課",
        "phone": "+81-242-39-1262",
        "source": "http://www.mapillary.com/map/im/jEJPy0xG-oooliTEmiQmxA/photo",
        "website": "https://www.city.aizuwakamatsu.fukushima.jp/soshiki/hanatomidorinoka/"
      }
    },
    {
      "type": "Feature",
      "geometry": {
        "type": "Point",
        "coordinates": [
          139.957131,
          37.5273607
        ]
      },
      "properties": {
        "id": 3791442911,
        "amenity": "drinking_water",
        "description": "緑道 松長緑道",
        "operator": "会津若松市 花と緑の課",
        "phone": "+81-242-39-1262",
        "source": "http://www.mapillary.com/map/im/sQTofCltkfxnaSXMQA0ekg/photo",
        "website": "https://www.city.aizuwakamatsu.fukushima.jp/soshiki/hanatomidorinoka/"
      }
    },
    {
      "type": "Feature",
      "geometry": {
        "type": "Point",
        "coordinates": [
          139.9582048,
          37.5279901
        ]
      },
      "properties": {
        "id": 3791442939,
        "amenity": "drinking_water",
        "description": "緑道 松長緑道",
        "operator": "会津若松市 花と緑の課",
        "phone": "+81-242-39-1262",
        "source": "http://www.mapillary.com/map/im/o0LIWY_4hMz5tK7oDGjM5g/photo",
        "website": "https://www.city.aizuwakamatsu.fukushima.jp/soshiki/hanatomidorinoka/"
      }
    },
    {
      "type": "Feature",
      "geometry": {
        "type": "Point",
        "coordinates": [
          139.9589302,
          37.5286071
        ]
      },
      "properties": {
        "id": 3791446763,
        "amenity": "drinking_water",
        "description": "緑道 松長緑道",
        "operator": "会津若松市 花と緑の課",
        "phone": "+81-242-39-1262",
        "source": "http://www.mapillary.com/map/im/NL0NFZn_llJ6zQ2FsitUkA/photo",
        "website": "https://www.city.aizuwakamatsu.fukushima.jp/soshiki/hanatomidorinoka/"
      }
    },
    {
      "type": "Feature",
      "geometry": {
        "type": "Point",
        "coordinates": [
          139.9599192,
          37.5265008
        ]
      },
      "properties": {
        "id": 3792591285,
        "amenity": "drinking_water",
        "description": "街区公園 松長3号公園",
        "operator": "会津若松市 花と緑の課",
        "phone": "+81-242-39-1262",
        "source": "http://www.mapillary.com/map/im/d9geDQ-d-Er-_37cmxRwjw/photo",
        "website": "https://www.city.aizuwakamatsu.fukushima.jp/soshiki/hanatomidorinoka/"
      }
    },
    {
      "type": "Feature",
      "geometry": {
        "type": "Point",
        "coordinates": [
          139.9631708,
          37.52881
        ]
      },
      "properties": {
        "id": 3792591300,
        "amenity": "drinking_water",
        "description": "街区公園 松長4号公園",
        "operator": "会津若松市 花と緑の課",
        "phone": "+81-242-39-1262",
        "source": "http://www.mapillary.com/map/im/CJaBwNYtVF2p4fSXhkG9Yw/photo",
        "website": "https://www.city.aizuwakamatsu.fukushima.jp/soshiki/hanatomidorinoka/"
      }
    },
    {
      "type": "Feature",
      "geometry": {
        "type": "Point",
        "coordinates": [
          139.9632057,
          37.5289971
        ]
      },
      "properties": {
        "id": 3792591303,
        "amenity": "drinking_water",
        "description": "街区公園 松長4号公園",
        "operator": "会津若松市 花と緑の課",
        "phone": "+81-242-39-1262",
        "source": "http://www.mapillary.com/map/im/G-0x3zVKiLOFdi3I99DynA/photo",
        "website": "https://www.city.aizuwakamatsu.fukushima.jp/soshiki/hanatomidorinoka/"
      }
    },
    {
      "type": "Feature",
      "geometry": {
        "type": "Point",
        "coordinates": [
          139.9382214,
          37.5198129
        ]
      },
      "properties": {
        "id": 3792623285,
        "amenity": "drinking_water",
        "description": "街区公園 つるかめ公園",
        "operator": "会津若松市 花と緑の課",
        "phone": "+81-242-39-1262",
        "source": "http://www.mapillary.com/map/im/fI5_oEJG9Xq5sP5KLbkYBw/photo",
        "website": "https://www.city.aizuwakamatsu.fukushima.jp/soshiki/hanatomidorinoka/"
      }
    },
    {
      "type": "Feature",
      "geometry": {
        "type": "Point",
        "coordinates": [
          139.9507493,
          37.5181568
        ]
      },
      "properties": {
        "id": 3792665581,
        "amenity": "drinking_water"
      }
    },
    {
      "type": "Feature",
      "geometry": {
        "type": "Point",
        "coordinates": [
          139.9540332,
          37.5275489
        ]
      },
      "properties": {
        "id": 3792681184,
        "amenity": "drinking_water",
        "description": "都市緑地 松長1号緑地",
        "operator": "会津若松市 花と緑の課",
        "phone": "+81-242-39-1262",
        "source": "http://www.mapillary.com/map/im/dxLX1UE_8Pzdaj7c-DHTUQ/photo",
        "website": "https://www.city.aizuwakamatsu.fukushima.jp/soshiki/hanatomidorinoka/"
      }
    },
    {
      "type": "Feature",
      "geometry": {
        "type": "Point",
        "coordinates": [
          139.9514895,
          37.5120158
        ]
      },
      "properties": {
        "id": 3792698276,
        "amenity": "drinking_water",
        "description": "都市緑地 滝沢13号緑地",
        "operator": "会津若松市 花と緑の課",
        "phone": "+81-242-39-1262",
        "source": "http://www.mapillary.com/map/im/sUtdiCgc6OmdMegGrN7amQ/photo",
        "website": "https://www.city.aizuwakamatsu.fukushima.jp/soshiki/hanatomidorinoka/"
      }
    },
    {
      "type": "Feature",
      "geometry": {
        "type": "Point",
        "coordinates": [
          139.9503914,
          37.5020997
        ]
      },
      "properties": {
        "id": 3794165826,
        "amenity": "drinking_water",
        "description": "街区公園 飯盛1号公園",
        "operator": "会津若松市 花と緑の課",
        "phone": "+81-242-39-1262",
        "source": "http://www.mapillary.com/map/im/-vfZ4LnxQxHY_ApiMWmjmg/photo",
        "website": "https://www.city.aizuwakamatsu.fukushima.jp/soshiki/hanatomidorinoka/"
      }
    },
    {
      "type": "Feature",
      "geometry": {
        "type": "Point",
        "coordinates": [
          139.9458697,
          37.4999975
        ]
      },
      "properties": {
        "id": 3794226421,
        "amenity": "drinking_water"
      }
    },
    {
      "type": "Feature",
      "geometry": {
        "type": "Point",
        "coordinates": [
          139.9454233,
          37.4999283
        ]
      },
      "properties": {
        "id": 3794241761,
        "amenity": "drinking_water"
      }
    },
    {
      "type": "Feature",
      "geometry": {
        "type": "Point",
        "coordinates": [
          139.9473385,
          37.4974471
        ]
      },
      "properties": {
        "id": 3794278185,
        "amenity": "drinking_water",
        "description": "街区公園 千石さくら公園",
        "operator": "会津若松市 花と緑の課",
        "phone": "+81-242-39-1262",
        "source": "http://www.mapillary.com/map/im/S4YXMwv683dOqdVep0vy6Q/photo",
        "website": "https://www.city.aizuwakamatsu.fukushima.jp/soshiki/hanatomidorinoka/"
      }
    },
    {
      "type": "Feature",
      "geometry": {
        "type": "Point",
        "coordinates": [
          139.9469913,
          37.4953539
        ]
      },
      "properties": {
        "id": 3794289206,
        "amenity": "drinking_water"
      }
    },
    {
      "type": "Feature",
      "geometry": {
        "type": "Point",
        "coordinates": [
          139.9516239,
          37.4930592
        ]
      },
      "properties": {
        "id": 3794301589,
        "amenity": "drinking_water",
        "description": "街区公園 愛宕山公園",
        "operator": "会津若松市 花と緑の課",
        "phone": "+81-242-39-1262",
        "source": "http://www.mapillary.com/map/im/cf0ECrmlVaKNwZvo_eAgeA/photo",
        "website": "https://www.city.aizuwakamatsu.fukushima.jp/soshiki/hanatomidorinoka/"
      }
    },
    {
      "type": "Feature",
      "geometry": {
        "type": "Point",
        "coordinates": [
          139.8696851,
          37.5252656
        ]
      },
      "properties": {
        "id": 3794510144,
        "amenity": "drinking_water",
        "description": "街区公園 亀公園",
        "operator": "会津若松市 花と緑の課",
        "phone": "+81-242-39-1262",
        "source": "http://www.mapillary.com/map/im/kykUShXvI9mFZjYggOE3MA/photo",
        "website": "https://www.city.aizuwakamatsu.fukushima.jp/soshiki/hanatomidorinoka/"
      }
    },
    {
      "type": "Feature",
      "geometry": {
        "type": "Point",
        "coordinates": [
          139.8746199,
          37.5214886
        ]
      },
      "properties": {
        "id": 3794612553,
        "amenity": "drinking_water",
        "description": "街区公園 中央公園",
        "operator": "会津若松市 花と緑の課",
        "phone": "+81-242-39-1262",
        "source": "http://www.mapillary.com/map/im/Uoh3mtxzH2YivKbM-5i1Xg/photo",
        "website": "https://www.city.aizuwakamatsu.fukushima.jp/soshiki/hanatomidorinoka/"
      }
    },
    {
      "type": "Feature",
      "geometry": {
        "type": "Point",
        "coordinates": [
          139.8762427,
          37.5167599
        ]
      },
      "properties": {
        "id": 3794767312,
        "amenity": "drinking_water",
        "description": "街区公園 昭和公園",
        "operator": "会津若松市 花と緑の課",
        "phone": "+81-242-39-1262",
        "source": "http://www.mapillary.com/map/im/oOwZqvumWY8rKQUqwjPMWg/photo",
        "website": "https://www.city.aizuwakamatsu.fukushima.jp/soshiki/hanatomidorinoka/"
      }
    },
    {
      "type": "Feature",
      "geometry": {
        "type": "Point",
        "coordinates": [
          139.8760468,
          37.5142108
        ]
      },
      "properties": {
        "id": 3794857626,
        "amenity": "drinking_water",
        "description": "街区公園 さくら公園",
        "operator": "会津若松市 花と緑の課",
        "phone": "+81-242-39-1262",
        "source": "http://www.mapillary.com/map/im/APaqdqrVeC8y50RTas0dAA/photo",
        "website": "https://www.city.aizuwakamatsu.fukushima.jp/soshiki/hanatomidorinoka/"
      }
    },
    {
      "type": "Feature",
      "geometry": {
        "type": "Point",
        "coordinates": [
          139.8676257,
          37.5096111
        ]
      },
      "properties": {
        "id": 3796760226,
        "amenity": "drinking_water"
      }
    },
    {
      "type": "Feature",
      "geometry": {
        "type": "Point",
        "coordinates": [
          139.8668606,
          37.5103163
        ]
      },
      "properties": {
        "id": 3796760765,
        "amenity": "drinking_water"
      }
    },
    {
      "type": "Feature",
      "geometry": {
        "type": "Point",
        "coordinates": [
          139.8708902,
          37.4987037
        ]
      },
      "properties": {
        "id": 3796762545,
        "amenity": "drinking_water"
      }
    },
    {
      "type": "Feature",
      "geometry": {
        "type": "Point",
        "coordinates": [
          139.8925292,
          37.4759555
        ]
      },
      "properties": {
        "id": 3797046328,
        "amenity": "drinking_water",
        "description": "街区公園 水季の里公園",
        "operator": "会津若松市 花と緑の課",
        "phone": "+81-242-39-1262",
        "source": "http://www.mapillary.com/map/im/kp9RGTW9hne8Mau5K13CyA/photo",
        "website": "https://www.city.aizuwakamatsu.fukushima.jp/soshiki/hanatomidorinoka/"
      }
    },
    {
      "type": "Feature",
      "geometry": {
        "type": "Point",
        "coordinates": [
          139.8944542,
          37.476993
        ]
      },
      "properties": {
        "id": 3797046471,
        "amenity": "drinking_water"
      }
    },
    {
      "type": "Feature",
      "geometry": {
        "type": "Point",
        "coordinates": [
          139.9494653,
          37.5186138
        ]
      },
      "properties": {
        "id": 3797079004,
        "amenity": "drinking_water"
      }
    },
    {
      "type": "Feature",
      "geometry": {
        "type": "Point",
        "coordinates": [
          139.9269122,
          37.5504103
        ]
      },
      "properties": {
        "id": 3797649627,
        "amenity": "drinking_water"
      }
    },
    {
      "type": "Feature",
      "geometry": {
        "type": "Point",
        "coordinates": [
          139.934,
          37.5147318
        ]
      },
      "properties": {
        "id": 3797739793,
        "amenity": "drinking_water",
        "description": "街区公園 扇町2号公園",
        "operator": "会津若松市 花と緑の課",
        "phone": "+81-242-39-1262",
        "source": "http://www.mapillary.com/map/im/LxTh1qOzRQ6nG81GUARp5A/photo",
        "website": "https://www.city.aizuwakamatsu.fukushima.jp/soshiki/hanatomidorinoka/"
      }
    },
    {
      "type": "Feature",
      "geometry": {
        "type": "Point",
        "coordinates": [
          139.9370397,
          37.4901133
        ]
      },
      "properties": {
        "id": 3798498429,
        "amenity": "drinking_water",
        "description": "街区公園 つばくろ公園",
        "operator": "会津若松市 花と緑の課",
        "phone": "+81-242-39-1262",
        "source": "http://www.mapillary.com/map/im/Bi9buZKmtdFFNOqAFEwpCg/photo",
        "website": "https://www.city.aizuwakamatsu.fukushima.jp/soshiki/hanatomidorinoka/"
      }
    },
    {
      "type": "Feature",
      "geometry": {
        "type": "Point",
        "coordinates": [
          139.9365223,
          37.4883452
        ]
      },
      "properties": {
        "id": 3799355157,
        "amenity": "drinking_water",
        "description": "街区公園 小田垣公園",
        "operator": "会津若松市 花と緑の課",
        "phone": "+81-242-39-1262",
        "source": "http://www.mapillary.com/map/im/n8PsQtmB2o3u7sXKH80wpA/photo",
        "website": "https://www.city.aizuwakamatsu.fukushima.jp/soshiki/hanatomidorinoka/"
      }
    },
    {
      "type": "Feature",
      "geometry": {
        "type": "Point",
        "coordinates": [
          139.9441138,
          37.514514
        ]
      },
      "properties": {
        "id": 3800071640,
        "amenity": "drinking_water"
      }
    },
    {
      "type": "Feature",
      "geometry": {
        "type": "Point",
        "coordinates": [
          139.7217506,
          37.3367223
        ]
      },
      "properties": {
        "id": 3800113977,
        "amenity": "drinking_water",
        "name": "撫清水"
      }
    },
    {
      "type": "Feature",
      "geometry": {
        "type": "Point",
        "coordinates": [
          139.9340544,
          37.481617
        ]
      },
      "properties": {
        "id": 3800872137,
        "amenity": "drinking_water",
        "description": "街区公園 黒岩公園",
        "operator": "会津若松市 花と緑の課",
        "phone": "+81-242-39-1262",
        "source": "http://www.mapillary.com/map/im/Sr7WACUDQd0xPxvBoj2AvQ/photo",
        "website": "https://www.city.aizuwakamatsu.fukushima.jp/soshiki/hanatomidorinoka/"
      }
    },
    {
      "type": "Feature",
      "geometry": {
        "type": "Point",
        "coordinates": [
          139.9206855,
          37.4809111
        ]
      },
      "properties": {
        "id": 3801550223,
        "amenity": "drinking_water",
        "description": "街区公園 薬師公園",
        "operator": "会津若松市 花と緑の課",
        "phone": "+81-242-39-1262",
        "source": "http://www.mapillary.com/map/im/oFIz1IzNezCvu535gb_WwQ/photo",
        "website": "https://www.city.aizuwakamatsu.fukushima.jp/soshiki/hanatomidorinoka/"
      }
    },
    {
      "type": "Feature",
      "geometry": {
        "type": "Point",
        "coordinates": [
          139.9212311,
          37.4812604
        ]
      },
      "properties": {
        "id": 3801550253,
        "amenity": "drinking_water",
        "description": "街区公園 薬師公園",
        "operator": "会津若松市 花と緑の課",
        "phone": "+81-242-39-1262",
        "source": "http://www.mapillary.com/map/im/wD7j5yg3hi1EXVEUH1ZBPg",
        "website": "https://www.city.aizuwakamatsu.fukushima.jp/soshiki/hanatomidorinoka/"
      }
    },
    {
      "type": "Feature",
      "geometry": {
        "type": "Point",
        "coordinates": [
          139.9322679,
          37.4724652
        ]
      },
      "properties": {
        "id": 3801567792,
        "amenity": "drinking_water",
        "description": "街区公園 石高公園",
        "operator": "会津若松市 花と緑の課",
        "phone": "+81-242-39-1262",
        "source": "http://www.mapillary.com/map/im/SRbtaP6BkD2WFqRHGGB5Tw/photo",
        "website": "https://www.city.aizuwakamatsu.fukushima.jp/soshiki/hanatomidorinoka/"
      }
    },
    {
      "type": "Feature",
      "geometry": {
        "type": "Point",
        "coordinates": [
          139.9153845,
          37.4831577
        ]
      },
      "properties": {
        "id": 3801649320,
        "amenity": "drinking_water",
        "description": "街区公園 城西町公園",
        "operator": "会津若松市 花と緑の課",
        "phone": "+81-242-39-1262",
        "source": "http://www.mapillary.com/map/im/RZw79tnANSaz7LTMS8GjPA/photo",
        "website": "https://www.city.aizuwakamatsu.fukushima.jp/soshiki/hanatomidorinoka/"
      }
    },
    {
      "type": "Feature",
      "geometry": {
        "type": "Point",
        "coordinates": [
          139.9080921,
          37.4663604
        ]
      },
      "properties": {
        "id": 3801650886,
        "amenity": "drinking_water"
      }
    },
    {
      "type": "Feature",
      "geometry": {
        "type": "Point",
        "coordinates": [
          139.9079926,
          37.4676324
        ]
      },
      "properties": {
        "id": 3801650953,
        "amenity": "drinking_water"
      }
    },
    {
      "type": "Feature",
      "geometry": {
        "type": "Point",
        "coordinates": [
          139.9100312,
          37.4878845
        ]
      },
      "properties": {
        "id": 3801663302,
        "amenity": "drinking_water",
        "description": "街区公園 住吉児童公園",
        "operator": "会津若松市 花と緑の課",
        "phone": "+81-242-39-1262",
        "source": "http://www.mapillary.com/map/im/xQrP7Xx3t6ruuE9BjgA0KA/photo",
        "website": "https://www.city.aizuwakamatsu.fukushima.jp/soshiki/hanatomidorinoka/"
      }
    },
    {
      "type": "Feature",
      "geometry": {
        "type": "Point",
        "coordinates": [
          139.9239904,
          37.4946794
        ]
      },
      "properties": {
        "id": 3801707005,
        "amenity": "drinking_water",
        "description": "街区公園 西栄町公園",
        "operator": "会津若松市 花と緑の課",
        "phone": "+81-242-39-1262",
        "source": "http://www.mapillary.com/map/im/RfYcGcMlSPV2P-CdNudP6w/photo",
        "website": "https://www.city.aizuwakamatsu.fukushima.jp/soshiki/hanatomidorinoka/"
      }
    },
    {
      "type": "Feature",
      "geometry": {
        "type": "Point",
        "coordinates": [
          139.9073095,
          37.4908275
        ]
      },
      "properties": {
        "id": 3801709583,
        "amenity": "drinking_water",
        "description": "街区公園 大川幼児公園",
        "operator": "会津若松市 花と緑の課",
        "phone": "+81-242-39-1262",
        "source": "http://www.mapillary.com/map/im/YHNcjKxLScDaStu7TnuX3Q/photo",
        "website": "https://www.city.aizuwakamatsu.fukushima.jp/soshiki/hanatomidorinoka/"
      }
    },
    {
      "type": "Feature",
      "geometry": {
        "type": "Point",
        "coordinates": [
          139.9282582,
          37.5020463
        ]
      },
      "properties": {
        "id": 3802125930,
        "amenity": "drinking_water",
        "description": "街区公園 名子屋町児童公園",
        "operator": "会津若松市 花と緑の課",
        "phone": "+81-242-39-1262",
        "source": "http://www.mapillary.com/map/im/D7jgd4nHlRkxr2WNLNZsaw/photo",
        "website": "https://www.city.aizuwakamatsu.fukushima.jp/soshiki/hanatomidorinoka/"
      }
    },
    {
      "type": "Feature",
      "geometry": {
        "type": "Point",
        "coordinates": [
          139.9310817,
          37.5026729
        ]
      },
      "properties": {
        "id": 3802278114,
        "amenity": "drinking_water",
        "description": "街区公園 大町中央公園",
        "operator": "会津若松市 花と緑の課",
        "phone": "+81-242-39-1262",
        "source": "http://www.mapillary.com/map/im/ttDF72BKU-D_vqs2JEhGFw/photo",
        "website": "https://www.city.aizuwakamatsu.fukushima.jp/soshiki/hanatomidorinoka/"
      }
    },
    {
      "type": "Feature",
      "geometry": {
        "type": "Point",
        "coordinates": [
          139.9215059,
          37.4930852
        ]
      },
      "properties": {
        "id": 3804469655,
        "amenity": "drinking_water",
        "description": "街区公園 諏訪公園",
        "operator": "会津若松市 花と緑の課",
        "phone": "+81-242-39-1262",
        "source": "http://www.mapillary.com/map/im/pPD4llU7nhRWJZ1xN6aHjQ/photo",
        "website": "https://www.city.aizuwakamatsu.fukushima.jp/soshiki/hanatomidorinoka/"
      }
    },
    {
      "type": "Feature",
      "geometry": {
        "type": "Point",
        "coordinates": [
          139.9300322,
          37.4970678
        ]
      },
      "properties": {
        "id": 3805204598,
        "amenity": "drinking_water",
        "description": "街区公園 中央児童公園",
        "operator": "会津若松市 花と緑の課",
        "phone": "+81-242-39-1262",
        "source": "http://www.mapillary.com/map/im/K90Al2ng5prlTUMuaLCSTw/photo",
        "website": "https://www.city.aizuwakamatsu.fukushima.jp/soshiki/hanatomidorinoka/"
      }
    },
    {
      "type": "Feature",
      "geometry": {
        "type": "Point",
        "coordinates": [
          139.9151367,
          37.5016311
        ]
      },
      "properties": {
        "id": 3806153670,
        "amenity": "drinking_water",
        "description": "街区公園 七日町公園",
        "operator": "会津若松市 花と緑の課",
        "phone": "+81-242-39-1262",
        "source": "http://www.mapillary.com/map/im/8Mk2Iulw4Fe-i7xQmdXaPA/photo",
        "website": "https://www.city.aizuwakamatsu.fukushima.jp/soshiki/hanatomidorinoka/"
      }
    },
    {
      "type": "Feature",
      "geometry": {
        "type": "Point",
        "coordinates": [
          139.9153794,
          37.5018429
        ]
      },
      "properties": {
        "id": 3806153692,
        "amenity": "drinking_water",
        "description": "街区公園 七日町公園",
        "operator": "会津若松市 花と緑の課",
        "phone": "+81-242-39-1262",
        "source": "http://www.mapillary.com/map/im/HMUXKiKwflKDfGsKz2LhIg/photo",
        "website": "https://www.city.aizuwakamatsu.fukushima.jp/soshiki/hanatomidorinoka/"
      }
    },
    {
      "type": "Feature",
      "geometry": {
        "type": "Point",
        "coordinates": [
          139.9209196,
          37.5058251
        ]
      },
      "properties": {
        "id": 3806160804,
        "amenity": "drinking_water",
        "description": "街区公園 金川町公園",
        "operator": "会津若松市 花と緑の課",
        "phone": "+81-242-39-1262",
        "source": "http://www.mapillary.com/map/im/-Jskw6uOahFXxjPC6gjLrg/photo",
        "website": "https://www.city.aizuwakamatsu.fukushima.jp/soshiki/hanatomidorinoka/"
      }
    },
    {
      "type": "Feature",
      "geometry": {
        "type": "Point",
        "coordinates": [
          139.9123243,
          37.5026959
        ]
      },
      "properties": {
        "id": 3809893181,
        "amenity": "drinking_water",
        "description": "街区公園 さつき美咲公園",
        "operator": "会津若松市 花と緑の課",
        "phone": "+81-242-39-1262",
        "source": "http://www.mapillary.com/map/im/Hqh8ns-A94Htw4RQ_Bd_pA/photo",
        "website": "https://www.city.aizuwakamatsu.fukushima.jp/soshiki/hanatomidorinoka/"
      }
    },
    {
      "type": "Feature",
      "geometry": {
        "type": "Point",
        "coordinates": [
          139.9122046,
          37.4949438
        ]
      },
      "properties": {
        "id": 3809897219,
        "amenity": "drinking_water",
        "description": "街区公園 緑町公園",
        "operator": "会津若松市 花と緑の課",
        "phone": "+81-242-39-1262",
        "source": "http://www.mapillary.com/map/im/ukIL-kyaQCUyGvJORdeKcQ/photo",
        "website": "https://www.city.aizuwakamatsu.fukushima.jp/soshiki/hanatomidorinoka/"
      }
    },
    {
      "type": "Feature",
      "geometry": {
        "type": "Point",
        "coordinates": [
          139.9268959,
          37.5120762
        ]
      },
      "properties": {
        "id": 3809938043,
        "amenity": "drinking_water",
        "description": "街区公園 石堂町公園",
        "operator": "会津若松市 花と緑の課",
        "phone": "+81-242-39-1262",
        "source": "http://www.mapillary.com/map/im/xBQpcXTUT8ETyXDby4CfsQ/photo",
        "website": "https://www.city.aizuwakamatsu.fukushima.jp/soshiki/hanatomidorinoka/"
      }
    },
    {
      "type": "Feature",
      "geometry": {
        "type": "Point",
        "coordinates": [
          139.9173209,
          37.5216113
        ]
      },
      "properties": {
        "id": 3810003014,
        "amenity": "drinking_water"
      }
    },
    {
      "type": "Feature",
      "geometry": {
        "type": "Point",
        "coordinates": [
          139.9339009,
          37.5082033
        ]
      },
      "properties": {
        "id": 3810019513,
        "amenity": "drinking_water",
        "description": "街区公園 大町白虎公園",
        "operator": "会津若松市 花と緑の課",
        "phone": "+81-242-39-1262",
        "source": "http://www.mapillary.com/map/im/MIvhnbyMslHEClLgzZCIKg/photo",
        "website": "https://www.city.aizuwakamatsu.fukushima.jp/soshiki/hanatomidorinoka/"
      }
    },
    {
      "type": "Feature",
      "geometry": {
        "type": "Point",
        "coordinates": [
          139.8756536,
          37.5436078
        ]
      },
      "properties": {
        "id": 3810081144,
        "amenity": "drinking_water"
      }
    },
    {
      "type": "Feature",
      "geometry": {
        "type": "Point",
        "coordinates": [
          139.8777259,
          37.5414861
        ]
      },
      "properties": {
        "id": 3810254483,
        "amenity": "drinking_water"
      }
    },
    {
      "type": "Feature",
      "geometry": {
        "type": "Point",
        "coordinates": [
          139.8772851,
          37.5423936
        ]
      },
      "properties": {
        "id": 3810254544,
        "amenity": "drinking_water"
      }
    },
    {
      "type": "Feature",
      "geometry": {
        "type": "Point",
        "coordinates": [
          139.9462987,
          37.5150491
        ]
      },
      "properties": {
        "id": 3810312653,
        "amenity": "drinking_water"
      }
    },
    {
      "type": "Feature",
      "geometry": {
        "type": "Point",
        "coordinates": [
          139.9456002,
          37.5156672
        ]
      },
      "properties": {
        "id": 3810312894,
        "amenity": "drinking_water"
      }
    },
    {
      "type": "Feature",
      "geometry": {
        "type": "Point",
        "coordinates": [
          139.945939,
          37.5136121
        ]
      },
      "properties": {
        "id": 3810335661,
        "amenity": "drinking_water"
      }
    },
    {
      "type": "Feature",
      "geometry": {
        "type": "Point",
        "coordinates": [
          139.9457036,
          37.5143169
        ]
      },
      "properties": {
        "id": 3810335682,
        "amenity": "drinking_water",
        "check_date": "2024-11-26"
      }
    },
    {
      "type": "Feature",
      "geometry": {
        "type": "Point",
        "coordinates": [
          139.9451251,
          37.5145064
        ]
      },
      "properties": {
        "id": 3810373278,
        "amenity": "drinking_water"
      }
    },
    {
      "type": "Feature",
      "geometry": {
        "type": "Point",
        "coordinates": [
          139.9280082,
          37.4615183
        ]
      },
      "properties": {
        "id": 3814940034,
        "amenity": "drinking_water"
      }
    },
    {
      "type": "Feature",
      "geometry": {
        "type": "Point",
        "coordinates": [
          139.9230854,
          37.4619871
        ]
      },
      "properties": {
        "id": 3815275793,
        "amenity": "drinking_water"
      }
    },
    {
      "type": "Feature",
      "geometry": {
        "type": "Point",
        "coordinates": [
          139.9230039,
          37.4620542
        ]
      },
      "properties": {
        "id": 3815275804,
        "amenity": "drinking_water"
      }
    },
    {
      "type": "Feature",
      "geometry": {
        "type": "Point",
        "coordinates": [
          139.9307308,
          37.4593043
        ]
      },
      "properties": {
        "id": 3817420679,
        "amenity": "drinking_water"
      }
    },
    {
      "type": "Feature",
      "geometry": {
        "type": "Point",
        "coordinates": [
          139.9307593,
          37.4602339
        ]
      },
      "properties": {
        "id": 3817420754,
        "amenity": "drinking_water"
      }
    },
    {
      "type": "Feature",
      "geometry": {
        "type": "Point",
        "coordinates": [
          139.9293857,
          37.4604918
        ]
      },
      "properties": {
        "id": 3817427583,
        "amenity": "drinking_water"
      }
    },
    {
      "type": "Feature",
      "geometry": {
        "type": "Point",
        "coordinates": [
          139.9304989,
          37.5070836
        ]
      },
      "properties": {
        "id": 3823853725,
        "amenity": "drinking_water",
        "description": "街区公園 駅前公園",
        "operator": "会津若松市 花と緑の課",
        "phone": "+81-242-39-1262",
        "source": "http://www.mapillary.com/map/im/ZP0V7-ARjHig8af4PROU8A/photo",
        "website": "https://www.city.aizuwakamatsu.fukushima.jp/soshiki/hanatomidorinoka/"
      }
    },
    {
      "type": "Feature",
      "geometry": {
        "type": "Point",
        "coordinates": [
          139.9130415,
          37.5000322
        ]
      },
      "properties": {
        "id": 3823987110,
        "amenity": "drinking_water",
        "description": "街区公園 五月町わんぱく公園",
        "operator": "会津若松市 花と緑の課",
        "phone": "+81-242-39-1262",
        "source": "http://www.mapillary.com/map/im/h7BXilA6RJrtO2vPvQmzLA/photo",
        "website": "https://www.city.aizuwakamatsu.fukushima.jp/soshiki/hanatomidorinoka/"
      }
    },
    {
      "type": "Feature",
      "geometry": {
        "type": "Point",
        "coordinates": [
          139.9103662,
          37.4847684
        ]
      },
      "properties": {
        "id": 3824082522,
        "amenity": "drinking_water",
        "description": "街区公園 材木町公園",
        "operator": "会津若松市 花と緑の課",
        "phone": "+81-242-39-1262",
        "source": "http://www.mapillary.com/map/im/dLXVUBGOXCuSIetPn7NAzw/photo",
        "website": "https://www.city.aizuwakamatsu.fukushima.jp/soshiki/hanatomidorinoka/"
      }
    },
    {
      "type": "Feature",
      "geometry": {
        "type": "Point",
        "coordinates": [
          139.9459587,
          37.5197364
        ]
      },
      "properties": {
        "id": 3829078001,
        "amenity": "drinking_water",
        "description": "街区公園 居合1号公園",
        "operator": "会津若松市 花と緑の課",
        "phone": "+81-242-39-1262",
        "source": "http://www.mapillary.com/map/im/XBArHVZ3GbSZpZ98xxkzSw/photo",
        "website": "https://www.city.aizuwakamatsu.fukushima.jp/soshiki/hanatomidorinoka/"
      }
    },
    {
      "type": "Feature",
      "geometry": {
        "type": "Point",
        "coordinates": [
          139.9358097,
          37.5164869
        ]
      },
      "properties": {
        "id": 3837497516,
        "amenity": "drinking_water",
        "description": "街区公園 扇町12号公園",
        "operator": "会津若松市 花と緑の課",
        "phone": "+81-242-39-1262",
        "source": "http://www.mapillary.com/map/im/BBD8SVUbYG3g2amQ5qfC0g/photo",
        "website": "https://www.city.aizuwakamatsu.fukushima.jp/soshiki/hanatomidorinoka/"
      }
    },
    {
      "type": "Feature",
      "geometry": {
        "type": "Point",
        "coordinates": [
          139.9393007,
          37.5063236
        ]
      },
      "properties": {
        "id": 3872297959,
        "amenity": "drinking_water",
        "description": "街区公園 扇町8号公園",
        "operator": "会津若松市 花と緑の課",
        "phone": "+81-242-39-1262",
        "source": "http://www.mapillary.com/map/im/WvFJOsHYi0DPrzwdHDMn8Q/photo",
        "website": "https://www.city.aizuwakamatsu.fukushima.jp/soshiki/hanatomidorinoka/"
      }
    },
    {
      "type": "Feature",
      "geometry": {
        "type": "Point",
        "coordinates": [
          140.4607606,
          37.7539743
        ]
      },
      "properties": {
        "id": 4308176888,
        "amenity": "drinking_water"
      }
    },
    {
      "type": "Feature",
      "geometry": {
        "type": "Point",
        "coordinates": [
          139.868577,
          37.6595483
        ]
      },
      "properties": {
        "id": 4324207926,
        "amenity": "drinking_water",
        "source": "https://www.mapillary.com/app/?focus=photo&pKey=Eb6NmXNgrffzO_rkkxI3-g&lat=37.6594876&lng=139.8685174&z=17"
      }
    },
    {
      "type": "Feature",
      "geometry": {
        "type": "Point",
        "coordinates": [
          140.2956384,
          37.4221994
        ]
      },
      "properties": {
        "id": 4346935490,
        "amenity": "drinking_water"
      }
    },
    {
      "type": "Feature",
      "geometry": {
        "type": "Point",
        "coordinates": [
          139.4217265,
          37.3960188
        ]
      },
      "properties": {
        "id": 4392999209,
        "amenity": "drinking_water",
        "name": "炭酸場"
      }
    },
    {
      "type": "Feature",
      "geometry": {
        "type": "Point",
        "coordinates": [
          140.2934611,
          37.4489032
        ]
      },
      "properties": {
        "id": 4396925895,
        "amenity": "drinking_water"
      }
    },
    {
      "type": "Feature",
      "geometry": {
        "type": "Point",
        "coordinates": [
          139.8604991,
          37.6325457
        ]
      },
      "properties": {
        "id": 4406825718,
        "amenity": "drinking_water",
        "operator": "綾金公会堂",
        "source": "https://www.mapillary.com/app/?focus=photo&pKey=8Z1e31pUiM84B97_X_ClRQ&lat=37.6326357&lng=139.8604855&z=17"
      }
    },
    {
      "type": "Feature",
      "geometry": {
        "type": "Point",
        "coordinates": [
          139.8454686,
          37.6084433
        ]
      },
      "properties": {
        "id": 4406956176,
        "amenity": "drinking_water"
      }
    },
    {
      "type": "Feature",
      "geometry": {
        "type": "Point",
        "coordinates": [
          139.8702198,
          37.5630462
        ]
      },
      "properties": {
        "id": 4428428311,
        "amenity": "drinking_water",
        "source": "https://www.mapillary.com/app/?focus=photo&pKey=RyeG8U_H6Ew3DGqci5c59w&lat=37.5630685&lng=139.8700731&z=17"
      }
    },
    {
      "type": "Feature",
      "geometry": {
        "type": "Point",
        "coordinates": [
          139.8143074,
          37.4880675
        ]
      },
      "properties": {
        "id": 4459938467,
        "amenity": "drinking_water",
        "source": "https://www.mapillary.com/app/?focus=photo&pKey=YWukZjlq1Kw64TjuAc8zsQ&lat=37.4881584&lng=139.8143772&z=17"
      }
    },
    {
      "type": "Feature",
      "geometry": {
        "type": "Point",
        "coordinates": [
          139.8421936,
          37.4642897
        ]
      },
      "properties": {
        "id": 4462719077,
        "amenity": "drinking_water",
        "source": "https://www.mapillary.com/app/?focus=photo&pKey=xnAjnqo7kTptgfLxj_h9mg&lat=37.4643099&lng=139.8421792&z=17"
      }
    },
    {
      "type": "Feature",
      "geometry": {
        "type": "Point",
        "coordinates": [
          139.8893333,
          37.434105
        ]
      },
      "properties": {
        "id": 4497696376,
        "amenity": "drinking_water",
        "source": "https://www.mapillary.com/app/?focus=photo&pKey=k9BJtk46DOW1s0iW2ihLAA&lat=37.434145&lng=139.8893871&z=17"
      }
    },
    {
      "type": "Feature",
      "geometry": {
        "type": "Point",
        "coordinates": [
          139.8753199,
          37.4135241
        ]
      },
      "properties": {
        "id": 4498470503,
        "amenity": "drinking_water",
        "source": "https://www.mapillary.com/app/?focus=photo&pKey=qfAUbYhOFC8F6sUkgQiuQQ&lat=37.4135009&lng=139.8754826&z=17"
      }
    },
    {
      "type": "Feature",
      "geometry": {
        "type": "Point",
        "coordinates": [
          139.8656234,
          37.5030923
        ]
      },
      "properties": {
        "id": 4500831824,
        "amenity": "drinking_water",
        "source": "https://www.mapillary.com/app/?focus=photo&pKey=NIgaV5dFrh3J_TD2DRSvqQ&lat=37.5031663&lng=139.8656719&z=17"
      }
    },
    {
      "type": "Feature",
      "geometry": {
        "type": "Point",
        "coordinates": [
          139.8958731,
          37.5142888
        ]
      },
      "properties": {
        "id": 4500995370,
        "amenity": "drinking_water",
        "source": "https://www.mapillary.com/app/?focus=photo&pKey=a5Uc7nsP-bo_LS9U0ViqPQ&lat=37.5142151&lng=139.8960075&z=17"
      }
    },
    {
      "type": "Feature",
      "geometry": {
        "type": "Point",
        "coordinates": [
          139.9068394,
          37.5187434
        ]
      },
      "properties": {
        "id": 4501720753,
        "amenity": "drinking_water",
        "source": "https://www.mapillary.com/app/?focus=photo&pKey=-faURlPJ_R44d_bX3wvekQ&lat=37.5187344&lng=139.9067659&z=17"
      }
    },
    {
      "type": "Feature",
      "geometry": {
        "type": "Point",
        "coordinates": [
          139.7270502,
          37.5318973
        ]
      },
      "properties": {
        "id": 4505612194,
        "amenity": "drinking_water",
        "source": "https://www.mapillary.com/app/?focus=photo&pKey=Kk0ie1_k2O87TzkTaPuHnQ&lat=37.5319464&lng=139.72701786&z=17"
      }
    },
    {
      "type": "Feature",
      "geometry": {
        "type": "Point",
        "coordinates": [
          139.9538453,
          37.5169919
        ]
      },
      "properties": {
        "id": 4740957296,
        "amenity": "drinking_water"
      }
    },
    {
      "type": "Feature",
      "geometry": {
        "type": "Point",
        "coordinates": [
          140.9941344,
          37.4935531
        ]
      },
      "properties": {
        "id": 4893301221,
        "amenity": "drinking_water"
      }
    },
    {
      "type": "Feature",
      "geometry": {
        "type": "Point",
        "coordinates": [
          140.4689163,
          37.7583568
        ]
      },
      "properties": {
        "id": 5304661652,
        "amenity": "drinking_water"
      }
    },
    {
      "type": "Feature",
      "geometry": {
        "type": "Point",
        "coordinates": [
          140.468049,
          37.7580117
        ]
      },
      "properties": {
        "id": 5304661653,
        "amenity": "drinking_water"
      }
    },
    {
      "type": "Feature",
      "geometry": {
        "type": "Point",
        "coordinates": [
          140.4687721,
          37.7579098
        ]
      },
      "properties": {
        "id": 5304661654,
        "amenity": "drinking_water"
      }
    },
    {
      "type": "Feature",
      "geometry": {
        "type": "Point",
        "coordinates": [
          140.4360056,
          37.7699949
        ]
      },
      "properties": {
        "id": 5327073503,
        "amenity": "drinking_water"
      }
    },
    {
      "type": "Feature",
      "geometry": {
        "type": "Point",
        "coordinates": [
          140.4511914,
          37.7912287
        ]
      },
      "properties": {
        "id": 5729308853,
        "amenity": "drinking_water"
      }
    },
    {
      "type": "Feature",
      "geometry": {
        "type": "Point",
        "coordinates": [
          140.4466623,
          37.7658013
        ]
      },
      "properties": {
        "id": 5733780154,
        "amenity": "drinking_water"
      }
    },
    {
      "type": "Feature",
      "geometry": {
        "type": "Point",
        "coordinates": [
          140.4461064,
          37.7653244
        ]
      },
      "properties": {
        "id": 5733780191,
        "amenity": "drinking_water"
      }
    },
    {
      "type": "Feature",
      "geometry": {
        "type": "Point",
        "coordinates": [
          140.4472216,
          37.7671418
        ]
      },
      "properties": {
        "id": 5733780200,
        "amenity": "drinking_water"
      }
    },
    {
      "type": "Feature",
      "geometry": {
        "type": "Point",
        "coordinates": [
          140.3580973,
          37.397854
        ]
      },
      "properties": {
        "id": 6335546650,
        "amenity": "drinking_water"
      }
    },
    {
      "type": "Feature",
      "geometry": {
        "type": "Point",
        "coordinates": [
          141.0158669,
          37.6563243
        ]
      },
      "properties": {
        "id": 6590013861,
        "amenity": "drinking_water"
      }
    },
    {
      "type": "Feature",
      "geometry": {
        "type": "Point",
        "coordinates": [
          141.0143709,
          37.6546653
        ]
      },
      "properties": {
        "id": 6590032487,
        "amenity": "drinking_water"
      }
    },
    {
      "type": "Feature",
      "geometry": {
        "type": "Point",
        "coordinates": [
          141.0140035,
          37.6548681
        ]
      },
      "properties": {
        "id": 6591026312,
        "amenity": "drinking_water"
      }
    },
    {
      "type": "Feature",
      "geometry": {
        "type": "Point",
        "coordinates": [
          141.0161321,
          37.6572482
        ]
      },
      "properties": {
        "id": 6591026402,
        "amenity": "drinking_water"
      }
    },
    {
      "type": "Feature",
      "geometry": {
        "type": "Point",
        "coordinates": [
          140.8828991,
          37.0550792
        ]
      },
      "properties": {
        "id": 7196742049,
        "amenity": "drinking_water"
      }
    },
    {
      "type": "Feature",
      "geometry": {
        "type": "Point",
        "coordinates": [
          140.8823673,
          37.0557481
        ]
      },
      "properties": {
        "id": 7196746301,
        "amenity": "drinking_water"
      }
    },
    {
      "type": "Feature",
      "geometry": {
        "type": "Point",
        "coordinates": [
          140.8816539,
          37.055397
        ]
      },
      "properties": {
        "id": 7196746318,
        "amenity": "drinking_water"
      }
    },
    {
      "type": "Feature",
      "geometry": {
        "type": "Point",
        "coordinates": [
          140.3804345,
          37.2890118
        ]
      },
      "properties": {
        "id": 7409109085,
        "amenity": "drinking_water"
      }
    },
    {
      "type": "Feature",
      "geometry": {
        "type": "Point",
        "coordinates": [
          140.3784029,
          37.290652
        ]
      },
      "properties": {
        "id": 7409116893,
        "amenity": "drinking_water"
      }
    },
    {
      "type": "Feature",
      "geometry": {
        "type": "Point",
        "coordinates": [
          140.4651975,
          37.5942604
        ]
      },
      "properties": {
        "id": 7409589985,
        "amenity": "drinking_water"
      }
    },
    {
      "type": "Feature",
      "geometry": {
        "type": "Point",
        "coordinates": [
          139.7245458,
          37.5316967
        ]
      },
      "properties": {
        "id": 8264126453,
        "amenity": "drinking_water"
      }
    },
    {
      "type": "Feature",
      "geometry": {
        "type": "Point",
        "coordinates": [
          140.8702129,
          37.0448316
        ]
      },
      "properties": {
        "id": 9820345468,
        "amenity": "drinking_water"
      }
    },
    {
      "type": "Feature",
      "geometry": {
        "type": "Point",
        "coordinates": [
          140.8690148,
          37.0465452
        ]
      },
      "properties": {
        "id": 9820345469,
        "amenity": "drinking_water"
      }
    },
    {
      "type": "Feature",
      "geometry": {
        "type": "Point",
        "coordinates": [
          140.8583783,
          37.0380552
        ]
      },
      "properties": {
        "id": 9822647461,
        "amenity": "drinking_water"
      }
    },
    {
      "type": "Feature",
      "geometry": {
        "type": "Point",
        "coordinates": [
          140.8699499,
          37.0471249
        ]
      },
      "properties": {
        "id": 9841505791,
        "amenity": "drinking_water"
      }
    },
    {
      "type": "Feature",
      "geometry": {
        "type": "Point",
        "coordinates": [
          140.4525688,
          37.8332883
        ]
      },
      "properties": {
        "id": 10813923279,
        "amenity": "drinking_water",
        "fee": "no"
      }
    },
    {
      "type": "Feature",
      "geometry": {
        "type": "Point",
        "coordinates": [
          140.4400599,
          37.8334008
        ]
      },
      "properties": {
        "id": 10832068833,
        "amenity": "drinking_water",
        "fee": "no"
      }
    },
    {
      "type": "Feature",
      "geometry": {
        "type": "Point",
        "coordinates": [
          140.4673056,
          37.7665514
        ]
      },
      "properties": {
        "id": 10870974459,
        "amenity": "drinking_water"
      }
    },
    {
      "type": "Feature",
      "geometry": {
        "type": "Point",
        "coordinates": [
          140.4272012,
          37.6001254
        ]
      },
      "properties": {
        "id": 11041351193,
        "amenity": "drinking_water"
      }
    },
    {
      "type": "Feature",
      "geometry": {
        "type": "Point",
        "coordinates": [
          140.4291417,
          37.5987271
        ]
      },
      "properties": {
        "id": 11043132438,
        "amenity": "drinking_water"
      }
    },
    {
      "type": "Feature",
      "geometry": {
        "type": "Point",
        "coordinates": [
          140.4310615,
          37.5978175
        ]
      },
      "properties": {
        "id": 11045431831,
        "amenity": "drinking_water"
      }
    },
    {
      "type": "Feature",
      "geometry": {
        "type": "Point",
        "coordinates": [
          139.9307263,
          37.4872405
        ]
      },
      "properties": {
        "id": 11052104747,
        "amenity": "drinking_water"
      }
    },
    {
      "type": "Feature",
      "geometry": {
        "type": "Point",
        "coordinates": [
          140.4718412,
          37.6638752
        ]
      },
      "properties": {
        "id": 11932385465,
        "amenity": "drinking_water"
      }
    },
    {
      "type": "Feature",
      "geometry": {
        "type": "Point",
        "coordinates": [
          140.4591201,
          37.6584651
        ]
      },
      "properties": {
        "id": 11932459876,
        "amenity": "drinking_water"
      }
    },
    {
      "type": "Feature",
      "geometry": {
        "type": "Point",
        "coordinates": [
          140.4670809,
          37.6653839
        ]
      },
      "properties": {
        "id": 11932967961,
        "amenity": "drinking_water"
      }
    },
    {
      "type": "Feature",
      "geometry": {
        "type": "Point",
        "coordinates": [
          140.4717581,
          37.6655035
        ]
      },
      "properties": {
        "id": 11932976578,
        "amenity": "drinking_water"
      }
    },
    {
      "type": "Feature",
      "geometry": {
        "type": "Point",
        "coordinates": [
          139.7276533,
          37.0863439
        ]
      },
      "properties": {
        "id": 13124117202,
        "access": "yes",
        "amenity": "drinking_water",
        "bottle": "yes",
        "fee": "no",
        "indoor": "yes"
      }
    }
  ]
}
