{
  "type": "FeatureCollection",
  "features": [
    {
      "type": "Feature",
      "geometry": { "type": "Point", "coordinates": [139.0494091, 36.3004] },
      "properties": { "id": 864725311, "amenity": "drinking_water" }
    },
    {
      "type": "Feature",
      "geometry": { "type": "Point", "coordinates": [139.3384034, 36.3939895] },
      "properties": { "id": 2580477205, "amenity": "drinking_water" }
    },
    {
      "type": "Feature",
      "geometry": { "type": "Point", "coordinates": [139.2644306, 36.403114] },
      "properties": { "id": 3093598166, "amenity": "drinking_water" }
    },
    {
      "type": "Feature",
      "geometry": { "type": "Point", "coordinates": [139.1062912, 36.394352] },
      "properties": { "id": 3300039098, "amenity": "drinking_water" }
    },
    {
      "type": "Feature",
      "geometry": { "type": "Point", "coordinates": [139.0402143, 36.4256894] },
      "properties": { "id": 3362637527, "amenity": "drinking_water" }
    },
    {
      "type": "Feature",
      "geometry": { "type": "Point", "coordinates": [139.1995744, 36.2942657] },
      "properties": { "id": 4528481136, "amenity": "drinking_water" }
    },
    {
      "type": "Feature",
      "geometry": { "type": "Point", "coordinates": [139.1992204, 36.2950613] },
      "properties": { "id": 4528481137, "amenity": "drinking_water" }
    },
    {
      "type": "Feature",
      "geometry": { "type": "Point", "coordinates": [139.1979758, 36.2951002] },
      "properties": { "id": 4528481138, "amenity": "drinking_water" }
    },
    {
      "type": "Feature",
      "geometry": { "type": "Point", "coordinates": [139.197721, 36.2942614] },
      "properties": { "id": 4528481139, "amenity": "drinking_water" }
    },
    {
      "type": "Feature",
      "geometry": { "type": "Point", "coordinates": [139.1979919, 36.2937123] },
      "properties": { "id": 4528481140, "amenity": "drinking_water" }
    },
    {
      "type": "Feature",
      "geometry": { "type": "Point", "coordinates": [139.1982984, 36.2961389] },
      "properties": { "id": 4528481293, "amenity": "drinking_water" }
    },
    {
      "type": "Feature",
      "geometry": { "type": "Point", "coordinates": [139.1971531, 36.2962211] },
      "properties": { "id": 4528481294, "amenity": "drinking_water" }
    },
    {
      "type": "Feature",
      "geometry": { "type": "Point", "coordinates": [139.1768265, 36.3249357] },
      "properties": {
        "id": 4528482833,
        "amenity": "drinking_water",
        "name": "水飲み場"
      }
    },
    {
      "type": "Feature",
      "geometry": { "type": "Point", "coordinates": [139.1761831, 36.3252225] },
      "properties": {
        "id": 4528482834,
        "amenity": "drinking_water",
        "name": "水飲み場"
      }
    },
    {
      "type": "Feature",
      "geometry": { "type": "Point", "coordinates": [139.0082164, 36.3218723] },
      "properties": {
        "id": 4756003527,
        "amenity": "drinking_water",
        "source": "survey"
      }
    },
    {
      "type": "Feature",
      "geometry": { "type": "Point", "coordinates": [139.0020171, 36.3202323] },
      "properties": {
        "id": 4756251942,
        "amenity": "drinking_water",
        "source": "survey"
      }
    },
    {
      "type": "Feature",
      "geometry": { "type": "Point", "coordinates": [138.7243776, 36.0874413] },
      "properties": { "id": 4803074812, "amenity": "drinking_water" }
    },
    {
      "type": "Feature",
      "geometry": { "type": "Point", "coordinates": [139.2364438, 36.7961232] },
      "properties": { "id": 4913914157, "amenity": "drinking_water" }
    },
    {
      "type": "Feature",
      "geometry": { "type": "Point", "coordinates": [139.2370138, 36.7963699] },
      "properties": { "id": 4913914158, "amenity": "drinking_water" }
    },
    {
      "type": "Feature",
      "geometry": { "type": "Point", "coordinates": [139.1971633, 36.9154721] },
      "properties": { "id": 4920708718, "amenity": "drinking_water" }
    },
    {
      "type": "Feature",
      "geometry": { "type": "Point", "coordinates": [139.3767998, 36.3083418] },
      "properties": { "id": 4924600461, "amenity": "drinking_water" }
    },
    {
      "type": "Feature",
      "geometry": { "type": "Point", "coordinates": [139.1930081, 36.3669712] },
      "properties": { "id": 5555817065, "amenity": "drinking_water" }
    },
    {
      "type": "Feature",
      "geometry": { "type": "Point", "coordinates": [139.5052299, 36.2587637] },
      "properties": { "id": 5619202436, "amenity": "drinking_water" }
    },
    {
      "type": "Feature",
      "geometry": { "type": "Point", "coordinates": [139.502407, 36.2569534] },
      "properties": { "id": 5619202483, "amenity": "drinking_water" }
    },
    {
      "type": "Feature",
      "geometry": { "type": "Point", "coordinates": [139.5018746, 36.256542] },
      "properties": {
        "id": 5619202488,
        "amenity": "drinking_water",
        "name": "足洗い場"
      }
    },
    {
      "type": "Feature",
      "geometry": { "type": "Point", "coordinates": [139.5010101, 36.256037] },
      "properties": { "id": 5619202489, "amenity": "drinking_water" }
    },
    {
      "type": "Feature",
      "geometry": { "type": "Point", "coordinates": [139.5005301, 36.2554394] },
      "properties": {
        "id": 5619202490,
        "amenity": "drinking_water",
        "name": "足洗い場"
      }
    },
    {
      "type": "Feature",
      "geometry": { "type": "Point", "coordinates": [139.5070752, 36.2606659] },
      "properties": { "id": 5628077123, "amenity": "drinking_water" }
    },
    {
      "type": "Feature",
      "geometry": { "type": "Point", "coordinates": [139.4922872, 36.2564781] },
      "properties": { "id": 5628140291, "amenity": "drinking_water" }
    },
    {
      "type": "Feature",
      "geometry": { "type": "Point", "coordinates": [139.4909299, 36.2563662] },
      "properties": { "id": 5628140307, "amenity": "drinking_water" }
    },
    {
      "type": "Feature",
      "geometry": { "type": "Point", "coordinates": [139.4926137, 36.2567514] },
      "properties": { "id": 5628140827, "amenity": "drinking_water" }
    },
    {
      "type": "Feature",
      "geometry": { "type": "Point", "coordinates": [139.4880702, 36.2593086] },
      "properties": { "id": 5628168357, "amenity": "drinking_water" }
    },
    {
      "type": "Feature",
      "geometry": { "type": "Point", "coordinates": [139.489456, 36.2561732] },
      "properties": { "id": 5629042002, "amenity": "drinking_water" }
    },
    {
      "type": "Feature",
      "geometry": { "type": "Point", "coordinates": [139.4882315, 36.2555286] },
      "properties": { "id": 5629042007, "amenity": "drinking_water" }
    },
    {
      "type": "Feature",
      "geometry": { "type": "Point", "coordinates": [138.6205853, 36.2488398] },
      "properties": { "id": 5731427207, "amenity": "drinking_water" }
    },
    {
      "type": "Feature",
      "geometry": { "type": "Point", "coordinates": [138.9824285, 36.696353] },
      "properties": { "id": 5744997867, "amenity": "drinking_water" }
    },
    {
      "type": "Feature",
      "geometry": { "type": "Point", "coordinates": [138.9815674, 36.6971291] },
      "properties": { "id": 5744997884, "amenity": "drinking_water" }
    },
    {
      "type": "Feature",
      "geometry": { "type": "Point", "coordinates": [138.9211551, 36.1833138] },
      "properties": { "id": 5809675353, "amenity": "drinking_water" }
    },
    {
      "type": "Feature",
      "geometry": { "type": "Point", "coordinates": [138.9579197, 36.5951672] },
      "properties": { "id": 5839456703, "amenity": "drinking_water" }
    },
    {
      "type": "Feature",
      "geometry": { "type": "Point", "coordinates": [139.3343916, 36.314078] },
      "properties": { "id": 5892011049, "amenity": "drinking_water" }
    },
    {
      "type": "Feature",
      "geometry": { "type": "Point", "coordinates": [138.9164032, 36.4971811] },
      "properties": { "id": 6402119577, "amenity": "drinking_water" }
    },
    {
      "type": "Feature",
      "geometry": { "type": "Point", "coordinates": [138.915447, 36.4918584] },
      "properties": {
        "id": 6402120713,
        "amenity": "drinking_water",
        "name": "伊香保温泉飲泉所",
        "name:en": "Ikaho Hotspring Drinking Place"
      }
    },
    {
      "type": "Feature",
      "geometry": { "type": "Point", "coordinates": [139.0324241, 36.271062] },
      "properties": { "id": 6403414567, "amenity": "drinking_water" }
    },
    {
      "type": "Feature",
      "geometry": { "type": "Point", "coordinates": [139.0690767, 36.3912158] },
      "properties": { "id": 6640258760, "amenity": "drinking_water" }
    },
    {
      "type": "Feature",
      "geometry": { "type": "Point", "coordinates": [139.0702054, 36.3887703] },
      "properties": { "id": 6763147585, "amenity": "drinking_water" }
    },
    {
      "type": "Feature",
      "geometry": { "type": "Point", "coordinates": [139.0725341, 36.3849862] },
      "properties": { "id": 6769202667, "amenity": "drinking_water" }
    },
    {
      "type": "Feature",
      "geometry": { "type": "Point", "coordinates": [139.0702012, 36.3953461] },
      "properties": { "id": 6773618242, "amenity": "drinking_water" }
    },
    {
      "type": "Feature",
      "geometry": { "type": "Point", "coordinates": [139.0724022, 36.387876] },
      "properties": { "id": 6780305588, "amenity": "drinking_water" }
    },
    {
      "type": "Feature",
      "geometry": { "type": "Point", "coordinates": [139.0727667, 36.3848503] },
      "properties": { "id": 6780414285, "amenity": "drinking_water" }
    },
    {
      "type": "Feature",
      "geometry": { "type": "Point", "coordinates": [139.0726782, 36.3867743] },
      "properties": { "id": 6780755291, "amenity": "drinking_water" }
    },
    {
      "type": "Feature",
      "geometry": { "type": "Point", "coordinates": [139.073953, 36.3916144] },
      "properties": {
        "id": 7018608961,
        "access": "no",
        "amenity": "drinking_water",
        "fee": "no",
        "operator": "行政",
        "wheelchair": "yes"
      }
    },
    {
      "type": "Feature",
      "geometry": { "type": "Point", "coordinates": [138.8554408, 36.3132535] },
      "properties": { "id": 7020995412, "amenity": "drinking_water" }
    },
    {
      "type": "Feature",
      "geometry": { "type": "Point", "coordinates": [139.5058067, 36.2488498] },
      "properties": { "id": 7370436325, "amenity": "drinking_water" }
    },
    {
      "type": "Feature",
      "geometry": { "type": "Point", "coordinates": [139.047901, 36.2732344] },
      "properties": { "id": 8899617775, "amenity": "drinking_water" }
    },
    {
      "type": "Feature",
      "geometry": { "type": "Point", "coordinates": [139.2514495, 36.256701] },
      "properties": {
        "id": 8906361491,
        "access": "permissive",
        "amenity": "drinking_water",
        "bottle": "yes",
        "fee": "no"
      }
    },
    {
      "type": "Feature",
      "geometry": { "type": "Point", "coordinates": [138.9981978, 36.325742] },
      "properties": {
        "id": 8929670927,
        "amenity": "drinking_water",
        "bottle": "yes"
      }
    },
    {
      "type": "Feature",
      "geometry": { "type": "Point", "coordinates": [139.215578, 36.3499748] },
      "properties": {
        "id": 9124155834,
        "amenity": "drinking_water",
        "bottle": "yes",
        "fee": "no"
      }
    },
    {
      "type": "Feature",
      "geometry": { "type": "Point", "coordinates": [138.9426072, 36.7779483] },
      "properties": {
        "id": 9667420407,
        "amenity": "drinking_water",
        "name": "谷川の六年水"
      }
    },
    {
      "type": "Feature",
      "geometry": { "type": "Point", "coordinates": [138.9454852, 36.7782486] },
      "properties": {
        "id": 9667474219,
        "amenity": "drinking_water",
        "name": "谷川の六年水"
      }
    },
    {
      "type": "Feature",
      "geometry": { "type": "Point", "coordinates": [139.2947354, 36.4154615] },
      "properties": {
        "id": 10989602062,
        "access": "yes",
        "amenity": "drinking_water",
        "bottle": "yes",
        "fee": "no",
        "wheelchair": "yes"
      }
    },
    {
      "type": "Feature",
      "geometry": { "type": "Point", "coordinates": [139.2725943, 36.433082] },
      "properties": {
        "id": 11034936837,
        "access": "yes",
        "amenity": "drinking_water",
        "bottle": "yes",
        "fee": "no",
        "wheelchair": "limited"
      }
    },
    {
      "type": "Feature",
      "geometry": { "type": "Point", "coordinates": [139.0349831, 36.4485703] },
      "properties": {
        "id": 11228701031,
        "amenity": "drinking_water",
        "bottle": "yes"
      }
    },
    {
      "type": "Feature",
      "geometry": { "type": "Point", "coordinates": [138.7857268, 36.7017232] },
      "properties": { "id": 11259257799, "amenity": "drinking_water" }
    },
    {
      "type": "Feature",
      "geometry": { "type": "Point", "coordinates": [139.1257936, 36.3125473] },
      "properties": { "id": 11269013539, "amenity": "drinking_water" }
    },
    {
      "type": "Feature",
      "geometry": { "type": "Point", "coordinates": [139.2091362, 36.2886287] },
      "properties": { "id": 11645299684, "amenity": "drinking_water" }
    },
    {
      "type": "Feature",
      "geometry": { "type": "Point", "coordinates": [139.1525813, 36.3111587] },
      "properties": { "id": 11648614080, "amenity": "drinking_water" }
    },
    {
      "type": "Feature",
      "geometry": { "type": "Point", "coordinates": [139.358868, 36.2906531] },
      "properties": { "id": 11897223918, "amenity": "drinking_water" }
    },
    {
      "type": "Feature",
      "geometry": { "type": "Point", "coordinates": [139.3556243, 36.2895833] },
      "properties": { "id": 11897223919, "amenity": "drinking_water" }
    },
    {
      "type": "Feature",
      "geometry": { "type": "Point", "coordinates": [139.3519661, 36.28879] },
      "properties": { "id": 11897223932, "amenity": "drinking_water" }
    },
    {
      "type": "Feature",
      "geometry": { "type": "Point", "coordinates": [139.3521186, 36.2883625] },
      "properties": { "id": 11907246286, "amenity": "drinking_water" }
    },
    {
      "type": "Feature",
      "geometry": { "type": "Point", "coordinates": [139.3207211, 36.3948672] },
      "properties": { "id": 11919854239, "amenity": "drinking_water" }
    },
    {
      "type": "Feature",
      "geometry": { "type": "Point", "coordinates": [139.3598319, 36.3406163] },
      "properties": { "id": 11922939525, "amenity": "drinking_water" }
    },
    {
      "type": "Feature",
      "geometry": { "type": "Point", "coordinates": [139.3587784, 36.3401512] },
      "properties": { "id": 11922939570, "amenity": "drinking_water" }
    },
    {
      "type": "Feature",
      "geometry": { "type": "Point", "coordinates": [139.3637825, 36.3384926] },
      "properties": { "id": 11932526165, "amenity": "drinking_water" }
    },
    {
      "type": "Feature",
      "geometry": { "type": "Point", "coordinates": [139.332266, 36.403181] },
      "properties": { "id": 12014704635, "amenity": "drinking_water" }
    },
    {
      "type": "Feature",
      "geometry": { "type": "Point", "coordinates": [139.3575872, 36.2936213] },
      "properties": { "id": 12038692408, "amenity": "drinking_water" }
    },
    {
      "type": "Feature",
      "geometry": { "type": "Point", "coordinates": [139.3581139, 36.2927372] },
      "properties": { "id": 12038692421, "amenity": "drinking_water" }
    },
    {
      "type": "Feature",
      "geometry": { "type": "Point", "coordinates": [139.3573532, 36.2934736] },
      "properties": { "id": 12038692423, "amenity": "drinking_water" }
    },
    {
      "type": "Feature",
      "geometry": { "type": "Point", "coordinates": [139.3700741, 36.2960244] },
      "properties": { "id": 12039395174, "amenity": "drinking_water" }
    },
    {
      "type": "Feature",
      "geometry": { "type": "Point", "coordinates": [139.3698534, 36.2927456] },
      "properties": { "id": 12039395471, "amenity": "drinking_water" }
    },
    {
      "type": "Feature",
      "geometry": { "type": "Point", "coordinates": [139.3503416, 36.4001991] },
      "properties": { "id": 12067862884, "amenity": "drinking_water" }
    },
    {
      "type": "Feature",
      "geometry": { "type": "Point", "coordinates": [139.336483, 36.4097826] },
      "properties": { "id": 12100574007, "amenity": "drinking_water" }
    },
    {
      "type": "Feature",
      "geometry": { "type": "Point", "coordinates": [138.8574202, 36.2541503] },
      "properties": { "id": 12137347131, "amenity": "drinking_water" }
    },
    {
      "type": "Feature",
      "geometry": { "type": "Point", "coordinates": [139.3780023, 36.3068075] },
      "properties": { "id": 12138749665, "amenity": "drinking_water" }
    },
    {
      "type": "Feature",
      "geometry": { "type": "Point", "coordinates": [139.3775792, 36.3174055] },
      "properties": { "id": 12138772153, "amenity": "drinking_water" }
    },
    {
      "type": "Feature",
      "geometry": { "type": "Point", "coordinates": [138.5968611, 36.6229268] },
      "properties": { "id": 12143440659, "amenity": "drinking_water" }
    },
    {
      "type": "Feature",
      "geometry": { "type": "Point", "coordinates": [138.590928, 36.6239996] },
      "properties": { "id": 12144123127, "amenity": "drinking_water" }
    },
    {
      "type": "Feature",
      "geometry": { "type": "Point", "coordinates": [139.2310453, 36.4726038] },
      "properties": { "id": 12386227194, "amenity": "drinking_water" }
    },
    {
      "type": "Feature",
      "geometry": { "type": "Point", "coordinates": [139.31763, 36.4172967] },
      "properties": { "id": 12422758666, "amenity": "drinking_water" }
    },
    {
      "type": "Feature",
      "geometry": { "type": "Point", "coordinates": [139.321144, 36.4140578] },
      "properties": { "id": 12430525427, "amenity": "drinking_water" }
    },
    {
      "type": "Feature",
      "geometry": { "type": "Point", "coordinates": [139.11952, 36.3058489] },
      "properties": { "id": 12477791560, "amenity": "drinking_water" }
    },
    {
      "type": "Feature",
      "geometry": { "type": "Point", "coordinates": [139.1226124, 36.3040162] },
      "properties": { "id": 12477791633, "amenity": "drinking_water" }
    },
    {
      "type": "Feature",
      "geometry": { "type": "Point", "coordinates": [139.3747879, 36.3482115] },
      "properties": { "id": 12538503690, "amenity": "drinking_water" }
    },
    {
      "type": "Feature",
      "geometry": { "type": "Point", "coordinates": [139.4503763, 36.1974807] },
      "properties": {
        "id": 12703925111,
        "access": "yes",
        "amenity": "drinking_water",
        "bottle": "yes",
        "fee": "no"
      }
    },
    {
      "type": "Feature",
      "geometry": { "type": "Point", "coordinates": [139.4138066, 36.4824801] },
      "properties": { "id": 12833396740, "amenity": "drinking_water" }
    },
    {
      "type": "Feature",
      "geometry": { "type": "Point", "coordinates": [139.4136013, 36.4824741] },
      "properties": { "id": 12833396741, "amenity": "drinking_water" }
    },
    {
      "type": "Feature",
      "geometry": { "type": "Point", "coordinates": [139.4129622, 36.4817739] },
      "properties": { "id": 12833396749, "amenity": "drinking_water" }
    },
    {
      "type": "Feature",
      "geometry": { "type": "Point", "coordinates": [138.8762616, 36.2252053] },
      "properties": {
        "id": 12878773568,
        "access": "yes",
        "amenity": "drinking_water",
        "fee": "no"
      }
    },
    {
      "type": "Feature",
      "geometry": { "type": "Point", "coordinates": [139.4241048, 36.4687285] },
      "properties": {
        "id": 12979839980,
        "access": "permissive",
        "amenity": "drinking_water",
        "note": "bamboo pipe and bucket"
      }
    }
  ]
}
