{
  "type": "FeatureCollection",
  "features": [
    {
      "type": "Feature",
      "geometry": { "type": "Point", "coordinates": [134.177439, 34.2014055] },
      "properties": {
        "id": 1933698959,
        "amenity": "drinking_water",
        "name": "太子の水",
        "natural": "spring"
      }
    },
    {
      "type": "Feature",
      "geometry": { "type": "Point", "coordinates": [134.0518713, 34.3896846] },
      "properties": {
        "id": 2353060645,
        "amenity": "drinking_water",
        "check_date": "2023-03-12",
        "fountain": "bubbler"
      }
    },
    {
      "type": "Feature",
      "geometry": { "type": "Point", "coordinates": [134.0531375, 34.3901955] },
      "properties": {
        "id": 2353060646,
        "amenity": "drinking_water",
        "check_date": "2023-03-12",
        "fountain": "bubbler"
      }
    },
    {
      "type": "Feature",
      "geometry": { "type": "Point", "coordinates": [134.0652033, 34.3157325] },
      "properties": {
        "id": 3375880393,
        "amenity": "drinking_water",
        "name": "水飲み場"
      }
    },
    {
      "type": "Feature",
      "geometry": { "type": "Point", "coordinates": [134.0656456, 34.3154674] },
      "properties": {
        "id": 3375913693,
        "amenity": "drinking_water",
        "name": "水飲み場"
      }
    },
    {
      "type": "Feature",
      "geometry": { "type": "Point", "coordinates": [134.0658088, 34.3160774] },
      "properties": {
        "id": 3375913793,
        "amenity": "drinking_water",
        "name": "水飲み場"
      }
    },
    {
      "type": "Feature",
      "geometry": { "type": "Point", "coordinates": [134.0697585, 34.337547] },
      "properties": { "id": 4133374468, "amenity": "drinking_water" }
    },
    {
      "type": "Feature",
      "geometry": { "type": "Point", "coordinates": [134.1119926, 34.3408531] },
      "properties": { "id": 4133375370, "amenity": "drinking_water" }
    },
    {
      "type": "Feature",
      "geometry": { "type": "Point", "coordinates": [134.0158638, 34.3427147] },
      "properties": { "id": 4295702282, "amenity": "drinking_water" }
    },
    {
      "type": "Feature",
      "geometry": { "type": "Point", "coordinates": [133.8041954, 34.2280648] },
      "properties": {
        "id": 5535774878,
        "amenity": "drinking_water",
        "indoor": "no"
      }
    },
    {
      "type": "Feature",
      "geometry": { "type": "Point", "coordinates": [133.8012215, 34.2865375] },
      "properties": { "id": 6615854218, "amenity": "drinking_water" }
    },
    {
      "type": "Feature",
      "geometry": { "type": "Point", "coordinates": [134.0421892, 34.3506653] },
      "properties": { "id": 7439166153, "amenity": "drinking_water" }
    },
    {
      "type": "Feature",
      "geometry": { "type": "Point", "coordinates": [134.0435207, 34.3312702] },
      "properties": { "id": 7846597958, "amenity": "drinking_water" }
    },
    {
      "type": "Feature",
      "geometry": { "type": "Point", "coordinates": [134.0455237, 34.3293901] },
      "properties": { "id": 7864253834, "amenity": "drinking_water" }
    },
    {
      "type": "Feature",
      "geometry": { "type": "Point", "coordinates": [133.8079683, 34.3133603] },
      "properties": { "id": 9890931817, "amenity": "drinking_water" }
    },
    {
      "type": "Feature",
      "geometry": { "type": "Point", "coordinates": [134.0443291, 34.3495133] },
      "properties": {
        "id": 11035013569,
        "amenity": "drinking_water",
        "leisure": "park",
        "source": "GSImaps/seamlessphoto;survey"
      }
    },
    {
      "type": "Feature",
      "geometry": { "type": "Point", "coordinates": [133.6874412, 34.0773444] },
      "properties": { "id": 12452422851, "amenity": "drinking_water" }
    },
    {
      "type": "Feature",
      "geometry": { "type": "Point", "coordinates": [133.6874151, 34.0773611] },
      "properties": { "id": 12452422852, "amenity": "drinking_water" }
    }
  ]
}
