{"type":"FeatureCollection","features":[{"type":"Feature","geometry":{"type":"Point","coordinates":[130.5408981,31.6083148]},"properties":{"id":871642933,"element_type":"node","amenity":"toilets","wheelchair":"yes"}},{"type":"Feature","geometry":{"type":"Point","coordinates":[130.7149441,31.8024359]},"properties":{"id":873002666,"element_type":"node","amenity":"toilets","wheelchair":"yes"}},{"type":"Feature","geometry":{"type":"Point","coordinates":[130.6634717,30.9995612]},"properties":{"id":928680933,"element_type":"node","amenity":"toilets"}},{"type":"Feature","geometry":{"type":"Point","coordinates":[131.095985,31.4713407]},"properties":{"id":1038158957,"element_type":"node","amenity":"toilets","wheelchair":"no"}},{"type":"Feature","geometry":{"type":"Point","coordinates":[130.5340347,30.2995541]},"properties":{"id":1139547111,"element_type":"node","amenity":"toilets"}},{"type":"Feature","geometry":{"type":"Point","coordinates":[130.6424582,31.2376328]},"properties":{"id":1139651070,"element_type":"node","amenity":"toilets"}},{"type":"Feature","geometry":{"type":"Point","coordinates":[130.4412878,31.3778528]},"properties":{"id":1139660760,"element_type":"node","amenity":"toilets"}},{"type":"Feature","geometry":{"type":"Point","coordinates":[130.99473,31.588378]},"properties":{"id":1316715306,"element_type":"node","amenity":"toilets","wheelchair":"limited"}},{"type":"Feature","geometry":{"type":"Point","coordinates":[131.0821891,31.4597454]},"properties":{"id":1316915047,"element_type":"node","amenity":"toilets","description":"Wheel yes"}},{"type":"Feature","geometry":{"type":"Point","coordinates":[130.5351466,31.5374712]},"properties":{"id":1317965188,"element_type":"node","amenity":"toilets","wheelchair":"no"}},{"type":"Feature","geometry":{"type":"Point","coordinates":[130.5372279,31.5438327]},"properties":{"id":1336339807,"element_type":"node","amenity":"toilets","description":"Wheelchair no"}},{"type":"Feature","geometry":{"type":"Point","coordinates":[130.5416491,31.5490662]},"properties":{"id":1360373664,"element_type":"node","amenity":"toilets"}},{"type":"Feature","geometry":{"type":"Point","coordinates":[130.5335235,31.5357548]},"properties":{"id":1370637798,"element_type":"node","amenity":"toilets","image":"http://yfrog.com/kjkrfujj:medium","wheelchair":"yes"}},{"type":"Feature","geometry":{"type":"Point","coordinates":[130.5314858,31.5352781]},"properties":{"id":1370675973,"element_type":"node","amenity":"toilets","wheelchair":"no"}},{"type":"Feature","geometry":{"type":"Point","coordinates":[130.85667,31.1292204]},"properties":{"id":1727301711,"element_type":"node","amenity":"toilets"}},{"type":"Feature","geometry":{"type":"Point","coordinates":[130.4350791,30.3878179]},"properties":{"id":1763782014,"element_type":"node","amenity":"toilets"}},{"type":"Feature","geometry":{"type":"Point","coordinates":[130.433066,30.4065308]},"properties":{"id":1763782087,"element_type":"node","amenity":"toilets"}},{"type":"Feature","geometry":{"type":"Point","coordinates":[130.6018533,31.5922982]},"properties":{"id":1842839500,"element_type":"node","amenity":"toilets"}},{"type":"Feature","geometry":{"type":"Point","coordinates":[130.6013329,31.5940711]},"properties":{"id":1842839515,"element_type":"node","amenity":"toilets"}},{"type":"Feature","geometry":{"type":"Point","coordinates":[130.8403055,31.9150202]},"properties":{"id":1929867152,"element_type":"node","amenity":"toilets","source":"Bing"}},{"type":"Feature","geometry":{"type":"Point","coordinates":[130.780208,31.9410081]},"properties":{"id":2014989410,"element_type":"node","amenity":"toilets"}},{"type":"Feature","geometry":{"type":"Point","coordinates":[130.7804576,31.9437645]},"properties":{"id":2014989473,"element_type":"node","amenity":"toilets"}},{"type":"Feature","geometry":{"type":"Point","coordinates":[130.3195595,31.4123287]},"properties":{"id":2056074999,"element_type":"node","amenity":"toilets"}},{"type":"Feature","geometry":{"type":"Point","coordinates":[130.8280742,31.2608089]},"properties":{"id":2193813114,"element_type":"node","amenity":"toilets"}},{"type":"Feature","geometry":{"type":"Point","coordinates":[130.795134,31.299467]},"properties":{"id":2193817207,"element_type":"node","amenity":"toilets"}},{"type":"Feature","geometry":{"type":"Point","coordinates":[130.877676,31.398323]},"properties":{"id":2272323878,"element_type":"node","amenity":"toilets"}},{"type":"Feature","geometry":{"type":"Point","coordinates":[130.5933531,31.5913299]},"properties":{"id":2503631018,"element_type":"node","amenity":"toilets","fee":"no","wheelchair":"yes"}},{"type":"Feature","geometry":{"type":"Point","coordinates":[130.5392333,30.3521167]},"properties":{"id":2579982413,"element_type":"node","amenity":"toilets"}},{"type":"Feature","geometry":{"type":"Point","coordinates":[130.5608425,30.3541969]},"properties":{"id":2579982414,"element_type":"node","amenity":"toilets","source":"survey"}},{"type":"Feature","geometry":{"type":"Point","coordinates":[131.0598958,31.232516]},"properties":{"id":2901043992,"element_type":"node","amenity":"toilets"}},{"type":"Feature","geometry":{"type":"Point","coordinates":[130.8164935,31.3458246]},"properties":{"id":2902833207,"element_type":"node","amenity":"toilets"}},{"type":"Feature","geometry":{"type":"Point","coordinates":[130.8155923,31.3466314]},"properties":{"id":2902833210,"element_type":"node","amenity":"toilets"}},{"type":"Feature","geometry":{"type":"Point","coordinates":[130.8150908,31.3453275]},"properties":{"id":2902833216,"element_type":"node","amenity":"toilets"}},{"type":"Feature","geometry":{"type":"Point","coordinates":[130.8157827,31.343291]},"properties":{"id":2902846570,"element_type":"node","amenity":"toilets"}},{"type":"Feature","geometry":{"type":"Point","coordinates":[130.8133633,31.3505571]},"properties":{"id":2902852494,"element_type":"node","amenity":"toilets"}},{"type":"Feature","geometry":{"type":"Point","coordinates":[130.9292516,31.2947977]},"properties":{"id":2905085626,"element_type":"node","amenity":"toilets"}},{"type":"Feature","geometry":{"type":"Point","coordinates":[130.9287795,31.2965166]},"properties":{"id":2905085632,"element_type":"node","amenity":"toilets"}},{"type":"Feature","geometry":{"type":"Point","coordinates":[130.5878399,31.1586633]},"properties":{"id":2915436101,"element_type":"node","amenity":"toilets"}},{"type":"Feature","geometry":{"type":"Point","coordinates":[130.4293926,31.5944531]},"properties":{"id":2992219335,"element_type":"node","access":"yes","amenity":"toilets","operator":"鹿児島市","toilets:disposal":"flush"}},{"type":"Feature","geometry":{"type":"Point","coordinates":[130.501757,31.5386607]},"properties":{"id":3048613873,"element_type":"node","amenity":"toilets","toilets:disposal":"flush"}},{"type":"Feature","geometry":{"type":"Point","coordinates":[130.6916559,31.4834385]},"properties":{"id":3096726088,"element_type":"node","amenity":"toilets"}},{"type":"Feature","geometry":{"type":"Point","coordinates":[130.8986335,31.3887812]},"properties":{"id":3188039498,"element_type":"node","amenity":"toilets"}},{"type":"Feature","geometry":{"type":"Point","coordinates":[131.0671896,31.2756991]},"properties":{"id":3339305493,"element_type":"node","amenity":"toilets","name":"ふれあいの森","toilets:wheelchair":"yes","wheelchair":"yes"}},{"type":"Feature","geometry":{"type":"Point","coordinates":[130.9488076,31.3345617]},"properties":{"id":3339324593,"element_type":"node","amenity":"toilets","name":"やぶさめの里総合公園","toilets:wheelchair":"yes","wheelchair":"yes"}},{"type":"Feature","geometry":{"type":"Point","coordinates":[131.0210073,31.4343572]},"properties":{"id":3339351395,"element_type":"node","addr:city":"鹿児島県","addr:street":"曽於郡大崎町益丸1337-1","amenity":"toilets","name":"ふれあいの家みうら","toilets:wheelchair":"yes","wheelchair":"yes","wheelchair:description":"多目的トイレあります"}},{"type":"Feature","geometry":{"type":"Point","coordinates":[131.0151923,31.4365908]},"properties":{"id":3339362993,"element_type":"node","amenity":"toilets","name":"大崎町中央運動公園","wheelchair":"yes"}},{"type":"Feature","geometry":{"type":"Point","coordinates":[130.7675166,31.1855097]},"properties":{"id":3358845793,"element_type":"node","addr:city":"鹿児島県","addr:housenumber":"6868","addr:postcode":"893-2504","addr:street":"鹿児島県肝属郡南大隅町根占山本","amenity":"toilets","name":"大浜海浜公園","phone":"0994-24-5113","wheelchair":"yes"}},{"type":"Feature","geometry":{"type":"Point","coordinates":[130.6910688,31.0935187]},"properties":{"id":3358849893,"element_type":"node","amenity":"toilets","name":"さたでい湯","toilets:wheelchair":"yes","wheelchair":"limited"}},{"type":"Feature","geometry":{"type":"Point","coordinates":[130.7648617,31.2138062]},"properties":{"id":3358852893,"element_type":"node","amenity":"toilets","name":"南大隅町ねじめ温泉・ネッピー館","toilets:wheelchair":"yes","wheelchair":"yes"}},{"type":"Feature","geometry":{"type":"Point","coordinates":[130.8132327,31.2570828]},"properties":{"id":3358853493,"element_type":"node","amenity":"toilets","name":"神川大滝公園","toilets:wheelchair":"yes","tourism":"viewpoint","wheelchair":"yes"}},{"type":"Feature","geometry":{"type":"Point","coordinates":[130.9466511,31.3755639]},"properties":{"id":3360488793,"element_type":"node","amenity":"toilets","name":"下小原池公園","toilets:wheelchair":"yes","wheelchair":"limited"}},{"type":"Feature","geometry":{"type":"Point","coordinates":[130.4563576,31.5796807]},"properties":{"id":3451997928,"element_type":"node","access":"yes","amenity":"toilets","toilets:disposal":"flush"}},{"type":"Feature","geometry":{"type":"Point","coordinates":[130.6780066,31.0474275]},"properties":{"id":3609859232,"element_type":"node","access":"yes","amenity":"toilets","building":"yes","drinking_water":"no","fee":"no","toilets:disposal":"flush","toilets:position":"seated;urinal"}},{"type":"Feature","geometry":{"type":"Point","coordinates":[130.6943066,31.0946946]},"properties":{"id":3609886200,"element_type":"node","access":"yes","amenity":"toilets","toilets:disposal":"flush"}},{"type":"Feature","geometry":{"type":"Point","coordinates":[130.2174018,32.0611685]},"properties":{"id":3661485389,"element_type":"node","amenity":"toilets"}},{"type":"Feature","geometry":{"type":"Point","coordinates":[130.2054354,32.0701945]},"properties":{"id":3661485391,"element_type":"node","amenity":"toilets"}},{"type":"Feature","geometry":{"type":"Point","coordinates":[130.9471595,31.3433697]},"properties":{"id":3686295879,"element_type":"node","amenity":"toilets","mapillary":"9ySoC1laseNIYS-9wlCY1w","wheelchair":"no"}},{"type":"Feature","geometry":{"type":"Point","coordinates":[130.9509603,31.3355984]},"properties":{"id":3687595831,"element_type":"node","amenity":"toilets","mapillary":"162484655795718","wheelchair":"yes"}},{"type":"Feature","geometry":{"type":"Point","coordinates":[130.9508128,31.3366213]},"properties":{"id":3687599960,"element_type":"node","amenity":"toilets","mapillary":"1374514819584253","wheelchair":"yes"}},{"type":"Feature","geometry":{"type":"Point","coordinates":[130.9511102,31.334144]},"properties":{"id":3698173978,"element_type":"node","amenity":"toilets"}},{"type":"Feature","geometry":{"type":"Point","coordinates":[130.3247703,31.9138107]},"properties":{"id":3712298494,"element_type":"node","access":"public","amenity":"toilets","drinking_water":"no","fee":"no","operator":"薩摩川内市","toilets:disposal":"flush","wheelchair":"yes"}},{"type":"Feature","geometry":{"type":"Point","coordinates":[130.9457121,31.3473338]},"properties":{"id":3766925666,"element_type":"node","amenity":"toilets","mapillary":"178144007504085","wheelchair":"limited"}},{"type":"Feature","geometry":{"type":"Point","coordinates":[130.9463652,31.3472499]},"properties":{"id":3766932084,"element_type":"node","access":"customers","amenity":"toilets"}},{"type":"Feature","geometry":{"type":"Point","coordinates":[130.691801,31.4842453]},"properties":{"id":3831502994,"element_type":"node","amenity":"toilets","fee":"no","toilets:disposal":"flush","toilets:position":"seated;urinal","wheelchair":"yes"}},{"type":"Feature","geometry":{"type":"Point","coordinates":[130.2164085,31.9457032]},"properties":{"id":3883099402,"element_type":"node","amenity":"toilets"}},{"type":"Feature","geometry":{"type":"Point","coordinates":[130.5445301,31.3799432]},"properties":{"id":3903889675,"element_type":"node","amenity":"toilets"}},{"type":"Feature","geometry":{"type":"Point","coordinates":[130.4142826,30.2981148]},"properties":{"id":4283508163,"element_type":"node","amenity":"toilets"}},{"type":"Feature","geometry":{"type":"Point","coordinates":[130.5630281,31.5961805]},"properties":{"id":4361810112,"element_type":"node","amenity":"toilets","drinking_water":"no","fee":"no","level":"1","toilets:disposal":"flush","unisex":"yes","wheelchair":"yes"}},{"type":"Feature","geometry":{"type":"Point","coordinates":[130.5630858,31.5962079]},"properties":{"id":4361810113,"element_type":"node","amenity":"toilets","drinking_water":"no","fee":"no","level":"1","toilets:disposal":"flush","unisex":"yes","wheelchair":"yes"}},{"type":"Feature","geometry":{"type":"Point","coordinates":[130.5625292,31.5969007]},"properties":{"id":4361810119,"element_type":"node","amenity":"toilets","drinking_water":"no","fee":"no","level":"1","toilets:disposal":"flush","unisex":"yes","wheelchair":"yes"}},{"type":"Feature","geometry":{"type":"Point","coordinates":[130.6001312,31.5927147]},"properties":{"id":4361830327,"element_type":"node","amenity":"toilets","drinking_water":"no","level":"1","toilets:disposal":"flush","toilets:wheelchair":"no","unisex":"yes"}},{"type":"Feature","geometry":{"type":"Point","coordinates":[129.4086314,28.2609231]},"properties":{"id":4547670372,"element_type":"node","amenity":"toilets"}},{"type":"Feature","geometry":{"type":"Point","coordinates":[129.6932914,28.4162269]},"properties":{"id":4573838998,"element_type":"node","amenity":"toilets"}},{"type":"Feature","geometry":{"type":"Point","coordinates":[129.6949207,28.4161186]},"properties":{"id":4573839025,"element_type":"node","amenity":"toilets"}},{"type":"Feature","geometry":{"type":"Point","coordinates":[130.558047,31.6057837]},"properties":{"id":4574635457,"element_type":"node","amenity":"toilets"}},{"type":"Feature","geometry":{"type":"Point","coordinates":[130.3226822,31.6460221]},"properties":{"id":4578511980,"element_type":"node","amenity":"toilets"}},{"type":"Feature","geometry":{"type":"Point","coordinates":[129.6903944,28.527282]},"properties":{"id":4618159243,"element_type":"node","amenity":"toilets"}},{"type":"Feature","geometry":{"type":"Point","coordinates":[130.9988323,31.7287715]},"properties":{"id":4757342709,"element_type":"node","amenity":"toilets"}},{"type":"Feature","geometry":{"type":"Point","coordinates":[130.5692962,30.4305469]},"properties":{"id":4806981711,"element_type":"node","amenity":"toilets","fee":"no","level":"0","wheelchair":"no"}},{"type":"Feature","geometry":{"type":"Point","coordinates":[130.7065661,31.5844004]},"properties":{"id":4809689783,"element_type":"node","amenity":"toilets","fee":"no","wheelchair":"yes"}},{"type":"Feature","geometry":{"type":"Point","coordinates":[130.7039871,31.5793387]},"properties":{"id":4809689802,"element_type":"node","access":"customers","amenity":"toilets"}},{"type":"Feature","geometry":{"type":"Point","coordinates":[130.6775419,31.5543452]},"properties":{"id":4809690731,"element_type":"node","amenity":"toilets","fee":"no","wheelchair":"yes"}},{"type":"Feature","geometry":{"type":"Point","coordinates":[130.5709463,30.3854906]},"properties":{"id":4811383466,"element_type":"node","access":"yes","amenity":"toilets","fee":"no","note":"may only be there as long as road construction work lasts","toilets:disposal":"bucket","unisex":"yes","wheelchair":"no"}},{"type":"Feature","geometry":{"type":"Point","coordinates":[130.4925336,30.4521282]},"properties":{"id":4814454360,"element_type":"node","amenity":"toilets"}},{"type":"Feature","geometry":{"type":"Point","coordinates":[130.4961519,30.4548889]},"properties":{"id":4814454371,"element_type":"node","amenity":"toilets"}},{"type":"Feature","geometry":{"type":"Point","coordinates":[130.5199644,30.4489566]},"properties":{"id":4814454455,"element_type":"node","amenity":"toilets"}},{"type":"Feature","geometry":{"type":"Point","coordinates":[130.4776034,30.2344707]},"properties":{"id":4869382606,"element_type":"node","amenity":"toilets","source":"survey"}},{"type":"Feature","geometry":{"type":"Point","coordinates":[130.9664626,30.5283918]},"properties":{"id":5305798747,"element_type":"node","amenity":"toilets"}},{"type":"Feature","geometry":{"type":"Point","coordinates":[130.5687949,31.7659102]},"properties":{"id":5575039321,"element_type":"node","amenity":"toilets"}},{"type":"Feature","geometry":{"type":"Point","coordinates":[130.2327101,31.4039788]},"properties":{"id":5741241168,"element_type":"node","amenity":"toilets"}},{"type":"Feature","geometry":{"type":"Point","coordinates":[130.2138328,31.360555]},"properties":{"id":5741241169,"element_type":"node","amenity":"toilets"}},{"type":"Feature","geometry":{"type":"Point","coordinates":[130.2665836,31.3809996]},"properties":{"id":5741241170,"element_type":"node","amenity":"toilets","toilets:disposal":"pitlatrine"}},{"type":"Feature","geometry":{"type":"Point","coordinates":[130.3455382,31.4651158]},"properties":{"id":5745195200,"element_type":"node","amenity":"toilets"}},{"type":"Feature","geometry":{"type":"Point","coordinates":[130.33803,31.5131855]},"properties":{"id":5749401580,"element_type":"node","amenity":"toilets"}},{"type":"Feature","geometry":{"type":"Point","coordinates":[130.5180122,31.5132666]},"properties":{"id":5751835518,"element_type":"node","amenity":"toilets"}},{"type":"Feature","geometry":{"type":"Point","coordinates":[130.5248414,31.5233988]},"properties":{"id":5751835519,"element_type":"node","amenity":"toilets"}},{"type":"Feature","geometry":{"type":"Point","coordinates":[130.5127297,31.489922]},"properties":{"id":5753963494,"element_type":"node","amenity":"toilets"}},{"type":"Feature","geometry":{"type":"Point","coordinates":[130.4331145,31.4128881]},"properties":{"id":5760240693,"element_type":"node","amenity":"toilets"}},{"type":"Feature","geometry":{"type":"Point","coordinates":[130.5746462,30.3802581]},"properties":{"id":5791872553,"element_type":"node","amenity":"toilets"}},{"type":"Feature","geometry":{"type":"Point","coordinates":[130.5703006,30.3694479]},"properties":{"id":5791872953,"element_type":"node","amenity":"toilets"}},{"type":"Feature","geometry":{"type":"Point","coordinates":[130.5755584,30.3048602]},"properties":{"id":5793832860,"element_type":"node","amenity":"toilets","fee":"yes","unisex":"yes"}},{"type":"Feature","geometry":{"type":"Point","coordinates":[130.582187,30.2573269]},"properties":{"id":5793836953,"element_type":"node","amenity":"toilets"}},{"type":"Feature","geometry":{"type":"Point","coordinates":[130.5710055,30.4325549]},"properties":{"id":5795667553,"element_type":"node","amenity":"toilets"}},{"type":"Feature","geometry":{"type":"Point","coordinates":[130.6300058,31.5915216]},"properties":{"id":5798613955,"element_type":"node","amenity":"toilets","fee":"no","wheelchair":"yes"}},{"type":"Feature","geometry":{"type":"Point","coordinates":[130.3491593,31.5802973]},"properties":{"id":5834247897,"element_type":"node","amenity":"toilets"}},{"type":"Feature","geometry":{"type":"Point","coordinates":[130.8128893,31.2565417]},"properties":{"id":5835225185,"element_type":"node","access":"yes","amenity":"toilets","changing_table":"no","drinking_water":"no","toilets:disposal":"flush"}},{"type":"Feature","geometry":{"type":"Point","coordinates":[130.3964579,31.6298937]},"properties":{"id":5858823335,"element_type":"node","amenity":"toilets"}},{"type":"Feature","geometry":{"type":"Point","coordinates":[130.3521644,31.3748981]},"properties":{"id":5875545032,"element_type":"node","amenity":"toilets"}},{"type":"Feature","geometry":{"type":"Point","coordinates":[130.8222583,31.3616935]},"properties":{"id":5886245680,"element_type":"node","amenity":"toilets"}},{"type":"Feature","geometry":{"type":"Point","coordinates":[130.4667521,31.5936668]},"properties":{"id":5933676690,"element_type":"node","amenity":"toilets"}},{"type":"Feature","geometry":{"type":"Point","coordinates":[130.3183309,31.65489]},"properties":{"id":5951344192,"element_type":"node","amenity":"toilets"}},{"type":"Feature","geometry":{"type":"Point","coordinates":[130.3163505,31.659265]},"properties":{"id":5951344193,"element_type":"node","amenity":"toilets"}},{"type":"Feature","geometry":{"type":"Point","coordinates":[130.1709167,32.1080802]},"properties":{"id":6054684447,"element_type":"node","amenity":"toilets"}},{"type":"Feature","geometry":{"type":"Point","coordinates":[130.1940178,32.0286895]},"properties":{"id":6054684449,"element_type":"node","amenity":"toilets"}},{"type":"Feature","geometry":{"type":"Point","coordinates":[130.42199,30.2676892]},"properties":{"id":6054689757,"element_type":"node","amenity":"toilets"}},{"type":"Feature","geometry":{"type":"Point","coordinates":[130.4254237,30.3985952]},"properties":{"id":6054690204,"element_type":"node","amenity":"toilets"}},{"type":"Feature","geometry":{"type":"Point","coordinates":[130.1997783,31.407667]},"properties":{"id":6180694141,"element_type":"node","amenity":"toilets"}},{"type":"Feature","geometry":{"type":"Point","coordinates":[130.5411151,31.5836937]},"properties":{"id":6389760416,"element_type":"node","amenity":"toilets","changing_table":"yes","changing_table:access":"travelers","changing_table:fee":"no","changing_table:location":"unisex_toilet;female_toilet","changing_table:wheelchair":"yes","fee":"no","level":"1","wheelchair":"yes"}},{"type":"Feature","geometry":{"type":"Point","coordinates":[130.5758061,31.6175007]},"properties":{"id":6389765451,"element_type":"node","amenity":"toilets","changing_table":"yes","changing_table:location":"unisex_toilet","wheelchair":"yes"}},{"type":"Feature","geometry":{"type":"Point","coordinates":[130.5796497,31.6190046]},"properties":{"id":6389765452,"element_type":"node","amenity":"toilets","changing_table":"yes","changing_table:location":"female_toilet","fee":"no","survey:date":"2019-10-26","wheelchair":"yes"}},{"type":"Feature","geometry":{"type":"Point","coordinates":[130.6146018,31.703315]},"properties":{"id":6389765454,"element_type":"node","amenity":"toilets","changing_table":"no","wheelchair":"no"}},{"type":"Feature","geometry":{"type":"Point","coordinates":[130.5480048,31.5845188]},"properties":{"id":6396464830,"element_type":"node","amenity":"toilets"}},{"type":"Feature","geometry":{"type":"Point","coordinates":[130.6593427,30.9970778]},"properties":{"id":6438111490,"element_type":"node","amenity":"toilets"}},{"type":"Feature","geometry":{"type":"Point","coordinates":[130.5723138,30.432427]},"properties":{"id":6527812137,"element_type":"node","amenity":"toilets","level":"1"}},{"type":"Feature","geometry":{"type":"Point","coordinates":[130.5724585,30.4323755]},"properties":{"id":6527812138,"element_type":"node","amenity":"toilets","level":"0"}},{"type":"Feature","geometry":{"type":"Point","coordinates":[130.5690009,30.4320282]},"properties":{"id":6527821240,"element_type":"node","amenity":"toilets"}},{"type":"Feature","geometry":{"type":"Point","coordinates":[130.652411,30.3009147]},"properties":{"id":6528059654,"element_type":"node","amenity":"toilets"}},{"type":"Feature","geometry":{"type":"Point","coordinates":[130.5704692,30.4325731]},"properties":{"id":6530690607,"element_type":"node","amenity":"toilets"}},{"type":"Feature","geometry":{"type":"Point","coordinates":[130.3528759,31.5093082]},"properties":{"id":6538773929,"element_type":"node","amenity":"toilets"}},{"type":"Feature","geometry":{"type":"Point","coordinates":[130.2298098,31.2722738]},"properties":{"id":6594380716,"element_type":"node","amenity":"toilets"}},{"type":"Feature","geometry":{"type":"Point","coordinates":[130.3210811,31.418366]},"properties":{"id":6743732563,"element_type":"node","amenity":"toilets"}},{"type":"Feature","geometry":{"type":"Point","coordinates":[130.9144056,31.2930226]},"properties":{"id":6743879503,"element_type":"node","amenity":"toilets"}},{"type":"Feature","geometry":{"type":"Point","coordinates":[128.5368657,27.4027158]},"properties":{"id":6795622178,"element_type":"node","amenity":"toilets"}},{"type":"Feature","geometry":{"type":"Point","coordinates":[130.5651326,31.5648433]},"properties":{"id":6831923009,"element_type":"node","amenity":"toilets"}},{"type":"Feature","geometry":{"type":"Point","coordinates":[130.5674606,31.5692538]},"properties":{"id":6831923010,"element_type":"node","access":"yes","amenity":"toilets","fee":"no","toilets:disposal":"flush","unisex":"yes","wheelchair":"no"}},{"type":"Feature","geometry":{"type":"Point","coordinates":[130.5453216,31.5596859]},"properties":{"id":6851669308,"element_type":"node","amenity":"toilets"}},{"type":"Feature","geometry":{"type":"Point","coordinates":[130.543906,31.5611697]},"properties":{"id":6851669309,"element_type":"node","amenity":"toilets"}},{"type":"Feature","geometry":{"type":"Point","coordinates":[130.1737061,31.4190211]},"properties":{"id":7104324338,"element_type":"node","amenity":"toilets"}},{"type":"Feature","geometry":{"type":"Point","coordinates":[130.5409964,31.5958822]},"properties":{"id":7160227078,"element_type":"node","amenity":"toilets"}},{"type":"Feature","geometry":{"type":"Point","coordinates":[130.5100245,30.3319038]},"properties":{"id":7208337442,"element_type":"node","amenity":"toilets"}},{"type":"Feature","geometry":{"type":"Point","coordinates":[130.4443021,31.4433575]},"properties":{"id":7214210035,"element_type":"node","amenity":"toilets"}},{"type":"Feature","geometry":{"type":"Point","coordinates":[130.4996272,31.5103118]},"properties":{"id":7271769230,"element_type":"node","amenity":"toilets"}},{"type":"Feature","geometry":{"type":"Point","coordinates":[130.5026182,31.4038805]},"properties":{"id":7489374250,"element_type":"node","amenity":"toilets"}},{"type":"Feature","geometry":{"type":"Point","coordinates":[130.7383856,32.0122131]},"properties":{"id":7984030019,"element_type":"node","amenity":"toilets","fee":"no"}},{"type":"Feature","geometry":{"type":"Point","coordinates":[130.8500567,31.2529085]},"properties":{"id":8120826413,"element_type":"node","amenity":"toilets","toilets:position":"squat"}},{"type":"Feature","geometry":{"type":"Point","coordinates":[130.517424,31.503339]},"properties":{"id":8142818455,"element_type":"node","amenity":"toilets"}},{"type":"Feature","geometry":{"type":"Point","coordinates":[130.1074719,32.1724517]},"properties":{"id":8549752395,"element_type":"node","amenity":"toilets"}},{"type":"Feature","geometry":{"type":"Point","coordinates":[130.7498376,31.7636589]},"properties":{"id":8635231254,"element_type":"node","amenity":"toilets","female":"yes","male":"yes"}},{"type":"Feature","geometry":{"type":"Point","coordinates":[131.0588383,31.2323039]},"properties":{"id":8938721839,"element_type":"node","amenity":"toilets"}},{"type":"Feature","geometry":{"type":"Point","coordinates":[131.0666455,31.2732291]},"properties":{"id":8938721946,"element_type":"node","amenity":"toilets"}},{"type":"Feature","geometry":{"type":"Point","coordinates":[130.5063162,31.5134029]},"properties":{"id":9226934992,"element_type":"node","amenity":"toilets"}},{"type":"Feature","geometry":{"type":"Point","coordinates":[130.8471676,31.3774772]},"properties":{"id":9502991353,"element_type":"node","amenity":"toilets"}},{"type":"Feature","geometry":{"type":"Point","coordinates":[130.4162793,31.2511957]},"properties":{"id":9959530373,"element_type":"node","amenity":"toilets"}},{"type":"Feature","geometry":{"type":"Point","coordinates":[130.5244477,31.617677]},"properties":{"id":10676185191,"element_type":"node","amenity":"toilets"}},{"type":"Feature","geometry":{"type":"Point","coordinates":[130.1842813,32.1749853]},"properties":{"id":10722606705,"element_type":"node","amenity":"toilets"}},{"type":"Feature","geometry":{"type":"Point","coordinates":[130.1791082,32.156999]},"properties":{"id":10722606805,"element_type":"node","amenity":"toilets"}},{"type":"Feature","geometry":{"type":"Point","coordinates":[130.4711058,31.8147388]},"properties":{"id":10727030205,"element_type":"node","amenity":"toilets"}},{"type":"Feature","geometry":{"type":"Point","coordinates":[130.666756,31.7546863]},"properties":{"id":10727118905,"element_type":"node","amenity":"toilets"}},{"type":"Feature","geometry":{"type":"Point","coordinates":[130.7627941,31.7437053]},"properties":{"id":10761939566,"element_type":"node","amenity":"toilets"}},{"type":"Feature","geometry":{"type":"Point","coordinates":[130.5551859,31.5571389]},"properties":{"id":10831382851,"element_type":"node","amenity":"toilets"}},{"type":"Feature","geometry":{"type":"Point","coordinates":[130.5912257,30.2518335]},"properties":{"id":10874877718,"element_type":"node","access":"yes","amenity":"toilets"}},{"type":"Feature","geometry":{"type":"Point","coordinates":[130.593308,31.5806573]},"properties":{"id":11235283095,"element_type":"node","amenity":"toilets","fee":"no","female":"yes","male":"yes","wheelchair":"yes"}},{"type":"Feature","geometry":{"type":"Point","coordinates":[130.9589263,31.3912145]},"properties":{"id":11578277895,"element_type":"node","amenity":"toilets","wheelchair":"limited"}},{"type":"Feature","geometry":{"type":"Point","coordinates":[130.5233921,31.5300602]},"properties":{"id":11749357324,"element_type":"node","amenity":"toilets"}},{"type":"Feature","geometry":{"type":"Point","coordinates":[129.7172097,28.4718439]},"properties":{"id":11765944269,"element_type":"node","amenity":"toilets","opening_hours":"24/7"}},{"type":"Feature","geometry":{"type":"Point","coordinates":[130.2743194,31.8219015]},"properties":{"id":12019798314,"element_type":"node","amenity":"toilets"}},{"type":"Feature","geometry":{"type":"Point","coordinates":[129.1841809,28.1864847]},"properties":{"id":12114331972,"element_type":"node","access":"yes","amenity":"toilets"}},{"type":"Feature","geometry":{"type":"Point","coordinates":[129.2117608,28.1924079]},"properties":{"id":12114495774,"element_type":"node","access":"yes","amenity":"toilets"}},{"type":"Feature","geometry":{"type":"Point","coordinates":[129.2111194,28.1461337]},"properties":{"id":12115406628,"element_type":"node","access":"yes","amenity":"toilets"}},{"type":"Feature","geometry":{"type":"Point","coordinates":[130.6549152,30.3861733]},"properties":{"id":12125890510,"element_type":"node","amenity":"toilets"}},{"type":"Feature","geometry":{"type":"Point","coordinates":[129.2206201,28.1113988]},"properties":{"id":12162981017,"element_type":"node","access":"yes","amenity":"toilets"}},{"type":"Feature","geometry":{"type":"Point","coordinates":[130.5723551,30.4269242]},"properties":{"id":12165133622,"element_type":"node","amenity":"toilets"}},{"type":"Feature","geometry":{"type":"Point","coordinates":[130.5754749,30.3047665]},"properties":{"id":12167300810,"element_type":"node","amenity":"toilets"}},{"type":"Feature","geometry":{"type":"Point","coordinates":[130.5815355,30.2575932]},"properties":{"id":12167582752,"element_type":"node","amenity":"toilets"}},{"type":"Feature","geometry":{"type":"Point","coordinates":[130.5561238,30.2345597]},"properties":{"id":12252610948,"element_type":"node","access":"yes","amenity":"toilets"}},{"type":"Feature","geometry":{"type":"Point","coordinates":[129.2659679,28.0882052]},"properties":{"id":12346115172,"element_type":"node","access":"yes","amenity":"toilets"}},{"type":"Feature","geometry":{"type":"Point","coordinates":[129.3517084,28.1068818]},"properties":{"id":12348132200,"element_type":"node","access":"yes","amenity":"toilets"}},{"type":"Feature","geometry":{"type":"Point","coordinates":[129.3291366,28.0739632]},"properties":{"id":12355215516,"element_type":"node","access":"yes","amenity":"toilets"}},{"type":"Feature","geometry":{"type":"Point","coordinates":[129.3246825,28.0941632]},"properties":{"id":12358413689,"element_type":"node","access":"yes","amenity":"toilets"}},{"type":"Feature","geometry":{"type":"Point","coordinates":[131.0137633,31.3630236]},"properties":{"id":12387458301,"element_type":"node","amenity":"toilets","opening_hours":"24/7"}},{"type":"Feature","geometry":{"type":"Point","coordinates":[130.8507653,31.8646859]},"properties":{"id":12612373026,"element_type":"node","amenity":"toilets"}},{"type":"Feature","geometry":{"type":"Point","coordinates":[130.8534273,31.8648582]},"properties":{"id":12612373027,"element_type":"node","amenity":"toilets"}},{"type":"Feature","geometry":{"type":"Point","coordinates":[130.8519115,31.8679924]},"properties":{"id":12612373028,"element_type":"node","amenity":"toilets"}},{"type":"Feature","geometry":{"type":"Point","coordinates":[130.5590263,31.5844158]},"properties":{"id":12696460208,"element_type":"node","access":"yes","amenity":"toilets","fee":"no","toilets:disposal":"flush","toilets:position":"squat","unisex":"yes"}},{"type":"Feature","geometry":{"type":"Point","coordinates":[130.5509515,31.5802538]},"properties":{"id":12702260949,"element_type":"node","access":"yes","amenity":"toilets","building":"yes","fee":"no","source":"survey;local knowledge","toilets:disposal":"flush","unisex":"yes","wheelchair":"no"}},{"type":"Feature","geometry":{"type":"Point","coordinates":[130.5345024,31.2042152]},"properties":{"id":12722592701,"element_type":"node","amenity":"toilets"}},{"type":"Feature","geometry":{"type":"Point","coordinates":[130.5543646,31.5698073]},"properties":{"id":12749556597,"element_type":"node","access":"yes","amenity":"toilets","fee":"no","source":"survey","toilets:disposal":"flush","unisex":"yes"}},{"type":"Feature","geometry":{"type":"Point","coordinates":[130.5508992,31.5722525]},"properties":{"id":12749568146,"element_type":"node","access":"yes","amenity":"toilets","fee":"no","source":"survey","toilets:disposal":"flush","unisex":"yes"}},{"type":"Feature","geometry":{"type":"Point","coordinates":[130.550283,31.576043]},"properties":{"id":12749568164,"element_type":"node","access":"yes","amenity":"toilets","fee":"no","source":"survey","toilets:disposal":"flush","unisex":"yes"}},{"type":"Feature","geometry":{"type":"Point","coordinates":[130.4566994,31.4724581]},"properties":{"id":12751830168,"element_type":"node","access":"yes","amenity":"toilets","fee":"no"}},{"type":"Feature","geometry":{"type":"Point","coordinates":[130.6851733,31.8446086]},"properties":{"id":12759563496,"element_type":"node","amenity":"toilets","fee":"no","toilets:disposal":"flush","unisex":"yes","wheelchair":"yes"}},{"type":"Feature","geometry":{"type":"Point","coordinates":[130.4983252,31.6341069]},"properties":{"id":12769643535,"element_type":"node","amenity":"toilets","fee":"no","toilets:disposal":"flush","unisex":"yes","wheelchair":"no"}},{"type":"Feature","geometry":{"type":"Point","coordinates":[130.7229475,31.8265686]},"properties":{"id":12771973365,"element_type":"node","access":"yes","amenity":"toilets","fee":"no"}},{"type":"Feature","geometry":{"type":"Point","coordinates":[130.7452814,31.558725]},"properties":{"id":12798522535,"element_type":"node","amenity":"toilets","opening_hours":"24/7"}},{"type":"Feature","geometry":{"type":"Point","coordinates":[130.6349006,31.2030172]},"properties":{"id":12804753692,"element_type":"node","amenity":"toilets"}},{"type":"Feature","geometry":{"type":"Point","coordinates":[130.5941411,31.5908841]},"properties":{"id":12805593601,"element_type":"node","amenity":"toilets"}},{"type":"Feature","geometry":{"type":"Point","coordinates":[130.5582048,31.5735335]},"properties":{"id":12808882866,"element_type":"node","amenity":"toilets","fee":"no","toilets:disposal":"flush","unisex":"yes","wheelchair":"no"}},{"type":"Feature","geometry":{"type":"Point","coordinates":[130.5510524,31.5940033]},"properties":{"id":12813738392,"element_type":"node","amenity":"toilets"}},{"type":"Feature","geometry":{"type":"Point","coordinates":[130.5506895,31.5941392]},"properties":{"id":12813738398,"element_type":"node","amenity":"toilets"}},{"type":"Feature","geometry":{"type":"Point","coordinates":[130.5493208,31.5974064]},"properties":{"id":12813738399,"element_type":"node","amenity":"toilets"}},{"type":"Feature","geometry":{"type":"Point","coordinates":[130.5494495,31.597253]},"properties":{"id":12813743409,"element_type":"node","amenity":"toilets"}},{"type":"Feature","geometry":{"type":"Point","coordinates":[130.5731978,31.6045589]},"properties":{"id":12814174018,"element_type":"node","access":"yes","amenity":"toilets","fee":"no","toilets:disposal":"flush","unisex":"yes","wheelchair":"no"}},{"type":"Feature","geometry":{"type":"Point","coordinates":[130.5722993,30.4239901]},"properties":{"id":12816307201,"element_type":"node","amenity":"toilets"}},{"type":"Feature","geometry":{"type":"Point","coordinates":[130.574495,30.3800884]},"properties":{"id":12818319276,"element_type":"node","amenity":"toilets","toilets:disposal":"chemical"}},{"type":"Feature","geometry":{"type":"Point","coordinates":[130.4839968,30.2318193]},"properties":{"id":12818319277,"element_type":"node","access":"yes","amenity":"toilets","fee":"no","female":"yes","male":"yes","toilets:disposal":"flush"}},{"type":"Feature","geometry":{"type":"Point","coordinates":[130.5869261,30.4188852]},"properties":{"id":12824168635,"element_type":"node","access":"customers","amenity":"toilets"}},{"type":"Feature","geometry":{"type":"Point","coordinates":[130.5717155,30.4193977]},"properties":{"id":12824168643,"element_type":"node","amenity":"toilets"}},{"type":"Feature","geometry":{"type":"Point","coordinates":[130.4144789,30.2978467]},"properties":{"id":12825399701,"element_type":"node","amenity":"toilets"}},{"type":"Feature","geometry":{"type":"Point","coordinates":[130.254904,31.417513]},"properties":{"id":12855700616,"element_type":"node","access":"yes","amenity":"toilets","fee":"no","toilets:disposal":"flush","unisex":"yes"}},{"type":"Feature","geometry":{"type":"Point","coordinates":[130.5664842,31.5713327]},"properties":{"id":12860820828,"element_type":"node","access":"yes","amenity":"toilets","fee":"no","male":"yes","toilets:disposal":"flush"}},{"type":"Feature","geometry":{"type":"Point","coordinates":[130.5553584,31.5823839]},"properties":{"id":12872979044,"element_type":"node","access":"yes","amenity":"toilets","fee":"no","toilets:disposal":"flush","unisex":"yes","wheelchair":"no"}},{"type":"Feature","geometry":{"type":"Point","coordinates":[130.6591538,30.9970702]},"properties":{"id":12880351567,"element_type":"node","amenity":"toilets"}},{"type":"Feature","geometry":{"type":"Point","coordinates":[130.5664372,31.5747005]},"properties":{"id":12883464408,"element_type":"node","access":"yes","amenity":"toilets","toilets:disposal":"flush","unisex":"yes","wheelchair":"no"}},{"type":"Feature","geometry":{"type":"Point","coordinates":[130.5582726,31.5850653]},"properties":{"id":12906314625,"element_type":"node","access":"yes","amenity":"toilets","fee":"no","indoor":"yes","level":"0","toilets:disposal":"flush","unisex":"yes"}},{"type":"Feature","geometry":{"type":"Point","coordinates":[130.5583785,31.5848333]},"properties":{"id":12906314626,"element_type":"node","access":"yes","amenity":"toilets","fee":"no","indoor":"yes","level":"0","toilets:disposal":"flush","unisex":"yes"}},{"type":"Feature","geometry":{"type":"Point","coordinates":[130.6592068,30.3171732]},"properties":{"id":13012955699,"element_type":"node","amenity":"toilets"}},{"type":"Feature","geometry":{"type":"Point","coordinates":[130.577662,30.3536972]},"properties":{"id":13012974328,"element_type":"node","amenity":"toilets"}},{"type":"Feature","geometry":{"type":"Point","coordinates":[130.5954408,30.3394579]},"properties":{"id":13012982050,"element_type":"node","amenity":"toilets"}},{"type":"Feature","geometry":{"type":"Point","coordinates":[130.5704663,30.3706006]},"properties":{"id":13012983926,"element_type":"node","amenity":"toilets"}},{"type":"Feature","geometry":{"type":"Point","coordinates":[130.6316476,30.3098735]},"properties":{"id":13012996307,"element_type":"node","amenity":"toilets"}},{"type":"Feature","geometry":{"type":"Point","coordinates":[128.4087358,27.0470815]},"properties":{"id":13059536245,"element_type":"node","amenity":"toilets"}},{"type":"Feature","geometry":{"type":"Point","coordinates":[130.54335492,31.58398606]},"properties":{"id":117143314,"element_type":"way","amenity":"toilets","building":"yes","fee":"no","source":"Bing","wheelchair":"yes"}},{"type":"Feature","geometry":{"type":"Point","coordinates":[130.5470153111111,31.585359288888892]},"properties":{"id":117143626,"element_type":"way","amenity":"toilets","building":"toilets","fee":"no","toilets:disposal":"flush","unisex":"yes","wheelchair":"yes"}},{"type":"Feature","geometry":{"type":"Point","coordinates":[130.54620996,31.58696058]},"properties":{"id":117148347,"element_type":"way","amenity":"toilets","building":"toilets","fee":"no","toilets:disposal":"flush","unisex":"yes","wheelchair":"yes"}},{"type":"Feature","geometry":{"type":"Point","coordinates":[130.50260097999998,31.64546746]},"properties":{"id":197881981,"element_type":"way","amenity":"toilets"}},{"type":"Feature","geometry":{"type":"Point","coordinates":[130.60081107,31.58181948]},"properties":{"id":206187479,"element_type":"way","amenity":"toilets","building":"yes"}},{"type":"Feature","geometry":{"type":"Point","coordinates":[130.70330122000001,31.557017339999998]},"properties":{"id":285201917,"element_type":"way","access":"yes","amenity":"toilets","building":"yes","fee":"no"}},{"type":"Feature","geometry":{"type":"Point","coordinates":[130.67732728000001,31.55419662]},"properties":{"id":286427912,"element_type":"way","amenity":"toilets","building":"yes","building:colour":"brown","fee":"no","wheelchair":"limited"}},{"type":"Feature","geometry":{"type":"Point","coordinates":[131.07484043076923,31.24977001538462]},"properties":{"id":286429614,"element_type":"way","amenity":"toilets","building":"yes","fee":"no"}},{"type":"Feature","geometry":{"type":"Point","coordinates":[130.6308591,31.55531978]},"properties":{"id":288392394,"element_type":"way","access":"yes","amenity":"toilets","building":"yes"}},{"type":"Feature","geometry":{"type":"Point","coordinates":[130.85888856,31.368416460000002]},"properties":{"id":288456253,"element_type":"way","access":"yes","amenity":"toilets","building":"yes","toilets:disposal":"flush"}},{"type":"Feature","geometry":{"type":"Point","coordinates":[130.8592823,31.3702843]},"properties":{"id":288456254,"element_type":"way","amenity":"toilets","building":"yes","toilets:disposal":"flush"}},{"type":"Feature","geometry":{"type":"Point","coordinates":[130.31138626,31.933631600000002]},"properties":{"id":291943435,"element_type":"way","amenity":"toilets","building":"yes"}},{"type":"Feature","geometry":{"type":"Point","coordinates":[130.2885804,31.959971920000005]},"properties":{"id":292012563,"element_type":"way","access":"yes","amenity":"toilets","building":"yes"}},{"type":"Feature","geometry":{"type":"Point","coordinates":[130.43381417999998,31.59970886]},"properties":{"id":295490733,"element_type":"way","amenity":"toilets","building":"yes","operator":"鹿児島市","toilets:disposal":"flush"}},{"type":"Feature","geometry":{"type":"Point","coordinates":[130.43036990000002,31.592320900000004]},"properties":{"id":295490735,"element_type":"way","access":"yes","amenity":"toilets","building":"yes","operator":"鹿児島市","toilets:disposal":"flush"}},{"type":"Feature","geometry":{"type":"Point","coordinates":[130.50806646,31.464090140000003]},"properties":{"id":296883647,"element_type":"way","amenity":"toilets","building":"yes"}},{"type":"Feature","geometry":{"type":"Point","coordinates":[130.50643681999998,31.52500292]},"properties":{"id":301013391,"element_type":"way","amenity":"toilets","building":"yes"}},{"type":"Feature","geometry":{"type":"Point","coordinates":[130.46651052,31.62883238]},"properties":{"id":302417500,"element_type":"way","amenity":"toilets","building":"yes"}},{"type":"Feature","geometry":{"type":"Point","coordinates":[130.55340612,31.593569060000004]},"properties":{"id":304384003,"element_type":"way","amenity":"toilets","building":"yes","fee":"no","wheelchair":"yes"}},{"type":"Feature","geometry":{"type":"Point","coordinates":[130.56918222,31.605355199999998]},"properties":{"id":304390257,"element_type":"way","access":"yes","amenity":"toilets","building":"toilets","fee":"no","toilets:disposal":"flush","unisex":"yes","wheelchair":"limited"}},{"type":"Feature","geometry":{"type":"Point","coordinates":[130.55035188000002,31.5637409]},"properties":{"id":306544039,"element_type":"way","access":"yes","amenity":"toilets","building":"yes","drinking_water":"no","fee":"no","operator":"鹿児島市","source":"GSI/KIBAN 2500; NARO","toilets:disposal":"flush"}},{"type":"Feature","geometry":{"type":"Point","coordinates":[130.38987376,31.630116479999998]},"properties":{"id":308574690,"element_type":"way","access":"yes","amenity":"toilets","building":"yes","operator":"日置市","toilets:disposal":"flush"}},{"type":"Feature","geometry":{"type":"Point","coordinates":[130.54546557999998,31.58276818]},"properties":{"id":312036136,"element_type":"way","access":"yes","amenity":"toilets","building":"toilets","fee":"no","toilets:disposal":"flush","unisex":"yes","wheelchair":"yes"}},{"type":"Feature","geometry":{"type":"Point","coordinates":[130.6145373857143,31.727766257142857]},"properties":{"id":325345845,"element_type":"way","access":"yes","amenity":"toilets","building":"yes","fee":"no","operator":"西日本高速道路","toilets:disposal":"flush","toilets:position":"seated;urinal","wheelchair":"yes"}},{"type":"Feature","geometry":{"type":"Point","coordinates":[130.45740922,31.579638139999997]},"properties":{"id":334532497,"element_type":"way","access":"yes","amenity":"toilets","building":"yes","toilets:disposal":"flush"}},{"type":"Feature","geometry":{"type":"Point","coordinates":[130.35622819999998,31.638860060000003]},"properties":{"id":336702622,"element_type":"way","amenity":"toilets","building":"yes","operator":"西日本高速道路","toilets:disposal":"flush"}},{"type":"Feature","geometry":{"type":"Point","coordinates":[130.35736065999998,31.63980324]},"properties":{"id":336702625,"element_type":"way","amenity":"toilets","building":"yes","operator":"西日本高速道路","toilets:disposal":"flush"}},{"type":"Feature","geometry":{"type":"Point","coordinates":[130.4574656,31.583332440000003]},"properties":{"id":338131292,"element_type":"way","access":"private","amenity":"toilets","building":"yes","toilets:disposal":"flush"}},{"type":"Feature","geometry":{"type":"Point","coordinates":[130.46025903999998,31.59230606]},"properties":{"id":338137994,"element_type":"way","amenity":"toilets","building":"yes","toilets:disposal":"flush"}},{"type":"Feature","geometry":{"type":"Point","coordinates":[130.57495838,31.6152261]},"properties":{"id":347633838,"element_type":"way","access":"yes","amenity":"toilets","building":"yes","operator":"鹿児島市","toilets:disposal":"flush","unisex":"yes"}},{"type":"Feature","geometry":{"type":"Point","coordinates":[130.60141443999999,31.6583056]},"properties":{"id":361158030,"element_type":"way","access":"yes","amenity":"toilets","building":"yes","operator":"鹿児島市","toilets:disposal":"flush"}},{"type":"Feature","geometry":{"type":"Point","coordinates":[130.6065695,31.660134925]},"properties":{"id":361159065,"element_type":"way","access":"yes","amenity":"toilets","building":"yes","operator":"鹿児島市","toilets:disposal":"pitlatrine"}},{"type":"Feature","geometry":{"type":"Point","coordinates":[130.55659086,31.53611602]},"properties":{"id":366503609,"element_type":"way","amenity":"toilets","building":"yes","fee":"no","toilets:disposal":"flush","wheelchair":"yes"}},{"type":"Feature","geometry":{"type":"Point","coordinates":[130.5777362,31.6176123]},"properties":{"id":400577217,"element_type":"way","amenity":"toilets","building":"yes"}},{"type":"Feature","geometry":{"type":"Point","coordinates":[130.58152396,31.61879536]},"properties":{"id":404013392,"element_type":"way","amenity":"toilets","building":"yes","changing_table":"no","wheelchair":"yes"}},{"type":"Feature","geometry":{"type":"Point","coordinates":[131.10682284,31.481405539999997]},"properties":{"id":404049942,"element_type":"way","amenity":"toilets","building":"yes"}},{"type":"Feature","geometry":{"type":"Point","coordinates":[130.6549822,30.31199484]},"properties":{"id":432821983,"element_type":"way","amenity":"toilets","building":"yes"}},{"type":"Feature","geometry":{"type":"Point","coordinates":[130.63651922857144,30.399744485714287]},"properties":{"id":432847358,"element_type":"way","amenity":"toilets","building":"yes","name":"ふれあいパーク屋久島"}},{"type":"Feature","geometry":{"type":"Point","coordinates":[130.56267848,31.60007486]},"properties":{"id":488843326,"element_type":"way","access":"yes","amenity":"toilets","building":"toilets","changing_table":"yes","changing_table:location":"unisex_toilet","changing_table:wheelchair":"yes","fee":"no","toilets:disposal":"flush","toilets:wheelchair":"yes","unisex":"yes","wheelchair":"yes"}},{"type":"Feature","geometry":{"type":"Point","coordinates":[130.44800538888887,31.380217444444447]},"properties":{"id":515733890,"element_type":"way","amenity":"toilets","building":"yes","source":"Bing"}},{"type":"Feature","geometry":{"type":"Point","coordinates":[130.44707236666665,31.37961835]},"properties":{"id":515733892,"element_type":"way","amenity":"toilets","building":"yes","source":"Bing"}},{"type":"Feature","geometry":{"type":"Point","coordinates":[130.44489468,31.37817784]},"properties":{"id":515733913,"element_type":"way","amenity":"toilets","building":"yes","source":"Bing"}},{"type":"Feature","geometry":{"type":"Point","coordinates":[130.444994,31.378720019999996]},"properties":{"id":515733925,"element_type":"way","amenity":"toilets","building":"yes","source":"Bing"}},{"type":"Feature","geometry":{"type":"Point","coordinates":[130.44105568,31.3766847]},"properties":{"id":518968735,"element_type":"way","amenity":"toilets","building":"yes","source":"Bing"}},{"type":"Feature","geometry":{"type":"Point","coordinates":[130.69567772,31.508468200000003]},"properties":{"id":543201100,"element_type":"way","addr:street":"垂水市錦江１－１９９","amenity":"toilets","building":"yes","name":"荒崎パーキングエリア","toilets:wheelchair":"yes","wheelchair":"yes","wheelchair:description":"多目的トイレは、鉄扉の為、握力ない方は少し重たいと思います。"}},{"type":"Feature","geometry":{"type":"Point","coordinates":[130.54086414,31.579346559999998]},"properties":{"id":543917572,"element_type":"way","access":"yes","amenity":"toilets","building":"toilets","fee":"no","source":"survey;local knowledge","toilets:disposal":"flush","unisex":"yes","wheelchair":"yes"}},{"type":"Feature","geometry":{"type":"Point","coordinates":[130.95895406,30.534766480000002]},"properties":{"id":546243733,"element_type":"way","amenity":"toilets","building":"yes"}},{"type":"Feature","geometry":{"type":"Point","coordinates":[129.49420858,28.37864368]},"properties":{"id":548045755,"element_type":"way","amenity":"toilets","building":"yes"}},{"type":"Feature","geometry":{"type":"Point","coordinates":[130.95861404,30.500194959999998]},"properties":{"id":560005490,"element_type":"way","amenity":"toilets","building":"yes"}},{"type":"Feature","geometry":{"type":"Point","coordinates":[130.89626876000003,31.88521732]},"properties":{"id":582718500,"element_type":"way","amenity":"toilets","building":"yes","source":"GSImaps/ort"}},{"type":"Feature","geometry":{"type":"Point","coordinates":[130.89554447777778,31.88556885555556]},"properties":{"id":582718505,"element_type":"way","amenity":"toilets","building":"yes","source":"GSImaps/ort"}},{"type":"Feature","geometry":{"type":"Point","coordinates":[130.57053146,31.761287399999997]},"properties":{"id":583087835,"element_type":"way","amenity":"toilets","building":"yes"}},{"type":"Feature","geometry":{"type":"Point","coordinates":[130.77826037999998,31.37996044]},"properties":{"id":589860864,"element_type":"way","access":"yes","amenity":"toilets","building":"yes","toilets:disposal":"flush","wheelchair":"yes"}},{"type":"Feature","geometry":{"type":"Point","coordinates":[130.60201732000002,31.7253151]},"properties":{"id":648613779,"element_type":"way","amenity":"toilets","building":"yes"}},{"type":"Feature","geometry":{"type":"Point","coordinates":[130.60049936000001,31.746284480000003]},"properties":{"id":657097064,"element_type":"way","amenity":"toilets","building":"yes"}},{"type":"Feature","geometry":{"type":"Point","coordinates":[130.60916068,31.741566279999994]},"properties":{"id":657097066,"element_type":"way","amenity":"toilets","building":"yes"}},{"type":"Feature","geometry":{"type":"Point","coordinates":[130.56984726000002,31.60619846]},"properties":{"id":666261524,"element_type":"way","amenity":"toilets","building":"yes","unisex":"yes"}},{"type":"Feature","geometry":{"type":"Point","coordinates":[130.60843271999997,31.75173942]},"properties":{"id":667786758,"element_type":"way","amenity":"toilets","building":"yes"}},{"type":"Feature","geometry":{"type":"Point","coordinates":[130.60492832,31.74768722]},"properties":{"id":668580418,"element_type":"way","amenity":"toilets","building":"yes"}},{"type":"Feature","geometry":{"type":"Point","coordinates":[130.56654880000002,31.76009116]},"properties":{"id":668581753,"element_type":"way","amenity":"toilets","building":"yes"}},{"type":"Feature","geometry":{"type":"Point","coordinates":[130.55998375714285,31.578468928571432]},"properties":{"id":733331828,"element_type":"way","amenity":"toilets","building":"toilets","fee":"no","source":"survey;local knowledge","toilets:disposal":"flush","unisex":"yes","wheelchair":"yes"}},{"type":"Feature","geometry":{"type":"Point","coordinates":[130.55338282,31.582067560000002]},"properties":{"id":733518786,"element_type":"way","amenity":"toilets","building":"toilets","fee":"no","source":"survey;local knowledge","toilets:disposal":"flush","unisex":"yes"}},{"type":"Feature","geometry":{"type":"Point","coordinates":[130.55317155555556,31.58013722222222]},"properties":{"id":734020455,"element_type":"way","amenity":"toilets","building":"toilets","fee":"no","source":"survey;local knowledge","toilets:disposal":"flush","unisex":"yes"}},{"type":"Feature","geometry":{"type":"Point","coordinates":[130.55614338,31.579485979999998]},"properties":{"id":734022876,"element_type":"way","amenity":"toilets","building":"toilets","fee":"no","toilets:disposal":"flush","unisex":"yes","wheelchair":"yes"}},{"type":"Feature","geometry":{"type":"Point","coordinates":[129.6506817,28.46318152]},"properties":{"id":741897027,"element_type":"way","amenity":"toilets","building":"yes","source":"Bing"}},{"type":"Feature","geometry":{"type":"Point","coordinates":[130.63298412,31.721661779999998]},"properties":{"id":787064824,"element_type":"way","amenity":"toilets","building":"yes"}},{"type":"Feature","geometry":{"type":"Point","coordinates":[130.74289114,32.023257320000006]},"properties":{"id":856263534,"element_type":"way","amenity":"toilets","building":"yes"}},{"type":"Feature","geometry":{"type":"Point","coordinates":[130.53424416000001,31.19498284]},"properties":{"id":875378838,"element_type":"way","amenity":"toilets","building":"public","building:levels":"1"}},{"type":"Feature","geometry":{"type":"Point","coordinates":[130.53284428,31.195678859999997]},"properties":{"id":875396467,"element_type":"way","amenity":"toilets","building":"yes","building:levels":"1"}},{"type":"Feature","geometry":{"type":"Point","coordinates":[130.55897332,31.57942564]},"properties":{"id":895258905,"element_type":"way","amenity":"toilets","building":"toilets","fee":"no","source":"survey;local knowledge","toilets:disposal":"flush","unisex":"yes","wheelchair":"yes"}},{"type":"Feature","geometry":{"type":"Point","coordinates":[130.55875724,31.5778184]},"properties":{"id":895258906,"element_type":"way","amenity":"toilets","building":"toilets","fee":"no","source":"GSImaps/std","toilets:disposal":"flush","unisex":"yes"}},{"type":"Feature","geometry":{"type":"Point","coordinates":[130.55389342,31.58088294]},"properties":{"id":895258907,"element_type":"way","amenity":"toilets","building":"toilets","fee":"no","source":"survey;local knowledge","toilets:disposal":"flush","unisex":"yes"}},{"type":"Feature","geometry":{"type":"Point","coordinates":[130.55602788000002,31.58074494]},"properties":{"id":895258979,"element_type":"way","amenity":"toilets","building":"toilets","fee":"no","source":"survey;local knowledge","toilets:disposal":"flush","unisex":"yes"}},{"type":"Feature","geometry":{"type":"Point","coordinates":[130.56280764,31.59436648]},"properties":{"id":895910273,"element_type":"way","access":"yes","amenity":"toilets","building":"toilets","building:colour":"white","designation":"Japan and Europeen's Toilets","fee":"no","source":"GSImaps/std","toilets:disposal":"flush","unisex":"yes","wheelchair":"limited"}},{"type":"Feature","geometry":{"type":"Point","coordinates":[130.56440260000002,31.59191708]},"properties":{"id":895910274,"element_type":"way","access":"yes","amenity":"toilets","building":"toilets","fee":"no","source":"GSImaps/std","toilets:disposal":"flush","unisex":"yes","wheelchair":"yes"}},{"type":"Feature","geometry":{"type":"Point","coordinates":[130.23537362,32.27617554]},"properties":{"id":918289096,"element_type":"way","amenity":"toilets","building":"yes","name":"七郎山山頂トイレ","name:en":"Shichirouzan Toilet","wheelchair":"limited"}},{"type":"Feature","geometry":{"type":"Point","coordinates":[130.18244310000003,32.21603092]},"properties":{"id":919985261,"element_type":"way","amenity":"toilets","building":"yes"}},{"type":"Feature","geometry":{"type":"Point","coordinates":[130.179176925,32.21628188]},"properties":{"id":920004442,"element_type":"way","amenity":"toilets","building":"yes","name":"針尾空中展望トイレ","name:en":"Hario Observation Platform and Toilet"}},{"type":"Feature","geometry":{"type":"Point","coordinates":[130.1534303,32.14461106]},"properties":{"id":922809747,"element_type":"way","amenity":"toilets","building":"yes","name":"Windmill Park Toilet"}},{"type":"Feature","geometry":{"type":"Point","coordinates":[130.11301018,32.1260918]},"properties":{"id":922865986,"element_type":"way","amenity":"toilets","building":"yes"}},{"type":"Feature","geometry":{"type":"Point","coordinates":[130.1401487,32.10830558]},"properties":{"id":922882634,"element_type":"way","amenity":"toilets","building":"yes"}},{"type":"Feature","geometry":{"type":"Point","coordinates":[130.16979116000002,32.10851534]},"properties":{"id":923074952,"element_type":"way","amenity":"toilets","building":"yes"}},{"type":"Feature","geometry":{"type":"Point","coordinates":[130.16633652,32.176036239999995]},"properties":{"id":923768088,"element_type":"way","amenity":"toilets","building":"yes"}},{"type":"Feature","geometry":{"type":"Point","coordinates":[130.59840644000002,31.72782474]},"properties":{"id":971485085,"element_type":"way","amenity":"toilets","building":"yes"}},{"type":"Feature","geometry":{"type":"Point","coordinates":[130.67092636,31.73069468]},"properties":{"id":977462760,"element_type":"way","amenity":"toilets","building":"yes"}},{"type":"Feature","geometry":{"type":"Point","coordinates":[130.67084982,31.732676559999998]},"properties":{"id":977462779,"element_type":"way","amenity":"toilets","building":"yes"}},{"type":"Feature","geometry":{"type":"Point","coordinates":[130.66527164,31.729669120000004]},"properties":{"id":977462814,"element_type":"way","amenity":"toilets","building":"yes"}},{"type":"Feature","geometry":{"type":"Point","coordinates":[130.66058339999998,30.31861464]},"properties":{"id":992952320,"element_type":"way","access":"yes","amenity":"toilets","building":"yes","toilets:disposal":"flush","unisex":"yes"}},{"type":"Feature","geometry":{"type":"Point","coordinates":[130.35643804,31.642194099999994]},"properties":{"id":1017291239,"element_type":"way","access":"yes","amenity":"toilets","building":"yes","fee":"no","female":"yes","male":"yes","toilets:disposal":"flush"}},{"type":"Feature","geometry":{"type":"Point","coordinates":[130.3620446,31.642349380000002]},"properties":{"id":1017291241,"element_type":"way","access":"yes","amenity":"toilets","building":"yes","fee":"no","operator":"美山自治公民館","toilets:disposal":"flush"}},{"type":"Feature","geometry":{"type":"Point","coordinates":[130.55641394000003,31.53594008]},"properties":{"id":1040377989,"element_type":"way","access":"yes","amenity":"toilets","building":"yes","changing_table":"yes","changing_table:count":"2","changing_table:location":"unisex_toilet","drinking_water":"no","fee":"no","female":"yes","male":"yes","toilets:disposal":"flush","toilets:position":"seated;urinal"}},{"type":"Feature","geometry":{"type":"Point","coordinates":[130.66261519999998,31.263722539999996]},"properties":{"id":1044308351,"element_type":"way","access":"yes","amenity":"toilets","building":"toilets","fee":"no","female":"yes","male":"yes","portable":"no","toilets:disposal":"flush","toilets:handwashing":"yes","unisex":"yes"}},{"type":"Feature","geometry":{"type":"Point","coordinates":[131.03184166,30.766107319999996]},"properties":{"id":1064494314,"element_type":"way","amenity":"toilets","building":"yes","source":"Bing"}},{"type":"Feature","geometry":{"type":"Point","coordinates":[130.64137755,30.31505765]},"properties":{"id":1082603916,"element_type":"way","amenity":"toilets","building":"yes"}},{"type":"Feature","geometry":{"type":"Point","coordinates":[130.65242096666668,30.30091168888889]},"properties":{"id":1083365682,"element_type":"way","amenity":"toilets","building":"yes"}},{"type":"Feature","geometry":{"type":"Point","coordinates":[130.82410643999998,31.383076800000005]},"properties":{"id":1086749872,"element_type":"way","amenity":"toilets","building":"yes"}},{"type":"Feature","geometry":{"type":"Point","coordinates":[130.55658234,31.587683320000004]},"properties":{"id":1182521574,"element_type":"way","amenity":"toilets","building":"toilets","fee":"no","toilets:disposal":"flush","unisex":"yes","wheelchair":"yes"}},{"type":"Feature","geometry":{"type":"Point","coordinates":[130.55576988,31.588152]},"properties":{"id":1182521575,"element_type":"way","amenity":"toilets","building":"toilets","fee":"no","toilets:disposal":"flush","unisex":"yes","wheelchair":"yes"}},{"type":"Feature","geometry":{"type":"Point","coordinates":[130.66126888,31.740523239999998]},"properties":{"id":1204067317,"element_type":"way","amenity":"toilets","building":"yes"}},{"type":"Feature","geometry":{"type":"Point","coordinates":[130.96117956,31.779722980000003]},"properties":{"id":1208245661,"element_type":"way","amenity":"toilets","building":"yes"}},{"type":"Feature","geometry":{"type":"Point","coordinates":[130.95896384,31.39119718]},"properties":{"id":1245452189,"element_type":"way","amenity":"toilets","building":"yes"}},{"type":"Feature","geometry":{"type":"Point","coordinates":[129.568173705,28.456366249999995]},"properties":{"id":1257678574,"element_type":"way","amenity":"toilets","building":"yes"}},{"type":"Feature","geometry":{"type":"Point","coordinates":[129.58787466,28.466347300000002]},"properties":{"id":1257803523,"element_type":"way","amenity":"toilets","building":"yes"}},{"type":"Feature","geometry":{"type":"Point","coordinates":[129.5949316,28.454068760000002]},"properties":{"id":1258977485,"element_type":"way","access":"yes","amenity":"toilets","building":"yes","changing_table":"yes","fee":"no","opening_hours":"24/7","toilets:disposal":"flush","toilets:handwashing":"yes","wheelchair":"yes"}},{"type":"Feature","geometry":{"type":"Point","coordinates":[129.6571046090909,28.427322827272725]},"properties":{"id":1263401738,"element_type":"way","amenity":"toilets","building":"yes"}},{"type":"Feature","geometry":{"type":"Point","coordinates":[129.65062245384615,28.453771546153842]},"properties":{"id":1263454911,"element_type":"way","amenity":"toilets","building":"yes"}},{"type":"Feature","geometry":{"type":"Point","coordinates":[129.66825211999998,28.512489119999998]},"properties":{"id":1264382652,"element_type":"way","amenity":"toilets","building":"yes"}},{"type":"Feature","geometry":{"type":"Point","coordinates":[129.69084862,28.50027644]},"properties":{"id":1264542106,"element_type":"way","amenity":"toilets","building":"yes"}},{"type":"Feature","geometry":{"type":"Point","coordinates":[129.69563528,28.48867828]},"properties":{"id":1265144369,"element_type":"way","amenity":"toilets","building":"yes"}},{"type":"Feature","geometry":{"type":"Point","coordinates":[129.71326845454544,28.442559099999997]},"properties":{"id":1265713448,"element_type":"way","amenity":"toilets","building":"yes"}},{"type":"Feature","geometry":{"type":"Point","coordinates":[129.61753491999997,28.403058499999997]},"properties":{"id":1268352870,"element_type":"way","amenity":"toilets","building":"yes"}},{"type":"Feature","geometry":{"type":"Point","coordinates":[130.5242763,31.556974200000003]},"properties":{"id":1278776763,"element_type":"way","amenity":"toilets","building":"yes"}},{"type":"Feature","geometry":{"type":"Point","coordinates":[129.4736185,28.395543100000005]},"properties":{"id":1278779598,"element_type":"way","access":"yes","amenity":"toilets","building":"yes"}},{"type":"Feature","geometry":{"type":"Point","coordinates":[130.27926134,31.252076639999995]},"properties":{"id":1306081042,"element_type":"way","access":"yes","amenity":"toilets","building":"yes","fee":"no","toilets:disposal":"flush"}},{"type":"Feature","geometry":{"type":"Point","coordinates":[130.00934483999998,28.36627502]},"properties":{"id":1307514895,"element_type":"way","amenity":"toilets","building":"yes"}},{"type":"Feature","geometry":{"type":"Point","coordinates":[130.030362,28.363856433333336]},"properties":{"id":1307514896,"element_type":"way","amenity":"toilets","building":"yes"}},{"type":"Feature","geometry":{"type":"Point","coordinates":[130.0061171,28.338905899999997]},"properties":{"id":1307514908,"element_type":"way","amenity":"toilets","building":"yes"}},{"type":"Feature","geometry":{"type":"Point","coordinates":[129.21888192,28.141319799999998]},"properties":{"id":1309882325,"element_type":"way","access":"yes","amenity":"toilets","building":"yes"}},{"type":"Feature","geometry":{"type":"Point","coordinates":[128.44208142000002,27.021752699999997]},"properties":{"id":1343988288,"element_type":"way","amenity":"toilets","building":"yes"}},{"type":"Feature","geometry":{"type":"Point","coordinates":[128.45483288,27.023517700000003]},"properties":{"id":1344037535,"element_type":"way","amenity":"toilets","building":"yes"}},{"type":"Feature","geometry":{"type":"Point","coordinates":[128.40408596,27.03962772]},"properties":{"id":1344038750,"element_type":"way","amenity":"toilets","building":"yes"}},{"type":"Feature","geometry":{"type":"Point","coordinates":[128.40874741538462,27.047054830769234]},"properties":{"id":1353009130,"element_type":"way","amenity":"toilets","building":"yes"}},{"type":"Feature","geometry":{"type":"Point","coordinates":[130.56288762,31.585698700000002]},"properties":{"id":1371666917,"element_type":"way","access":"yes","amenity":"toilets","building":"toilets","fee":"no","source":"survey;local knowledge","unisex":"yes","wheelchair":"no"}},{"type":"Feature","geometry":{"type":"Point","coordinates":[130.56227922,31.578926059999997]},"properties":{"id":1371666918,"element_type":"way","access":"yes","amenity":"toilets","building":"toilets","fee":"no","source":"survey;local knowledge","toilets:disposal":"flush","unisex":"yes","wheelchair":"no"}},{"type":"Feature","geometry":{"type":"Point","coordinates":[130.52525898,31.497278540000003]},"properties":{"id":1371666921,"element_type":"way","access":"yes","amenity":"toilets","fee":"no","toilets:disposal":"flush","unisex":"yes"}},{"type":"Feature","geometry":{"type":"Point","coordinates":[130.31574772,31.409611039999998]},"properties":{"id":1372668969,"element_type":"way","access":"yes","amenity":"toilets","building":"toilets","fee":"no","toilets:disposal":"flush","unisex":"yes"}},{"type":"Feature","geometry":{"type":"Point","coordinates":[130.79325856,31.734226259999996]},"properties":{"id":1373387647,"element_type":"way","access":"yes","amenity":"toilets","building":"yes","fee":"no","source":"survey;local knowledge","unisex":"yes","wheelchair":"yes"}},{"type":"Feature","geometry":{"type":"Point","coordinates":[130.79135636,31.734566039999997]},"properties":{"id":1373387648,"element_type":"way","access":"yes","amenity":"toilets","building":"yes","fee":"no","source":"survey;local knowledge","unisex":"yes","wheelchair":"yes"}},{"type":"Feature","geometry":{"type":"Point","coordinates":[130.64631673333332,31.238609333333336]},"properties":{"id":1375998396,"element_type":"way","access":"yes","amenity":"toilets","building":"yes","fee":"no","toilets:disposal":"flush","unisex":"yes"}},{"type":"Feature","geometry":{"type":"Point","coordinates":[130.56052148,31.595070940000006]},"properties":{"id":1376105625,"element_type":"way","access":"yes","amenity":"toilets","building":"toilets","fee":"no","toilets:disposal":"flush","unisex":"yes","wheelchair":"yes"}},{"type":"Feature","geometry":{"type":"Point","coordinates":[130.6863575,31.84526635555555]},"properties":{"id":1378038834,"element_type":"way","amenity":"toilets","building":"toilets","fee":"no","toilets:disposal":"flush","unisex":"yes","wheelchair":"yes"}},{"type":"Feature","geometry":{"type":"Point","coordinates":[130.55204378000002,31.594148139999998]},"properties":{"id":1378883137,"element_type":"way","amenity":"toilets","building":"toilets","fee":"no","source":"survey","toilets:disposal":"flush","unisex":"yes","wheelchair":"yes"}},{"type":"Feature","geometry":{"type":"Point","coordinates":[130.54951474,31.5975099]},"properties":{"id":1378912422,"element_type":"way","amenity":"toilets","building":"toilets","fee":"no","toilets:disposal":"flush","unisex":"yes"}},{"type":"Feature","geometry":{"type":"Point","coordinates":[130.5494757,31.597325599999998]},"properties":{"id":1378912424,"element_type":"way","amenity":"toilets","building":"toilets","check_date":"2023-03-22","fee":"no","toilets:disposal":"flush","unisex":"yes","wheelchair":"yes"}},{"type":"Feature","geometry":{"type":"Point","coordinates":[130.55034559999999,31.596614080000002]},"properties":{"id":1378912426,"element_type":"way","amenity":"toilets","building":"toilets","check_date":"2023-03-22","fee":"no","toilets:disposal":"flush","unisex":"yes","wheelchair":"yes"}},{"type":"Feature","geometry":{"type":"Point","coordinates":[130.72244298,31.949724359999998]},"properties":{"id":1379323546,"element_type":"way","access":"yes","amenity":"toilets","building":"toilets","fee":"no","toilets:disposal":"flush","unisex":"yes"}},{"type":"Feature","geometry":{"type":"Point","coordinates":[130.5511234,31.583755620000005]},"properties":{"id":1381577101,"element_type":"way","amenity":"toilets","building":"toilets","fee":"no","toilets:disposal":"flush","unisex":"yes","wheelchair":"yes"}},{"type":"Feature","geometry":{"type":"Point","coordinates":[130.55060548,31.58448318]},"properties":{"id":1381577110,"element_type":"way","amenity":"toilets","building":"toilets","fee":"no","toilets:disposal":"flush","unisex":"yes","wheelchair":"yes"}},{"type":"Feature","geometry":{"type":"Point","coordinates":[130.5527294,31.583948659999997]},"properties":{"id":1381577113,"element_type":"way","amenity":"toilets","building":"toilets","fee":"no","toilets:disposal":"flush","unisex":"yes","wheelchair":"yes"}},{"type":"Feature","geometry":{"type":"Point","coordinates":[130.56396526,31.573232400000002]},"properties":{"id":1382227698,"element_type":"way","amenity":"toilets","building":"toilets","fee":"no","toilets:disposal":"flush","unisex":"yes","wheelchair":"yes"}},{"type":"Feature","geometry":{"type":"Point","coordinates":[130.54863694000002,31.583718880000003]},"properties":{"id":1382227700,"element_type":"way","amenity":"toilets","building":"toilets","fee":"no","toilets:disposal":"flush","unisex":"yes","wheelchair":"yes"}},{"type":"Feature","geometry":{"type":"Point","coordinates":[130.5454921,31.589813099999997]},"properties":{"id":1383235974,"element_type":"way","amenity":"toilets","building":"toilets","fee":"no","toilets:disposal":"flush","unisex":"yes","wheelchair":"yes"}},{"type":"Feature","geometry":{"type":"Point","coordinates":[130.54565697777778,31.5885426]},"properties":{"id":1383235975,"element_type":"way","amenity":"toilets","building":"toilets","changing_table":"no","fee":"no","toilets:disposal":"flush","unisex":"yes","wheelchair":"yes"}},{"type":"Feature","geometry":{"type":"Point","coordinates":[130.55263506,31.584600459999997]},"properties":{"id":1383764930,"element_type":"way","amenity":"toilets","building":"toilets","fee":"no","toilets:disposal":"flush","unisex":"yes","wheelchair":"yes"}},{"type":"Feature","geometry":{"type":"Point","coordinates":[130.55315,31.585057466666665]},"properties":{"id":1383764931,"element_type":"way","amenity":"toilets","building":"toilets","fee":"no","toilets:disposal":"flush","unisex":"yes","wheelchair":"yes"}},{"type":"Feature","geometry":{"type":"Point","coordinates":[130.55881792,31.594043980000002]},"properties":{"id":1384343809,"element_type":"way","access":"yes","amenity":"toilets","building":"toilets","fee":"no","toilets:disposal":"flush","unisex":"yes","wheelchair":"yes"}},{"type":"Feature","geometry":{"type":"Point","coordinates":[130.56399131999999,31.601292159999996]},"properties":{"id":1385248884,"element_type":"way","access":"yes","amenity":"toilets","building":"toilets","changing_table":"yes","changing_table:location":"unisex_toilet","toilets:disposal":"flush","unisex":"yes","wheelchair":"yes"}},{"type":"Feature","geometry":{"type":"Point","coordinates":[130.54482806000001,31.246010839999997]},"properties":{"id":1388000551,"element_type":"way","access":"yes","amenity":"toilets","building":"yes","toilets:disposal":"flush"}},{"type":"Feature","geometry":{"type":"Point","coordinates":[130.32271563999998,31.416487699999998]},"properties":{"id":1388543094,"element_type":"way","access":"yes","amenity":"toilets","building":"toilets","fee":"no","toilets:disposal":"flush","unisex":"yes","wheelchair":"yes"}},{"type":"Feature","geometry":{"type":"Point","coordinates":[130.31363944,31.40133554]},"properties":{"id":1388553188,"element_type":"way","access":"yes","amenity":"toilets","building":"toilets","fee":"no","toilets:disposal":"flush","unisex":"yes"}},{"type":"Feature","geometry":{"type":"Point","coordinates":[130.65933052,30.9971057]},"properties":{"id":1391517015,"element_type":"way","access":"yes","amenity":"toilets","building":"yes","toilets:disposal":"flush"}},{"type":"Feature","geometry":{"type":"Point","coordinates":[130.22107948000001,31.840614400000003]},"properties":{"id":1391831412,"element_type":"way","access":"yes","amenity":"toilets","building":"yes","fee":"no","toilets:disposal":"flush","unisex":"yes"}},{"type":"Feature","geometry":{"type":"Point","coordinates":[130.96980675,31.688029487500003]},"properties":{"id":1393564483,"element_type":"way","access":"yes","amenity":"toilets","building":"toilets","fee":"no","toilets:disposal":"flush","unisex":"yes","wheelchair":"yes"}},{"type":"Feature","geometry":{"type":"Point","coordinates":[130.56502418,31.596613624999993]},"properties":{"id":1408277382,"element_type":"way","access":"yes","amenity":"toilets","building":"toilets","fee":"no","toilets:disposal":"flush","unisex":"yes"}},{"type":"Feature","geometry":{"type":"Point","coordinates":[130.56623178,31.597177600000002]},"properties":{"id":1408277383,"element_type":"way","access":"yes","amenity":"toilets","building":"toilets","fee":"no","toilets:disposal":"flush","unisex":"yes","wheelchair":"yes"}},{"type":"Feature","geometry":{"type":"Point","coordinates":[130.54919012,31.58863564]},"properties":{"id":1410351924,"element_type":"way","access":"yes","amenity":"toilets","building":"toilets","changing_table":"no","fee":"no","toilets:disposal":"flush","unisex":"yes","wheelchair":"yes"}},{"type":"Feature","geometry":{"type":"Point","coordinates":[130.54853492857143,31.574404157142855]},"properties":{"id":1412501377,"element_type":"way","access":"yes","amenity":"toilets","building":"toilets","fee":"no","unisex":"no"}},{"type":"Feature","geometry":{"type":"Point","coordinates":[130.92694712,30.43881658]},"properties":{"id":1413346920,"element_type":"way","access":"yes","amenity":"toilets","building":"yes","female":"yes","male":"yes","opening_hours":"24/7"}},{"type":"Feature","geometry":{"type":"Point","coordinates":[130.55533064,31.56392398]},"properties":{"id":1416110454,"element_type":"way","access":"yes","amenity":"toilets","building":"toilets","fee":"no","wheelchair":"no"}},{"type":"Feature","geometry":{"type":"Point","coordinates":[130.64523948571428,30.315121557142856]},"properties":{"id":1416212593,"element_type":"way","amenity":"toilets","building":"yes"}},{"type":"Feature","geometry":{"type":"Point","coordinates":[130.64031064,31.235315800000002]},"properties":{"id":1416519952,"element_type":"way","access":"yes","amenity":"toilets","building":"toilets","fee":"no","toilets:disposal":"flush","unisex":"yes","wheelchair":"yes"}},{"type":"Feature","geometry":{"type":"Point","coordinates":[130.60010196,31.2922769]},"properties":{"id":1416541332,"element_type":"way","access":"yes","amenity":"toilets","building":"toilets","fee":"no","toilets:disposal":"flush","unisex":"yes"}},{"type":"Feature","geometry":{"type":"Point","coordinates":[130.59001166000002,31.302005279999996]},"properties":{"id":1416551533,"element_type":"way","access":"yes","amenity":"toilets","building":"toilets","fee":"no","toilets:disposal":"flush","unisex":"yes","wheelchair":"yes"}},{"type":"Feature","geometry":{"type":"Point","coordinates":[130.63051845454547,31.27180160909091]},"properties":{"id":1416779125,"element_type":"way","access":"yes","amenity":"toilets","building":"toilets","fee":"no","wheelchair":"no"}},{"type":"Feature","geometry":{"type":"Point","coordinates":[130.53789827999998,31.227134980000006]},"properties":{"id":1418709690,"element_type":"way","access":"yes","amenity":"toilets","building":"toilets","fee":"no","toilets:disposal":"flush","unisex":"yes","wheelchair":"yes"}},{"type":"Feature","geometry":{"type":"Point","coordinates":[130.5640424,31.24989708]},"properties":{"id":1418933093,"element_type":"way","amenity":"toilets","building":"toilets","fee":"no","wheelchair":"no"}},{"type":"Feature","geometry":{"type":"Point","coordinates":[130.55104781999998,31.59111608]},"properties":{"id":1422814479,"element_type":"way","access":"yes","amenity":"toilets","building":"toilets","changing_table":"no","fee":"no","toilets:disposal":"flush","wheelchair":"yes"}},{"type":"Feature","geometry":{"type":"Point","coordinates":[130.52166396,31.5161639]},"properties":{"id":1426241555,"element_type":"way","access":"yes","amenity":"toilets","building":"toilets","toilets:disposal":"flush","unisex":"yes","wheelchair":"yes"}},{"type":"Feature","geometry":{"type":"Point","coordinates":[130.40128829999998,31.4751906]},"properties":{"id":1429054642,"element_type":"way","access":"yes","amenity":"toilets","building":"toilets","fee":"no","toilets:disposal":"flush","unisex":"yes"}}]}