{"type":"FeatureCollection","features":[{"type":"Feature","geometry":{"type":"Point","coordinates":[138.4761247,35.977266]},"properties":{"id":411760977,"element_type":"node","amenity":"toilets","fee":"no"}},{"type":"Feature","geometry":{"type":"Point","coordinates":[138.2486826,36.3962533]},"properties":{"id":725945523,"element_type":"node","amenity":"toilets","fee":"no","wheelchair":"yes"}},{"type":"Feature","geometry":{"type":"Point","coordinates":[138.244251,36.4022536]},"properties":{"id":727374213,"element_type":"node","amenity":"toilets","fee":"no"}},{"type":"Feature","geometry":{"type":"Point","coordinates":[138.1457524,36.5957596]},"properties":{"id":730944202,"element_type":"node","amenity":"toilets","fee":"no"}},{"type":"Feature","geometry":{"type":"Point","coordinates":[138.270375,36.1335764]},"properties":{"id":779254638,"element_type":"node","amenity":"toilets","fee":"no","wheelchair":"yes"}},{"type":"Feature","geometry":{"type":"Point","coordinates":[138.1216771,36.5885091]},"properties":{"id":988559980,"element_type":"node","amenity":"toilets"}},{"type":"Feature","geometry":{"type":"Point","coordinates":[137.9339851,35.730036]},"properties":{"id":1173971038,"element_type":"node","amenity":"toilets"}},{"type":"Feature","geometry":{"type":"Point","coordinates":[137.928804,35.7104571]},"properties":{"id":1193762260,"element_type":"node","amenity":"toilets"}},{"type":"Feature","geometry":{"type":"Point","coordinates":[138.4790793,36.380185]},"properties":{"id":1244948580,"element_type":"node","amenity":"toilets"}},{"type":"Feature","geometry":{"type":"Point","coordinates":[138.0897076,36.0649739]},"properties":{"id":1389208424,"element_type":"node","amenity":"toilets"}},{"type":"Feature","geometry":{"type":"Point","coordinates":[138.4891047,36.180947]},"properties":{"id":1467931634,"element_type":"node","amenity":"toilets","source":"Bing,2006-10"}},{"type":"Feature","geometry":{"type":"Point","coordinates":[138.2009623,36.59128]},"properties":{"id":1468277066,"element_type":"node","amenity":"toilets"}},{"type":"Feature","geometry":{"type":"Point","coordinates":[138.2383912,36.6055754]},"properties":{"id":1468843683,"element_type":"node","amenity":"toilets"}},{"type":"Feature","geometry":{"type":"Point","coordinates":[138.414666,36.7415056]},"properties":{"id":1469147023,"element_type":"node","access":"yes","amenity":"toilets","fee":"no","unisex":"yes","wheelchair":"yes"}},{"type":"Feature","geometry":{"type":"Point","coordinates":[138.1612919,36.6297655]},"properties":{"id":1474993157,"element_type":"node","amenity":"toilets","check_date":"2022-08-04","fee":"no"}},{"type":"Feature","geometry":{"type":"Point","coordinates":[137.6934373,35.7837801]},"properties":{"id":1671579847,"element_type":"node","amenity":"toilets"}},{"type":"Feature","geometry":{"type":"Point","coordinates":[137.7015215,35.7691959]},"properties":{"id":1671579849,"element_type":"node","amenity":"toilets","check_date":"2023-11-27","fee":"no","wheelchair":"yes"}},{"type":"Feature","geometry":{"type":"Point","coordinates":[137.6829112,35.7770258]},"properties":{"id":1674225452,"element_type":"node","amenity":"toilets"}},{"type":"Feature","geometry":{"type":"Point","coordinates":[137.6254084,35.7339256]},"properties":{"id":1674241923,"element_type":"node","amenity":"toilets"}},{"type":"Feature","geometry":{"type":"Point","coordinates":[137.6283427,35.7249635]},"properties":{"id":1674241936,"element_type":"node","amenity":"toilets"}},{"type":"Feature","geometry":{"type":"Point","coordinates":[137.6256659,35.7326932]},"properties":{"id":1674241944,"element_type":"node","amenity":"toilets"}},{"type":"Feature","geometry":{"type":"Point","coordinates":[137.6282944,35.7268927]},"properties":{"id":1674241976,"element_type":"node","amenity":"toilets"}},{"type":"Feature","geometry":{"type":"Point","coordinates":[137.6251616,35.7327324]},"properties":{"id":1674241989,"element_type":"node","amenity":"toilets"}},{"type":"Feature","geometry":{"type":"Point","coordinates":[137.6249739,35.7321881]},"properties":{"id":1674241994,"element_type":"node","amenity":"toilets"}},{"type":"Feature","geometry":{"type":"Point","coordinates":[137.7983064,36.5079047]},"properties":{"id":1741886850,"element_type":"node","amenity":"toilets"}},{"type":"Feature","geometry":{"type":"Point","coordinates":[137.7981692,36.5048631]},"properties":{"id":1741939376,"element_type":"node","amenity":"toilets","disused":"yes","source":"knoeledge"}},{"type":"Feature","geometry":{"type":"Point","coordinates":[137.794736,36.5123439]},"properties":{"id":1741939377,"element_type":"node","amenity":"toilets","source":"knoeledge"}},{"type":"Feature","geometry":{"type":"Point","coordinates":[138.4955755,36.7110911]},"properties":{"id":1781248246,"element_type":"node","amenity":"toilets"}},{"type":"Feature","geometry":{"type":"Point","coordinates":[137.7470627,36.3928267]},"properties":{"id":1845028376,"element_type":"node","amenity":"toilets"}},{"type":"Feature","geometry":{"type":"Point","coordinates":[138.4543437,35.9449479]},"properties":{"id":1894238264,"element_type":"node","amenity":"toilets"}},{"type":"Feature","geometry":{"type":"Point","coordinates":[138.3604892,35.9866137]},"properties":{"id":1918381509,"element_type":"node","amenity":"toilets"}},{"type":"Feature","geometry":{"type":"Point","coordinates":[137.8421953,36.5432964]},"properties":{"id":1932205396,"element_type":"node","amenity":"toilets"}},{"type":"Feature","geometry":{"type":"Point","coordinates":[138.6139434,36.3547502]},"properties":{"id":2012382373,"element_type":"node","amenity":"toilets"}},{"type":"Feature","geometry":{"type":"Point","coordinates":[137.8171583,35.4410219]},"properties":{"id":2120263631,"element_type":"node","amenity":"toilets"}},{"type":"Feature","geometry":{"type":"Point","coordinates":[137.9326387,35.6948719]},"properties":{"id":2120473654,"element_type":"node","amenity":"toilets"}},{"type":"Feature","geometry":{"type":"Point","coordinates":[138.440078,36.413343]},"properties":{"id":2149141308,"element_type":"node","amenity":"toilets"}},{"type":"Feature","geometry":{"type":"Point","coordinates":[137.9085938,36.3396162]},"properties":{"id":2193743440,"element_type":"node","amenity":"toilets","check_date":"2025-04-21","check_date:wheelchair":"2025-04-21","fee":"no","wheelchair":"yes"}},{"type":"Feature","geometry":{"type":"Point","coordinates":[137.996229,36.099393]},"properties":{"id":2193780692,"element_type":"node","amenity":"toilets"}},{"type":"Feature","geometry":{"type":"Point","coordinates":[138.4213938,36.3273393]},"properties":{"id":2273397591,"element_type":"node","amenity":"toilets","wheelchair":"yes"}},{"type":"Feature","geometry":{"type":"Point","coordinates":[138.4200621,36.3271686]},"properties":{"id":2275162335,"element_type":"node","amenity":"toilets","wheelchair":"yes"}},{"type":"Feature","geometry":{"type":"Point","coordinates":[137.6380621,36.2484524]},"properties":{"id":2293281396,"element_type":"node","amenity":"toilets","fee":"yes"}},{"type":"Feature","geometry":{"type":"Point","coordinates":[137.8089856,35.7832133]},"properties":{"id":2426796302,"element_type":"node","amenity":"toilets","drinking_water":"yes","fee":"yes","note":"2014年改築予定","operator":"宝剣山荘","source":"survey","wheelchair":"no"}},{"type":"Feature","geometry":{"type":"Point","coordinates":[138.076694,36.026315]},"properties":{"id":2427226989,"element_type":"node","amenity":"toilets","description":"仮設臨時トイレ"}},{"type":"Feature","geometry":{"type":"Point","coordinates":[138.075919,36.02655]},"properties":{"id":2427228099,"element_type":"node","amenity":"toilets","description":"現在閉鎖中"}},{"type":"Feature","geometry":{"type":"Point","coordinates":[138.0030006,35.976222]},"properties":{"id":2427377248,"element_type":"node","access":"customers","amenity":"toilets","source":"Bing"}},{"type":"Feature","geometry":{"type":"Point","coordinates":[137.8780841,35.7370257]},"properties":{"id":2427468848,"element_type":"node","amenity":"toilets","fee":"no","source":"survey"}},{"type":"Feature","geometry":{"type":"Point","coordinates":[137.8185787,35.7200248]},"properties":{"id":2427549552,"element_type":"node","amenity":"toilets","drinking_water":"no","fee":"yes"}},{"type":"Feature","geometry":{"type":"Point","coordinates":[138.1739336,36.1206307]},"properties":{"id":2430765843,"element_type":"node","amenity":"toilets"}},{"type":"Feature","geometry":{"type":"Point","coordinates":[138.1712186,36.1126306]},"properties":{"id":2430767522,"element_type":"node","amenity":"toilets"}},{"type":"Feature","geometry":{"type":"Point","coordinates":[138.4573101,36.6691596]},"properties":{"id":2451229033,"element_type":"node","amenity":"toilets","source":"survey, 2013/9/9; Bing, 2012/10/24"}},{"type":"Feature","geometry":{"type":"Point","coordinates":[138.4580822,36.6695372]},"properties":{"id":2451229045,"element_type":"node","amenity":"toilets","fee":"no","source":"survey, 2013/9/8","wheelchair":"no"}},{"type":"Feature","geometry":{"type":"Point","coordinates":[137.59465,35.5705588]},"properties":{"id":2481029774,"element_type":"node","amenity":"toilets","fee":"no"}},{"type":"Feature","geometry":{"type":"Point","coordinates":[137.5939942,35.5753748]},"properties":{"id":2481029799,"element_type":"node","amenity":"toilets","fee":"no"}},{"type":"Feature","geometry":{"type":"Point","coordinates":[137.595262,35.5762876]},"properties":{"id":2481029804,"element_type":"node","amenity":"toilets","check_date":"2024-04-20","fee":"no"}},{"type":"Feature","geometry":{"type":"Point","coordinates":[137.5948042,35.5790654]},"properties":{"id":2481029837,"element_type":"node","amenity":"toilets","check_date":"2025-02-10","check_date:wheelchair":"2025-02-10","fee":"no","wheelchair":"yes"}},{"type":"Feature","geometry":{"type":"Point","coordinates":[137.6905003,36.2655483]},"properties":{"id":2483159335,"element_type":"node","amenity":"toilets"}},{"type":"Feature","geometry":{"type":"Point","coordinates":[138.313143,36.699067]},"properties":{"id":2484209817,"element_type":"node","amenity":"toilets"}},{"type":"Feature","geometry":{"type":"Point","coordinates":[138.316884,36.694174]},"properties":{"id":2484423988,"element_type":"node","amenity":"toilets"}},{"type":"Feature","geometry":{"type":"Point","coordinates":[137.834467,35.767723]},"properties":{"id":2519413199,"element_type":"node","access":"yes","amenity":"toilets","fee":"no"}},{"type":"Feature","geometry":{"type":"Point","coordinates":[137.8000876,36.4573187]},"properties":{"id":2559531607,"element_type":"node","amenity":"toilets"}},{"type":"Feature","geometry":{"type":"Point","coordinates":[137.7988771,36.4582672]},"properties":{"id":2559531677,"element_type":"node","amenity":"toilets"}},{"type":"Feature","geometry":{"type":"Point","coordinates":[138.62656,36.350586]},"properties":{"id":2608934754,"element_type":"node","amenity":"toilets"}},{"type":"Feature","geometry":{"type":"Point","coordinates":[137.9099191,35.6614677]},"properties":{"id":2700187245,"element_type":"node","amenity":"toilets"}},{"type":"Feature","geometry":{"type":"Point","coordinates":[137.924169,35.6691885]},"properties":{"id":2700187307,"element_type":"node","amenity":"toilets"}},{"type":"Feature","geometry":{"type":"Point","coordinates":[137.9168648,35.6645453]},"properties":{"id":2700187311,"element_type":"node","amenity":"toilets","building":"public"}},{"type":"Feature","geometry":{"type":"Point","coordinates":[137.9397461,35.7003397]},"properties":{"id":2726306261,"element_type":"node","amenity":"toilets"}},{"type":"Feature","geometry":{"type":"Point","coordinates":[138.1571638,35.9897579]},"properties":{"id":2757603415,"element_type":"node","amenity":"toilets"}},{"type":"Feature","geometry":{"type":"Point","coordinates":[138.2548612,35.9669245]},"properties":{"id":2806037895,"element_type":"node","amenity":"toilets","fee":"no","opening_hours":"Apr-Nov"}},{"type":"Feature","geometry":{"type":"Point","coordinates":[138.2291406,36.1033996]},"properties":{"id":2817450723,"element_type":"node","amenity":"toilets"}},{"type":"Feature","geometry":{"type":"Point","coordinates":[138.1300312,35.9765961]},"properties":{"id":2817450839,"element_type":"node","amenity":"toilets"}},{"type":"Feature","geometry":{"type":"Point","coordinates":[138.1259382,35.9441629]},"properties":{"id":2817883135,"element_type":"node","amenity":"toilets"}},{"type":"Feature","geometry":{"type":"Point","coordinates":[138.149601,36.0093049]},"properties":{"id":2852756463,"element_type":"node","amenity":"toilets"}},{"type":"Feature","geometry":{"type":"Point","coordinates":[138.1546836,36.0097618]},"properties":{"id":2852756464,"element_type":"node","amenity":"toilets"}},{"type":"Feature","geometry":{"type":"Point","coordinates":[138.1722896,35.901596]},"properties":{"id":2857902378,"element_type":"node","amenity":"toilets"}},{"type":"Feature","geometry":{"type":"Point","coordinates":[138.1807751,35.9049842]},"properties":{"id":2857902379,"element_type":"node","amenity":"toilets"}},{"type":"Feature","geometry":{"type":"Point","coordinates":[138.2959592,36.1042371]},"properties":{"id":2938266598,"element_type":"node","amenity":"toilets","check_date":"2024-07-21","fee":"yes","wheelchair":"no"}},{"type":"Feature","geometry":{"type":"Point","coordinates":[138.4991447,36.8332348]},"properties":{"id":3077608572,"element_type":"node","amenity":"toilets"}},{"type":"Feature","geometry":{"type":"Point","coordinates":[138.186646,36.6493669]},"properties":{"id":3136327363,"element_type":"node","access":"yes","amenity":"toilets","level":"0","name":"もんぜんぷら座公衆トイレ","source":"GSI/KIBAN 2500;NARO"}},{"type":"Feature","geometry":{"type":"Point","coordinates":[138.3222185,36.0855699]},"properties":{"id":3136515370,"element_type":"node","amenity":"toilets"}},{"type":"Feature","geometry":{"type":"Point","coordinates":[138.4888654,36.7163481]},"properties":{"id":3166635885,"element_type":"node","amenity":"toilets","source":"便g２０１４"}},{"type":"Feature","geometry":{"type":"Point","coordinates":[138.2581258,36.0517563]},"properties":{"id":3662732816,"element_type":"node","amenity":"toilets","changing_table":"yes"}},{"type":"Feature","geometry":{"type":"Point","coordinates":[138.2569722,36.0513195]},"properties":{"id":3662764266,"element_type":"node","amenity":"toilets"}},{"type":"Feature","geometry":{"type":"Point","coordinates":[138.2354548,36.1095802]},"properties":{"id":3662772916,"element_type":"node","amenity":"toilets"}},{"type":"Feature","geometry":{"type":"Point","coordinates":[138.3014362,35.9820797]},"properties":{"id":3752174927,"element_type":"node","amenity":"toilets"}},{"type":"Feature","geometry":{"type":"Point","coordinates":[138.207794,35.910433]},"properties":{"id":3752501925,"element_type":"node","amenity":"toilets"}},{"type":"Feature","geometry":{"type":"Point","coordinates":[138.0209369,36.1615887]},"properties":{"id":3757006406,"element_type":"node","access":"public","amenity":"toilets","drinking_water":"no","fee":"no","wheelchair":"no"}},{"type":"Feature","geometry":{"type":"Point","coordinates":[137.9114601,35.670798]},"properties":{"id":3762662072,"element_type":"node","amenity":"toilets"}},{"type":"Feature","geometry":{"type":"Point","coordinates":[137.9239556,35.6792497]},"properties":{"id":3762662287,"element_type":"node","amenity":"toilets"}},{"type":"Feature","geometry":{"type":"Point","coordinates":[137.5860474,35.5451843]},"properties":{"id":3774502348,"element_type":"node","access":"yes","amenity":"toilets","fee":"no","wheelchair":"no"}},{"type":"Feature","geometry":{"type":"Point","coordinates":[137.5884005,35.5515737]},"properties":{"id":3774502349,"element_type":"node","amenity":"toilets","fee":"no","wheelchair":"no"}},{"type":"Feature","geometry":{"type":"Point","coordinates":[137.5953886,35.5748032]},"properties":{"id":3774502350,"element_type":"node","access":"yes","amenity":"toilets","fee":"no","wheelchair":"no"}},{"type":"Feature","geometry":{"type":"Point","coordinates":[137.5924276,35.564505]},"properties":{"id":3774503383,"element_type":"node","amenity":"toilets","fee":"no","wheelchair":"yes"}},{"type":"Feature","geometry":{"type":"Point","coordinates":[137.588901,35.5552901]},"properties":{"id":3774506358,"element_type":"node","amenity":"toilets"}},{"type":"Feature","geometry":{"type":"Point","coordinates":[137.8184653,36.773915]},"properties":{"id":3787800351,"element_type":"node","amenity":"toilets","fee":"no"}},{"type":"Feature","geometry":{"type":"Point","coordinates":[137.7952405,36.7861708]},"properties":{"id":3789975653,"element_type":"node","amenity":"toilets"}},{"type":"Feature","geometry":{"type":"Point","coordinates":[138.1357731,36.2581854]},"properties":{"id":3900125825,"element_type":"node","amenity":"toilets"}},{"type":"Feature","geometry":{"type":"Point","coordinates":[138.1189028,35.9988495]},"properties":{"id":4158819604,"element_type":"node","amenity":"toilets"}},{"type":"Feature","geometry":{"type":"Point","coordinates":[138.040047,36.0859889]},"properties":{"id":4158874521,"element_type":"node","amenity":"toilets"}},{"type":"Feature","geometry":{"type":"Point","coordinates":[137.8263106,36.4530287]},"properties":{"id":4172465489,"element_type":"node","amenity":"toilets"}},{"type":"Feature","geometry":{"type":"Point","coordinates":[138.280649,36.0848003]},"properties":{"id":4172904675,"element_type":"node","amenity":"toilets","changing_table":"no","drinking_water":"no","fee":"yes","operator":"茅野市","payment:cash":"yes"}},{"type":"Feature","geometry":{"type":"Point","coordinates":[138.0661649,36.0580313]},"properties":{"id":4219710229,"element_type":"node","amenity":"toilets"}},{"type":"Feature","geometry":{"type":"Point","coordinates":[138.1878318,36.1045794]},"properties":{"id":4296410605,"element_type":"node","amenity":"toilets","fee":"yes","name":"バイオトイレ（要トイレチップ）"}},{"type":"Feature","geometry":{"type":"Point","coordinates":[137.9416891,35.8860355]},"properties":{"id":4324603591,"element_type":"node","amenity":"toilets","fee":"no"}},{"type":"Feature","geometry":{"type":"Point","coordinates":[137.9939591,35.9169935]},"properties":{"id":4327643670,"element_type":"node","amenity":"toilets"}},{"type":"Feature","geometry":{"type":"Point","coordinates":[138.6340818,36.3523723]},"properties":{"id":4349822422,"element_type":"node","amenity":"toilets","fee":"no"}},{"type":"Feature","geometry":{"type":"Point","coordinates":[137.9439886,35.8850623]},"properties":{"id":4358631370,"element_type":"node","amenity":"toilets","fee":"no"}},{"type":"Feature","geometry":{"type":"Point","coordinates":[137.8066541,35.7879047]},"properties":{"id":4363652959,"element_type":"node","amenity":"toilets","fee":"yes","female":"yes","male":"yes"}},{"type":"Feature","geometry":{"type":"Point","coordinates":[137.627245,36.2472183]},"properties":{"id":4370931930,"element_type":"node","amenity":"toilets"}},{"type":"Feature","geometry":{"type":"Point","coordinates":[138.2164934,36.0321837]},"properties":{"id":4384794315,"element_type":"node","amenity":"toilets"}},{"type":"Feature","geometry":{"type":"Point","coordinates":[137.6931769,35.843661]},"properties":{"id":4385630486,"element_type":"node","amenity":"toilets"}},{"type":"Feature","geometry":{"type":"Point","coordinates":[138.4590315,35.930732]},"properties":{"id":4392911572,"element_type":"node","amenity":"toilets"}},{"type":"Feature","geometry":{"type":"Point","coordinates":[137.6191437,36.2279291]},"properties":{"id":4413153883,"element_type":"node","amenity":"toilets","check_date":"2023-10-07"}},{"type":"Feature","geometry":{"type":"Point","coordinates":[138.2769471,35.8636693]},"properties":{"id":4420036521,"element_type":"node","amenity":"toilets"}},{"type":"Feature","geometry":{"type":"Point","coordinates":[138.3329427,36.6986329]},"properties":{"id":4424587691,"element_type":"node","amenity":"toilets"}},{"type":"Feature","geometry":{"type":"Point","coordinates":[138.5307055,36.7040849]},"properties":{"id":4424744193,"element_type":"node","amenity":"toilets","opening_hours":"24/7"}},{"type":"Feature","geometry":{"type":"Point","coordinates":[137.6551748,35.6530909]},"properties":{"id":4439277284,"element_type":"node","access":"yes","amenity":"toilets","toilets:position":"squat","unisex":"yes"}},{"type":"Feature","geometry":{"type":"Point","coordinates":[137.6837465,36.3182053]},"properties":{"id":4439856560,"element_type":"node","amenity":"toilets"}},{"type":"Feature","geometry":{"type":"Point","coordinates":[137.6643946,36.2530735]},"properties":{"id":4440389388,"element_type":"node","amenity":"toilets","check_date":"2023-10-07","fee":"yes","wheelchair":"no"}},{"type":"Feature","geometry":{"type":"Point","coordinates":[137.6481909,35.6358426]},"properties":{"id":4442503084,"element_type":"node","access":"yes","amenity":"toilets","toilets:disposal":"biotechnology","toilets:position":"seated","unisex":"yes"}},{"type":"Feature","geometry":{"type":"Point","coordinates":[137.6390574,35.6264603]},"properties":{"id":4446367195,"element_type":"node","amenity":"toilets","unisex":"yes"}},{"type":"Feature","geometry":{"type":"Point","coordinates":[137.6186597,35.6141082]},"properties":{"id":4448097799,"element_type":"node","amenity":"toilets","unisex":"yes"}},{"type":"Feature","geometry":{"type":"Point","coordinates":[137.9744627,36.2338166]},"properties":{"id":4450048289,"element_type":"node","amenity":"toilets","check_date":"2022-10-17","fee":"no","opening_hours":"24/7"}},{"type":"Feature","geometry":{"type":"Point","coordinates":[137.5977044,35.5840534]},"properties":{"id":4456565156,"element_type":"node","amenity":"toilets","unisex":"yes"}},{"type":"Feature","geometry":{"type":"Point","coordinates":[138.2458546,36.4044398]},"properties":{"id":4511482291,"element_type":"node","amenity":"toilets","wheelchair":"yes"}},{"type":"Feature","geometry":{"type":"Point","coordinates":[138.2464417,36.4030068]},"properties":{"id":4511484091,"element_type":"node","amenity":"toilets","wheelchair":"yes"}},{"type":"Feature","geometry":{"type":"Point","coordinates":[137.6402323,35.5775198]},"properties":{"id":4513645694,"element_type":"node","amenity":"toilets"}},{"type":"Feature","geometry":{"type":"Point","coordinates":[138.0858844,36.7390097]},"properties":{"id":4523070694,"element_type":"node","amenity":"toilets"}},{"type":"Feature","geometry":{"type":"Point","coordinates":[138.0776085,36.7280456]},"properties":{"id":4523079199,"element_type":"node","amenity":"toilets"}},{"type":"Feature","geometry":{"type":"Point","coordinates":[137.6211315,35.3030831]},"properties":{"id":4571151572,"element_type":"node","amenity":"toilets"}},{"type":"Feature","geometry":{"type":"Point","coordinates":[137.6247611,35.307706]},"properties":{"id":4571151573,"element_type":"node","amenity":"toilets"}},{"type":"Feature","geometry":{"type":"Point","coordinates":[137.6466194,35.5940034]},"properties":{"id":4580613469,"element_type":"node","amenity":"toilets"}},{"type":"Feature","geometry":{"type":"Point","coordinates":[137.9310058,35.806554]},"properties":{"id":4663553846,"element_type":"node","amenity":"toilets"}},{"type":"Feature","geometry":{"type":"Point","coordinates":[137.9303652,35.8070678]},"properties":{"id":4663553866,"element_type":"node","amenity":"toilets"}},{"type":"Feature","geometry":{"type":"Point","coordinates":[137.930981,35.8072056]},"properties":{"id":4663553871,"element_type":"node","amenity":"toilets"}},{"type":"Feature","geometry":{"type":"Point","coordinates":[137.9324993,35.8067923]},"properties":{"id":4663553892,"element_type":"node","amenity":"toilets"}},{"type":"Feature","geometry":{"type":"Point","coordinates":[137.933667,35.8079654]},"properties":{"id":4663553948,"element_type":"node","amenity":"toilets"}},{"type":"Feature","geometry":{"type":"Point","coordinates":[137.934407,35.807517]},"properties":{"id":4663553957,"element_type":"node","amenity":"toilets"}},{"type":"Feature","geometry":{"type":"Point","coordinates":[137.9839593,35.8795758]},"properties":{"id":4739514250,"element_type":"node","amenity":"toilets"}},{"type":"Feature","geometry":{"type":"Point","coordinates":[138.6475531,36.1062143]},"properties":{"id":4831775521,"element_type":"node","amenity":"toilets"}},{"type":"Feature","geometry":{"type":"Point","coordinates":[138.1462585,36.5449027]},"properties":{"id":4832728206,"element_type":"node","amenity":"toilets"}},{"type":"Feature","geometry":{"type":"Point","coordinates":[137.9227424,36.3016447]},"properties":{"id":4875104126,"element_type":"node","access":"customers","amenity":"toilets","changing_table":"yes","fee":"no","operator":"スワンガーデン安曇野","toilets:disposal":"flush","unisex":"yes"}},{"type":"Feature","geometry":{"type":"Point","coordinates":[138.4700765,35.9405547]},"properties":{"id":5035923630,"element_type":"node","access":"customers","amenity":"toilets","changing_table":"no","fee":"no","male":"yes","toilets:disposal":"flush"}},{"type":"Feature","geometry":{"type":"Point","coordinates":[138.4700759,35.9405239]},"properties":{"id":5035923631,"element_type":"node","access":"customers","amenity":"toilets","changing_table":"no","fee":"no","female":"yes","toilets:disposal":"flush"}},{"type":"Feature","geometry":{"type":"Point","coordinates":[138.4724648,35.9447877]},"properties":{"id":5035930599,"element_type":"node","amenity":"toilets","changing_table":"yes","fee":"no"}},{"type":"Feature","geometry":{"type":"Point","coordinates":[137.7907381,36.6960591]},"properties":{"id":5037913024,"element_type":"node","amenity":"toilets"}},{"type":"Feature","geometry":{"type":"Point","coordinates":[137.8468867,36.6727175]},"properties":{"id":5037913123,"element_type":"node","amenity":"toilets"}},{"type":"Feature","geometry":{"type":"Point","coordinates":[137.8453706,36.6682428]},"properties":{"id":5037913125,"element_type":"node","amenity":"toilets"}},{"type":"Feature","geometry":{"type":"Point","coordinates":[137.7986284,36.6970025]},"properties":{"id":5037913224,"element_type":"node","amenity":"toilets"}},{"type":"Feature","geometry":{"type":"Point","coordinates":[138.4439566,36.7299535]},"properties":{"id":5068089521,"element_type":"node","access":"yes","amenity":"toilets","fee":"no","unisex":"yes","wheelchair":"designated"}},{"type":"Feature","geometry":{"type":"Point","coordinates":[137.817167,36.459365]},"properties":{"id":5119548749,"element_type":"node","amenity":"toilets"}},{"type":"Feature","geometry":{"type":"Point","coordinates":[137.8165206,36.4587178]},"properties":{"id":5119548750,"element_type":"node","amenity":"toilets"}},{"type":"Feature","geometry":{"type":"Point","coordinates":[137.8273997,36.4553546]},"properties":{"id":5119548808,"element_type":"node","amenity":"toilets"}},{"type":"Feature","geometry":{"type":"Point","coordinates":[138.6487844,36.0053548]},"properties":{"id":5432759361,"element_type":"node","amenity":"toilets"}},{"type":"Feature","geometry":{"type":"Point","coordinates":[138.6359385,36.3578186]},"properties":{"id":5434550524,"element_type":"node","amenity":"toilets"}},{"type":"Feature","geometry":{"type":"Point","coordinates":[138.1631864,35.9934977]},"properties":{"id":5447196055,"element_type":"node","amenity":"toilets"}},{"type":"Feature","geometry":{"type":"Point","coordinates":[138.1639107,35.9913731]},"properties":{"id":5455638925,"element_type":"node","amenity":"toilets"}},{"type":"Feature","geometry":{"type":"Point","coordinates":[138.1660909,35.9918713]},"properties":{"id":5455638927,"element_type":"node","amenity":"toilets"}},{"type":"Feature","geometry":{"type":"Point","coordinates":[137.8232034,35.5144501]},"properties":{"id":5566770088,"element_type":"node","amenity":"toilets"}},{"type":"Feature","geometry":{"type":"Point","coordinates":[138.0140363,36.6450015]},"properties":{"id":5570186226,"element_type":"node","amenity":"toilets"}},{"type":"Feature","geometry":{"type":"Point","coordinates":[138.4508483,36.6610404]},"properties":{"id":5591311223,"element_type":"node","amenity":"toilets"}},{"type":"Feature","geometry":{"type":"Point","coordinates":[138.460146,36.6673882]},"properties":{"id":5591323521,"element_type":"node","amenity":"toilets"}},{"type":"Feature","geometry":{"type":"Point","coordinates":[138.1876775,36.643138]},"properties":{"id":5613109124,"element_type":"node","amenity":"toilets","fee":"no","name":"善光寺口公衆トイレ","wheelchair":"yes"}},{"type":"Feature","geometry":{"type":"Point","coordinates":[137.6472261,36.2765896]},"properties":{"id":5650711705,"element_type":"node","amenity":"toilets"}},{"type":"Feature","geometry":{"type":"Point","coordinates":[138.0931871,36.5026369]},"properties":{"id":5712619434,"element_type":"node","amenity":"toilets"}},{"type":"Feature","geometry":{"type":"Point","coordinates":[137.9699227,36.2345225]},"properties":{"id":5737823454,"element_type":"node","access":"yes","amenity":"toilets","name":"縄手西公衆トイレ"}},{"type":"Feature","geometry":{"type":"Point","coordinates":[138.0160803,36.6037622]},"properties":{"id":5759611803,"element_type":"node","amenity":"toilets"}},{"type":"Feature","geometry":{"type":"Point","coordinates":[138.6394121,36.3453421]},"properties":{"id":5782050322,"element_type":"node","amenity":"toilets"}},{"type":"Feature","geometry":{"type":"Point","coordinates":[138.1964985,36.6290668]},"properties":{"id":5798186292,"element_type":"node","amenity":"toilets"}},{"type":"Feature","geometry":{"type":"Point","coordinates":[138.1867304,36.6572919]},"properties":{"id":5802642934,"element_type":"node","amenity":"toilets"}},{"type":"Feature","geometry":{"type":"Point","coordinates":[138.3597977,36.3351498]},"properties":{"id":5813971798,"element_type":"node","amenity":"toilets"}},{"type":"Feature","geometry":{"type":"Point","coordinates":[137.8352835,36.6940542]},"properties":{"id":5824610018,"element_type":"node","amenity":"toilets"}},{"type":"Feature","geometry":{"type":"Point","coordinates":[138.1890783,36.6629034]},"properties":{"id":5845064651,"element_type":"node","amenity":"toilets"}},{"type":"Feature","geometry":{"type":"Point","coordinates":[138.3718569,35.9750881]},"properties":{"id":5858665421,"element_type":"node","amenity":"toilets"}},{"type":"Feature","geometry":{"type":"Point","coordinates":[138.0338104,36.1286063]},"properties":{"id":5867029684,"element_type":"node","amenity":"toilets"}},{"type":"Feature","geometry":{"type":"Point","coordinates":[138.190854,36.6929389]},"properties":{"id":5869783843,"element_type":"node","amenity":"toilets"}},{"type":"Feature","geometry":{"type":"Point","coordinates":[138.0711951,36.0339287]},"properties":{"id":5870386293,"element_type":"node","amenity":"toilets"}},{"type":"Feature","geometry":{"type":"Point","coordinates":[138.1887867,36.6546614]},"properties":{"id":5890285006,"element_type":"node","amenity":"toilets"}},{"type":"Feature","geometry":{"type":"Point","coordinates":[138.1903443,36.6595102]},"properties":{"id":5903330885,"element_type":"node","amenity":"toilets"}},{"type":"Feature","geometry":{"type":"Point","coordinates":[138.3885397,36.8522133]},"properties":{"id":5909172324,"element_type":"node","amenity":"toilets","name":"道の駅ファームネス木島平","wheelchair":"yes"}},{"type":"Feature","geometry":{"type":"Point","coordinates":[138.5819827,36.9884964]},"properties":{"id":5909239735,"element_type":"node","amenity":"toilets"}},{"type":"Feature","geometry":{"type":"Point","coordinates":[138.3220813,36.8007773]},"properties":{"id":5909318188,"element_type":"node","amenity":"toilets","female":"yes","male":"yes","name":"さわやか御殿(トイレ)","wheelchair":"yes"}},{"type":"Feature","geometry":{"type":"Point","coordinates":[138.1828093,36.6548574]},"properties":{"id":5913085437,"element_type":"node","amenity":"toilets"}},{"type":"Feature","geometry":{"type":"Point","coordinates":[137.797754,36.5088269]},"properties":{"id":5923187385,"element_type":"node","amenity":"toilets","opening_hours":"24/7","operator":"千年の森"}},{"type":"Feature","geometry":{"type":"Point","coordinates":[137.940202,35.6905814]},"properties":{"id":5923288819,"element_type":"node","amenity":"toilets"}},{"type":"Feature","geometry":{"type":"Point","coordinates":[137.9481972,36.1148139]},"properties":{"id":6011645203,"element_type":"node","amenity":"toilets"}},{"type":"Feature","geometry":{"type":"Point","coordinates":[137.9480224,36.1142771]},"properties":{"id":6011645225,"element_type":"node","amenity":"toilets","level":"1"}},{"type":"Feature","geometry":{"type":"Point","coordinates":[137.947965,36.1143854]},"properties":{"id":6011645227,"element_type":"node","amenity":"toilets","wheelchair":"yes"}},{"type":"Feature","geometry":{"type":"Point","coordinates":[137.9590561,36.5271201]},"properties":{"id":6018611631,"element_type":"node","amenity":"toilets"}},{"type":"Feature","geometry":{"type":"Point","coordinates":[137.9782129,36.1754041]},"properties":{"id":6018756829,"element_type":"node","amenity":"toilets"}},{"type":"Feature","geometry":{"type":"Point","coordinates":[138.4078663,36.5704064]},"properties":{"id":6033005239,"element_type":"node","access":"yes","amenity":"toilets"}},{"type":"Feature","geometry":{"type":"Point","coordinates":[138.4030466,36.5746678]},"properties":{"id":6033005241,"element_type":"node","amenity":"toilets"}},{"type":"Feature","geometry":{"type":"Point","coordinates":[138.1140948,36.5880066]},"properties":{"id":6037919583,"element_type":"node","amenity":"toilets"}},{"type":"Feature","geometry":{"type":"Point","coordinates":[138.1385648,36.5776254]},"properties":{"id":6040439293,"element_type":"node","amenity":"toilets"}},{"type":"Feature","geometry":{"type":"Point","coordinates":[137.9782628,36.4871534]},"properties":{"id":6043474293,"element_type":"node","amenity":"toilets"}},{"type":"Feature","geometry":{"type":"Point","coordinates":[137.9890563,36.2396182]},"properties":{"id":6043920335,"element_type":"node","amenity":"toilets"}},{"type":"Feature","geometry":{"type":"Point","coordinates":[137.9848104,36.2302698]},"properties":{"id":6043992153,"element_type":"node","amenity":"toilets"}},{"type":"Feature","geometry":{"type":"Point","coordinates":[138.1091481,36.5920906]},"properties":{"id":6101841886,"element_type":"node","amenity":"toilets"}},{"type":"Feature","geometry":{"type":"Point","coordinates":[138.1243207,36.5897999]},"properties":{"id":6101841887,"element_type":"node","amenity":"toilets"}},{"type":"Feature","geometry":{"type":"Point","coordinates":[138.150721,36.5740145]},"properties":{"id":6110207295,"element_type":"node","amenity":"toilets"}},{"type":"Feature","geometry":{"type":"Point","coordinates":[138.1524776,36.5733182]},"properties":{"id":6110207296,"element_type":"node","amenity":"toilets"}},{"type":"Feature","geometry":{"type":"Point","coordinates":[138.2208129,36.6671749]},"properties":{"id":6112039372,"element_type":"node","amenity":"toilets","name":"大銀杏（信濃吉田駅）","wheelchair":"yes"}},{"type":"Feature","geometry":{"type":"Point","coordinates":[138.0901415,36.7695187]},"properties":{"id":6127333180,"element_type":"node","amenity":"toilets"}},{"type":"Feature","geometry":{"type":"Point","coordinates":[138.0181493,36.5733822]},"properties":{"id":6131988579,"element_type":"node","amenity":"toilets"}},{"type":"Feature","geometry":{"type":"Point","coordinates":[137.8176407,36.4587942]},"properties":{"id":6139122367,"element_type":"node","amenity":"toilets"}},{"type":"Feature","geometry":{"type":"Point","coordinates":[137.9638854,36.2305332]},"properties":{"id":6152727122,"element_type":"node","access":"yes","amenity":"toilets","level":"1"}},{"type":"Feature","geometry":{"type":"Point","coordinates":[138.0528002,36.5848882]},"properties":{"id":6162402924,"element_type":"node","amenity":"toilets"}},{"type":"Feature","geometry":{"type":"Point","coordinates":[138.1384891,36.6238541]},"properties":{"id":6174374261,"element_type":"node","amenity":"toilets"}},{"type":"Feature","geometry":{"type":"Point","coordinates":[138.1980791,36.6526311]},"properties":{"id":6224391961,"element_type":"node","amenity":"toilets"}},{"type":"Feature","geometry":{"type":"Point","coordinates":[138.1880301,36.7446278]},"properties":{"id":6242903679,"element_type":"node","amenity":"toilets"}},{"type":"Feature","geometry":{"type":"Point","coordinates":[138.2078048,36.8330915]},"properties":{"id":6283802899,"element_type":"node","amenity":"toilets","name":"芙蓉の水屋"}},{"type":"Feature","geometry":{"type":"Point","coordinates":[138.1428636,36.7063345]},"properties":{"id":6292304680,"element_type":"node","amenity":"toilets"}},{"type":"Feature","geometry":{"type":"Point","coordinates":[138.093781,36.7549394]},"properties":{"id":6301274629,"element_type":"node","amenity":"toilets"}},{"type":"Feature","geometry":{"type":"Point","coordinates":[138.1572536,36.4951429]},"properties":{"id":6328289846,"element_type":"node","amenity":"toilets"}},{"type":"Feature","geometry":{"type":"Point","coordinates":[138.158197,36.493267]},"properties":{"id":6328289880,"element_type":"node","amenity":"toilets"}},{"type":"Feature","geometry":{"type":"Point","coordinates":[138.1560037,36.4937336]},"properties":{"id":6328289888,"element_type":"node","amenity":"toilets"}},{"type":"Feature","geometry":{"type":"Point","coordinates":[138.4642427,36.2779715]},"properties":{"id":6353535273,"element_type":"node","access":"customers","amenity":"toilets","fee":"no","level":"1","toilets:access":"yes","toilets:position":"seated;urinal","toilets:wheelchair":"designated"}},{"type":"Feature","geometry":{"type":"Point","coordinates":[138.4644771,36.277923]},"properties":{"id":6353535274,"element_type":"node","access":"yes","amenity":"toilets","fee":"no","level":"0","toilets:access":"yes","toilets:position":"seated;urinal","toilets:wheelchair":"designated"}},{"type":"Feature","geometry":{"type":"Point","coordinates":[138.5954477,36.3496937]},"properties":{"id":6357719812,"element_type":"node","access":"yes","amenity":"toilets","changing_table":"yes","fee":"no","wheelchair":"designated"}},{"type":"Feature","geometry":{"type":"Point","coordinates":[138.5759134,36.3821499]},"properties":{"id":6357719835,"element_type":"node","access":"yes","amenity":"toilets","fee":"no","opening_hours":"winter closed","wheelchair":"designated"}},{"type":"Feature","geometry":{"type":"Point","coordinates":[138.5903807,36.3596013]},"properties":{"id":6357719869,"element_type":"node","access":"yes","amenity":"toilets","fee":"no"}},{"type":"Feature","geometry":{"type":"Point","coordinates":[138.6349604,36.3426858]},"properties":{"id":6357719873,"element_type":"node","access":"customers","amenity":"toilets","fee":"no","level":"1","toilets:access":"customers","toilets:position":"seated;urinal","toilets:wheelchair":"designated","wheelchair":"yes"}},{"type":"Feature","geometry":{"type":"Point","coordinates":[138.5920759,36.3477735]},"properties":{"id":6357719903,"element_type":"node","access":"yes","amenity":"toilets","changing_table":"yes","fee":"no","level":"1","toilets:access":"yes","toilets:position":"squat;seated;urinal","toilets:wheelchair":"designated","wheelchair":"yes"}},{"type":"Feature","geometry":{"type":"Point","coordinates":[138.1190767,35.999784]},"properties":{"id":6374676495,"element_type":"node","amenity":"toilets"}},{"type":"Feature","geometry":{"type":"Point","coordinates":[138.2424095,36.4046727]},"properties":{"id":6388595766,"element_type":"node","amenity":"toilets"}},{"type":"Feature","geometry":{"type":"Point","coordinates":[138.0548572,35.8375602]},"properties":{"id":6401673377,"element_type":"node","amenity":"toilets"}},{"type":"Feature","geometry":{"type":"Point","coordinates":[138.0634009,35.8324791]},"properties":{"id":6403180555,"element_type":"node","amenity":"toilets"}},{"type":"Feature","geometry":{"type":"Point","coordinates":[137.8778149,36.2936797]},"properties":{"id":6408145153,"element_type":"node","amenity":"toilets"}},{"type":"Feature","geometry":{"type":"Point","coordinates":[138.1838766,36.633681]},"properties":{"id":6424400220,"element_type":"node","amenity":"toilets"}},{"type":"Feature","geometry":{"type":"Point","coordinates":[137.8783406,36.4487422]},"properties":{"id":6424760951,"element_type":"node","amenity":"toilets","fee":"no","wheelchair":"yes"}},{"type":"Feature","geometry":{"type":"Point","coordinates":[138.2240193,35.912426]},"properties":{"id":6442202357,"element_type":"node","amenity":"toilets"}},{"type":"Feature","geometry":{"type":"Point","coordinates":[138.1924117,36.641006]},"properties":{"id":6477548693,"element_type":"node","amenity":"toilets"}},{"type":"Feature","geometry":{"type":"Point","coordinates":[138.4151003,36.2390553]},"properties":{"id":6491070597,"element_type":"node","amenity":"toilets"}},{"type":"Feature","geometry":{"type":"Point","coordinates":[138.4402795,36.2361027]},"properties":{"id":6505310054,"element_type":"node","amenity":"toilets"}},{"type":"Feature","geometry":{"type":"Point","coordinates":[138.4218109,36.3285712]},"properties":{"id":6511412371,"element_type":"node","amenity":"toilets","bus":"yes","highway":"bus_stop","public_transport":"platform"}},{"type":"Feature","geometry":{"type":"Point","coordinates":[138.4927091,36.2371515]},"properties":{"id":6517200456,"element_type":"node","amenity":"toilets"}},{"type":"Feature","geometry":{"type":"Point","coordinates":[138.4942217,36.2359076]},"properties":{"id":6517200457,"element_type":"node","amenity":"toilets"}},{"type":"Feature","geometry":{"type":"Point","coordinates":[138.0848904,36.0749108]},"properties":{"id":6618135271,"element_type":"node","amenity":"toilets"}},{"type":"Feature","geometry":{"type":"Point","coordinates":[138.2233042,36.6534716]},"properties":{"id":6627348577,"element_type":"node","amenity":"toilets","name":"ショッピングタウンあおぞら"}},{"type":"Feature","geometry":{"type":"Point","coordinates":[138.5180765,36.6941176]},"properties":{"id":6685340258,"element_type":"node","access":"yes","amenity":"toilets"}},{"type":"Feature","geometry":{"type":"Point","coordinates":[138.5785339,36.2437458]},"properties":{"id":6722523876,"element_type":"node","amenity":"toilets"}},{"type":"Feature","geometry":{"type":"Point","coordinates":[138.3545617,36.2680779]},"properties":{"id":6743989463,"element_type":"node","amenity":"toilets"}},{"type":"Feature","geometry":{"type":"Point","coordinates":[138.3006929,36.2679405]},"properties":{"id":6760823462,"element_type":"node","amenity":"toilets"}},{"type":"Feature","geometry":{"type":"Point","coordinates":[138.3369242,36.2726223]},"properties":{"id":6761726771,"element_type":"node","access":"yes","amenity":"toilets","name":"雪隠"}},{"type":"Feature","geometry":{"type":"Point","coordinates":[138.1978144,36.6714237]},"properties":{"id":6765696238,"element_type":"node","amenity":"toilets"}},{"type":"Feature","geometry":{"type":"Point","coordinates":[138.3636389,36.2635959]},"properties":{"id":6766506739,"element_type":"node","amenity":"toilets","opening_hours":"Mo-Sa 07:30-18:30; Su,PH 09:00-17:00"}},{"type":"Feature","geometry":{"type":"Point","coordinates":[138.3625004,36.2659758]},"properties":{"id":6766506761,"element_type":"node","amenity":"toilets"}},{"type":"Feature","geometry":{"type":"Point","coordinates":[137.8106628,35.9651993]},"properties":{"id":6923799452,"element_type":"node","amenity":"toilets"}},{"type":"Feature","geometry":{"type":"Point","coordinates":[137.8153512,35.9688976]},"properties":{"id":6923821998,"element_type":"node","amenity":"toilets"}},{"type":"Feature","geometry":{"type":"Point","coordinates":[137.8096985,35.9639174]},"properties":{"id":6923874815,"element_type":"node","amenity":"toilets"}},{"type":"Feature","geometry":{"type":"Point","coordinates":[137.8092479,35.9619048]},"properties":{"id":6923883567,"element_type":"node","amenity":"toilets"}},{"type":"Feature","geometry":{"type":"Point","coordinates":[138.1229933,36.0531872]},"properties":{"id":6926020690,"element_type":"node","amenity":"toilets"}},{"type":"Feature","geometry":{"type":"Point","coordinates":[138.1572257,36.0085896]},"properties":{"id":6929474807,"element_type":"node","amenity":"toilets"}},{"type":"Feature","geometry":{"type":"Point","coordinates":[138.4218577,36.2710659]},"properties":{"id":6984127976,"element_type":"node","amenity":"toilets"}},{"type":"Feature","geometry":{"type":"Point","coordinates":[138.5067751,36.3184691]},"properties":{"id":6984197557,"element_type":"node","access":"yes","amenity":"toilets","name":"駅前広場公衆トイレ"}},{"type":"Feature","geometry":{"type":"Point","coordinates":[138.5478631,36.3407463]},"properties":{"id":7005551014,"element_type":"node","amenity":"toilets"}},{"type":"Feature","geometry":{"type":"Point","coordinates":[138.640046,36.3627866]},"properties":{"id":7005824930,"element_type":"node","amenity":"toilets"}},{"type":"Feature","geometry":{"type":"Point","coordinates":[138.0458669,36.0796519]},"properties":{"id":7025736816,"element_type":"node","amenity":"toilets"}},{"type":"Feature","geometry":{"type":"Point","coordinates":[138.6355751,36.3430279]},"properties":{"id":7203124563,"element_type":"node","access":"yes","amenity":"toilets","check_date":"2024-03-18","fee":"no","level":"1","toilets:disposal":"flush","toilets:position":"squat;seated;urinal","wheelchair":"designated"}},{"type":"Feature","geometry":{"type":"Point","coordinates":[137.4520932,35.8114985]},"properties":{"id":7236620739,"element_type":"node","amenity":"toilets","toilets:disposal":"flush"}},{"type":"Feature","geometry":{"type":"Point","coordinates":[137.8214056,36.1899171]},"properties":{"id":7359588328,"element_type":"node","amenity":"toilets","fee":"no","female":"yes","male":"yes"}},{"type":"Feature","geometry":{"type":"Point","coordinates":[137.6266229,36.1115971]},"properties":{"id":7359597257,"element_type":"node","amenity":"toilets"}},{"type":"Feature","geometry":{"type":"Point","coordinates":[138.4439595,36.7298922]},"properties":{"id":7572395819,"element_type":"node","access":"yes","amenity":"toilets","fee":"no","male":"yes"}},{"type":"Feature","geometry":{"type":"Point","coordinates":[138.443948,36.7299074]},"properties":{"id":7573451201,"element_type":"node","access":"yes","amenity":"toilets","fee":"no","female":"yes"}},{"type":"Feature","geometry":{"type":"Point","coordinates":[138.4439425,36.7299452]},"properties":{"id":7573451202,"element_type":"node","access":"yes","amenity":"toilets","fee":"no","female":"yes"}},{"type":"Feature","geometry":{"type":"Point","coordinates":[138.1675253,35.9936919]},"properties":{"id":7657624501,"element_type":"node","amenity":"toilets"}},{"type":"Feature","geometry":{"type":"Point","coordinates":[138.1970033,36.5558281]},"properties":{"id":7686456436,"element_type":"node","amenity":"toilets"}},{"type":"Feature","geometry":{"type":"Point","coordinates":[137.858589,35.621828]},"properties":{"id":7831324715,"element_type":"node","amenity":"toilets","changing_table":"no","unisex":"yes"}},{"type":"Feature","geometry":{"type":"Point","coordinates":[137.6317649,35.324372]},"properties":{"id":7831358554,"element_type":"node","amenity":"toilets","wheelchair":"limited"}},{"type":"Feature","geometry":{"type":"Point","coordinates":[138.4235978,36.3296013]},"properties":{"id":7844807761,"element_type":"node","access":"yes","amenity":"toilets","changing_table":"no","unisex":"yes","wheelchair":"yes"}},{"type":"Feature","geometry":{"type":"Point","coordinates":[138.425759,36.3279602]},"properties":{"id":7844832398,"element_type":"node","access":"yes","amenity":"toilets","wheelchair":"yes"}},{"type":"Feature","geometry":{"type":"Point","coordinates":[138.41545,36.3287717]},"properties":{"id":7873061786,"element_type":"node","amenity":"toilets"}},{"type":"Feature","geometry":{"type":"Point","coordinates":[137.8605545,36.4603595]},"properties":{"id":7888534562,"element_type":"node","access":"customers","amenity":"toilets","female":"yes","male":"yes"}},{"type":"Feature","geometry":{"type":"Point","coordinates":[138.437217,36.3163083]},"properties":{"id":7908002154,"element_type":"node","amenity":"toilets","changing_table":"no","wheelchair":"no"}},{"type":"Feature","geometry":{"type":"Point","coordinates":[137.5899383,35.5577953]},"properties":{"id":7929911479,"element_type":"node","amenity":"toilets","fee":"yes","wheelchair":"no"}},{"type":"Feature","geometry":{"type":"Point","coordinates":[137.8432462,35.9865252]},"properties":{"id":8112609735,"element_type":"node","amenity":"toilets"}},{"type":"Feature","geometry":{"type":"Point","coordinates":[137.8864077,35.3694797]},"properties":{"id":8133396674,"element_type":"node","amenity":"toilets"}},{"type":"Feature","geometry":{"type":"Point","coordinates":[138.6491686,36.3336532]},"properties":{"id":8295240428,"element_type":"node","amenity":"toilets"}},{"type":"Feature","geometry":{"type":"Point","coordinates":[138.6404573,36.3393269]},"properties":{"id":8295241735,"element_type":"node","amenity":"toilets"}},{"type":"Feature","geometry":{"type":"Point","coordinates":[137.7682959,35.8988247]},"properties":{"id":8329157614,"element_type":"node","amenity":"toilets","disabled":"yes","note":"巴淵障害者トイレ"}},{"type":"Feature","geometry":{"type":"Point","coordinates":[137.7844025,35.9367668]},"properties":{"id":8335806959,"element_type":"node","amenity":"toilets"}},{"type":"Feature","geometry":{"type":"Point","coordinates":[137.7399335,35.8669481]},"properties":{"id":8353419034,"element_type":"node","amenity":"toilets"}},{"type":"Feature","geometry":{"type":"Point","coordinates":[137.704647,35.8515156]},"properties":{"id":8353932968,"element_type":"node","amenity":"toilets"}},{"type":"Feature","geometry":{"type":"Point","coordinates":[137.6941194,35.846775]},"properties":{"id":8356359472,"element_type":"node","amenity":"toilets"}},{"type":"Feature","geometry":{"type":"Point","coordinates":[137.6960224,35.8492073]},"properties":{"id":8356360073,"element_type":"node","amenity":"toilets"}},{"type":"Feature","geometry":{"type":"Point","coordinates":[138.5945188,36.4100379]},"properties":{"id":8495426803,"element_type":"node","amenity":"toilets","fee":"no","wheelchair":"yes"}},{"type":"Feature","geometry":{"type":"Point","coordinates":[138.5023145,36.1969635]},"properties":{"id":8692252851,"element_type":"node","access":"customers","amenity":"toilets","female":"yes","male":"yes"}},{"type":"Feature","geometry":{"type":"Point","coordinates":[137.9842565,36.2113967]},"properties":{"id":8697069552,"element_type":"node","amenity":"toilets"}},{"type":"Feature","geometry":{"type":"Point","coordinates":[138.301802,36.0682725]},"properties":{"id":8701633441,"element_type":"node","amenity":"toilets","female":"yes","male":"yes"}},{"type":"Feature","geometry":{"type":"Point","coordinates":[137.7778968,35.4511429]},"properties":{"id":8703404358,"element_type":"node","amenity":"toilets","portable":"yes","toilets:disposal":"chemical"}},{"type":"Feature","geometry":{"type":"Point","coordinates":[138.3643337,36.2860023]},"properties":{"id":8711235233,"element_type":"node","access":"customers","amenity":"toilets","female":"yes","male":"yes"}},{"type":"Feature","geometry":{"type":"Point","coordinates":[138.2401065,36.0368085]},"properties":{"id":8730068271,"element_type":"node","access":"customers","amenity":"toilets","female":"yes","male":"yes","toilets:disposal":"flush"}},{"type":"Feature","geometry":{"type":"Point","coordinates":[138.4565782,36.783994]},"properties":{"id":8867256284,"element_type":"node","access":"yes","amenity":"toilets","level":"-1"}},{"type":"Feature","geometry":{"type":"Point","coordinates":[138.4591739,36.0525491]},"properties":{"id":8896739245,"element_type":"node","amenity":"toilets"}},{"type":"Feature","geometry":{"type":"Point","coordinates":[137.8158489,35.5281377]},"properties":{"id":8931682601,"element_type":"node","access":"yes","amenity":"toilets","toilets:disposal":"flush"}},{"type":"Feature","geometry":{"type":"Point","coordinates":[137.8171799,35.5283507]},"properties":{"id":8931682608,"element_type":"node","amenity":"toilets","toilets:disposal":"flush"}},{"type":"Feature","geometry":{"type":"Point","coordinates":[138.4218161,36.3285953]},"properties":{"id":9001022931,"element_type":"node","amenity":"toilets"}},{"type":"Feature","geometry":{"type":"Point","coordinates":[137.8663089,36.5561843]},"properties":{"id":9044614667,"element_type":"node","amenity":"toilets"}},{"type":"Feature","geometry":{"type":"Point","coordinates":[137.8711384,36.5622513]},"properties":{"id":9044614669,"element_type":"node","amenity":"toilets"}},{"type":"Feature","geometry":{"type":"Point","coordinates":[138.0642393,36.7499808]},"properties":{"id":9219961231,"element_type":"node","amenity":"toilets"}},{"type":"Feature","geometry":{"type":"Point","coordinates":[138.2733215,35.9776474]},"properties":{"id":9589932741,"element_type":"node","amenity":"toilets"}},{"type":"Feature","geometry":{"type":"Point","coordinates":[138.0977645,36.4971505]},"properties":{"id":9607753716,"element_type":"node","amenity":"toilets"}},{"type":"Feature","geometry":{"type":"Point","coordinates":[138.4476985,36.9598034]},"properties":{"id":9710559306,"element_type":"node","amenity":"toilets"}},{"type":"Feature","geometry":{"type":"Point","coordinates":[137.9323623,36.4242673]},"properties":{"id":9710586970,"element_type":"node","amenity":"toilets"}},{"type":"Feature","geometry":{"type":"Point","coordinates":[137.9549344,36.2460227]},"properties":{"id":9724076909,"element_type":"node","amenity":"toilets"}},{"type":"Feature","geometry":{"type":"Point","coordinates":[137.955282,36.2482287]},"properties":{"id":9724098537,"element_type":"node","amenity":"toilets"}},{"type":"Feature","geometry":{"type":"Point","coordinates":[137.6308294,35.4429106]},"properties":{"id":9750612997,"element_type":"node","amenity":"toilets"}},{"type":"Feature","geometry":{"type":"Point","coordinates":[137.858528,35.5676841]},"properties":{"id":9780744998,"element_type":"node","amenity":"toilets","toilets:disposal":"flush"}},{"type":"Feature","geometry":{"type":"Point","coordinates":[138.4210121,36.7363166]},"properties":{"id":9916014757,"element_type":"node","amenity":"toilets"}},{"type":"Feature","geometry":{"type":"Point","coordinates":[137.9032763,36.2939842]},"properties":{"id":9917257725,"element_type":"node","amenity":"toilets","toilets:disposal":"flush","wheelchair":"yes"}},{"type":"Feature","geometry":{"type":"Point","coordinates":[138.1866251,36.6439993]},"properties":{"id":9954352310,"element_type":"node","amenity":"toilets","level":"0","opening_hours":"07:00-20:00","wheelchair":"yes"}},{"type":"Feature","geometry":{"type":"Point","coordinates":[138.1800274,36.6367534]},"properties":{"id":10053660127,"element_type":"node","amenity":"toilets"}},{"type":"Feature","geometry":{"type":"Point","coordinates":[138.339318,36.5181901]},"properties":{"id":10139288824,"element_type":"node","amenity":"toilets"}},{"type":"Feature","geometry":{"type":"Point","coordinates":[138.3449131,36.5303855]},"properties":{"id":10139288827,"element_type":"node","amenity":"toilets","name":"菅池公衆トイレ"}},{"type":"Feature","geometry":{"type":"Point","coordinates":[138.2333356,36.6873734]},"properties":{"id":10160687791,"element_type":"node","amenity":"toilets","name":"昭和の森公園"}},{"type":"Feature","geometry":{"type":"Point","coordinates":[138.6325477,36.3397398]},"properties":{"id":10220778145,"element_type":"node","amenity":"toilets","fee":"no","wheelchair":"yes"}},{"type":"Feature","geometry":{"type":"Point","coordinates":[138.241602,36.6661096]},"properties":{"id":10229529697,"element_type":"node","amenity":"toilets","name":"朝陽駅"}},{"type":"Feature","geometry":{"type":"Point","coordinates":[138.6338618,36.3417316]},"properties":{"id":10236493079,"element_type":"node","amenity":"toilets","fee":"no","wheelchair":"yes"}},{"type":"Feature","geometry":{"type":"Point","coordinates":[137.6363967,35.6730903]},"properties":{"id":10297768083,"element_type":"node","amenity":"toilets"}},{"type":"Feature","geometry":{"type":"Point","coordinates":[138.4837692,36.1607639]},"properties":{"id":10299674635,"element_type":"node","amenity":"toilets"}},{"type":"Feature","geometry":{"type":"Point","coordinates":[138.1572977,36.5807941]},"properties":{"id":10682734312,"element_type":"node","amenity":"toilets"}},{"type":"Feature","geometry":{"type":"Point","coordinates":[138.2272482,35.9643356]},"properties":{"id":10692345512,"element_type":"node","access":"unknown","amenity":"toilets","opening_hours":"Apr-Nov"}},{"type":"Feature","geometry":{"type":"Point","coordinates":[138.2442463,35.9544483]},"properties":{"id":10692361634,"element_type":"node","access":"unknown","amenity":"toilets"}},{"type":"Feature","geometry":{"type":"Point","coordinates":[137.8605829,36.5050067]},"properties":{"id":10718231305,"element_type":"node","amenity":"toilets"}},{"type":"Feature","geometry":{"type":"Point","coordinates":[138.037167,35.5650463]},"properties":{"id":10720585111,"element_type":"node","access":"yes","amenity":"toilets","changing_table":"yes","toilets:disposal":"flush","wheelchair":"yes"}},{"type":"Feature","geometry":{"type":"Point","coordinates":[138.3150637,36.4309545]},"properties":{"id":10744479227,"element_type":"node","access":"yes","amenity":"toilets"}},{"type":"Feature","geometry":{"type":"Point","coordinates":[138.2633421,35.9727079]},"properties":{"id":10744565077,"element_type":"node","amenity":"toilets","opening_hours":"Apr-Nov"}},{"type":"Feature","geometry":{"type":"Point","coordinates":[138.2622666,35.9618003]},"properties":{"id":10744603419,"element_type":"node","access":"unknown","amenity":"toilets","opening_hours":"Apr-Nov","wheelchair":"no"}},{"type":"Feature","geometry":{"type":"Point","coordinates":[138.2663385,35.9730213]},"properties":{"id":10744648345,"element_type":"node","amenity":"toilets","opening_hours":"Apr-Nov"}},{"type":"Feature","geometry":{"type":"Point","coordinates":[138.2477788,36.7529918]},"properties":{"id":10757761075,"element_type":"node","amenity":"toilets","name":"牟礼駅"}},{"type":"Feature","geometry":{"type":"Point","coordinates":[138.2483229,36.7642966]},"properties":{"id":10757761076,"element_type":"node","amenity":"toilets","name":"ファミリーマート 飯綱町塩ノ入店","toilets:disposal":"flush","unisex":"yes"}},{"type":"Feature","geometry":{"type":"Point","coordinates":[138.2161211,36.6575595]},"properties":{"id":10757809843,"element_type":"node","amenity":"toilets","name":"和田公園","wheelchair":"yes"}},{"type":"Feature","geometry":{"type":"Point","coordinates":[138.2323047,36.6611277]},"properties":{"id":10757836434,"element_type":"node","amenity":"toilets","name":"長野運動公園噴水広場","wheelchair":"yes"}},{"type":"Feature","geometry":{"type":"Point","coordinates":[138.2315117,36.6592234]},"properties":{"id":10757836435,"element_type":"node","amenity":"toilets","name":"東長野運動公園野球場","wheelchair":"yes"}},{"type":"Feature","geometry":{"type":"Point","coordinates":[138.2310499,36.6564527]},"properties":{"id":10757836436,"element_type":"node","amenity":"toilets","name":"東長野運動公園テニスコート","wheelchair":"yes"}},{"type":"Feature","geometry":{"type":"Point","coordinates":[138.2312102,36.6649718]},"properties":{"id":10757836437,"element_type":"node","amenity":"toilets","name":"デリシア吉田店","wheelchair":"yes"}},{"type":"Feature","geometry":{"type":"Point","coordinates":[138.2312853,36.6632673]},"properties":{"id":10757836438,"element_type":"node","amenity":"toilets","name":"東長野老人憩の家（※福祉避難所）","wheelchair":"yes"}},{"type":"Feature","geometry":{"type":"Point","coordinates":[138.2324236,36.6660794]},"properties":{"id":10757836439,"element_type":"node","amenity":"toilets","name":"ポリテクセンター長野","wheelchair":"yes"}},{"type":"Feature","geometry":{"type":"Point","coordinates":[138.2238036,36.6595621]},"properties":{"id":10757836440,"element_type":"node","amenity":"toilets","name":"セブンイレブン鍋屋店","wheelchair":"yes"}},{"type":"Feature","geometry":{"type":"Point","coordinates":[138.2205436,36.6595104]},"properties":{"id":10757836445,"element_type":"node","amenity":"toilets","name":"ファミリーマート中越１丁目店","wheelchair":"yes"}},{"type":"Feature","geometry":{"type":"Point","coordinates":[138.2224539,36.6662941]},"properties":{"id":10757836446,"element_type":"node","amenity":"toilets","name":"ながの東急ライフ","wheelchair":"yes"}},{"type":"Feature","geometry":{"type":"Point","coordinates":[138.2220876,36.6671253]},"properties":{"id":10757836447,"element_type":"node","amenity":"toilets","name":"ノテル長野（吉田支所・吉田公民館）","wheelchair":"yes"}},{"type":"Feature","geometry":{"type":"Point","coordinates":[138.2154117,36.6693622]},"properties":{"id":10757979719,"element_type":"node","amenity":"toilets","name":"ファミリーマート吉田店","wheelchair":"yes"}},{"type":"Feature","geometry":{"type":"Point","coordinates":[138.2101163,36.6697343]},"properties":{"id":10757979725,"element_type":"node","amenity":"toilets","name":"ヤマダ電機長野SBC通り店","wheelchair":"yes"}},{"type":"Feature","geometry":{"type":"Point","coordinates":[138.2115865,36.6700484]},"properties":{"id":10757979732,"element_type":"node","amenity":"toilets","name":"ホンダカーズ長野東吉田店","wheelchair":"yes"}},{"type":"Feature","geometry":{"type":"Point","coordinates":[138.2075594,36.6697601]},"properties":{"id":10757979733,"element_type":"node","amenity":"toilets","name":"イオンタウン長野三輪","wheelchair":"yes"}},{"type":"Feature","geometry":{"type":"Point","coordinates":[138.2145456,36.6721932]},"properties":{"id":10757979734,"element_type":"node","amenity":"toilets","name":"セブンイレブン吉田２丁目店","wheelchair":"yes"}},{"type":"Feature","geometry":{"type":"Point","coordinates":[138.2169498,36.6732163]},"properties":{"id":10757979735,"element_type":"node","amenity":"toilets","name":"スバル信州稲田店","wheelchair":"yes"}},{"type":"Feature","geometry":{"type":"Point","coordinates":[138.2140874,36.667757]},"properties":{"id":10757979736,"element_type":"node","amenity":"toilets","name":"ソラーナ上町（※福祉避難所）","wheelchair":"yes"}},{"type":"Feature","geometry":{"type":"Point","coordinates":[138.2121904,36.6671843]},"properties":{"id":10757979737,"element_type":"node","amenity":"toilets","name":"上町公衆トイレ（吉田神社）","wheelchair":"yes"}},{"type":"Feature","geometry":{"type":"Point","coordinates":[138.2373916,36.66036]},"properties":{"id":10757990314,"element_type":"node","amenity":"toilets","name":"セブンイレブン石渡店","wheelchair":"no"}},{"type":"Feature","geometry":{"type":"Point","coordinates":[138.2382599,36.6603072]},"properties":{"id":10757990315,"element_type":"node","amenity":"toilets","wheelchair":"yes"}},{"type":"Feature","geometry":{"type":"Point","coordinates":[138.239582,36.6607228]},"properties":{"id":10757990316,"element_type":"node","amenity":"toilets","wheelchair":"yes"}},{"type":"Feature","geometry":{"type":"Point","coordinates":[138.2345991,36.6601427]},"properties":{"id":10757990321,"element_type":"node","amenity":"toilets","name":"けやきの並木","wheelchair":"yes"}},{"type":"Feature","geometry":{"type":"Point","coordinates":[137.7941841,35.4088947]},"properties":{"id":10772441791,"element_type":"node","amenity":"toilets"}},{"type":"Feature","geometry":{"type":"Point","coordinates":[137.8384194,35.3754349]},"properties":{"id":10772602370,"element_type":"node","amenity":"toilets"}},{"type":"Feature","geometry":{"type":"Point","coordinates":[138.2138303,36.6611664]},"properties":{"id":10774754722,"element_type":"node","amenity":"toilets","wheelchair":"no"}},{"type":"Feature","geometry":{"type":"Point","coordinates":[137.7805778,35.3744782]},"properties":{"id":10778953025,"element_type":"node","amenity":"toilets"}},{"type":"Feature","geometry":{"type":"Point","coordinates":[137.7799434,35.3747099]},"properties":{"id":10778953082,"element_type":"node","amenity":"toilets"}},{"type":"Feature","geometry":{"type":"Point","coordinates":[138.2338819,36.6574992]},"properties":{"id":10780690894,"element_type":"node","amenity":"toilets","name":"長野運動公園サブトラック","wheelchair":"yes"}},{"type":"Feature","geometry":{"type":"Point","coordinates":[138.2251659,36.6684474]},"properties":{"id":10780690895,"element_type":"node","amenity":"toilets","name":"辰巳公園","wheelchair":"yes"}},{"type":"Feature","geometry":{"type":"Point","coordinates":[138.2242005,36.6627803]},"properties":{"id":10783651669,"element_type":"node","amenity":"toilets","name":"北長野１号公園","wheelchair":"no"}},{"type":"Feature","geometry":{"type":"Point","coordinates":[138.1368243,36.4789356]},"properties":{"id":10783833206,"element_type":"node","amenity":"toilets","fee":"no","wheelchair":"yes"}},{"type":"Feature","geometry":{"type":"Point","coordinates":[138.2122989,36.6658819]},"properties":{"id":10786466657,"element_type":"node","amenity":"toilets","name":"セブンイレブン桐原店","wheelchair":"no"}},{"type":"Feature","geometry":{"type":"Point","coordinates":[138.2225557,36.6653053]},"properties":{"id":10786466658,"element_type":"node","amenity":"toilets","name":"北長野駅","wheelchair":"no"}},{"type":"Feature","geometry":{"type":"Point","coordinates":[138.2264857,36.6734771]},"properties":{"id":10791391908,"element_type":"node","amenity":"toilets","name":"天神木公園","wheelchair":"yes"}},{"type":"Feature","geometry":{"type":"Point","coordinates":[138.0488835,35.5888957]},"properties":{"id":10800570299,"element_type":"node","amenity":"toilets","name":"塩の里公衆トイレ","name:en":"Shionosato Restrooms","name:ja":"塩の里公衆トイレ"}},{"type":"Feature","geometry":{"type":"Point","coordinates":[137.5523535,35.8259977]},"properties":{"id":10823579860,"element_type":"node","access":"yes","amenity":"toilets","changing_table":"yes","fee":"no","female":"yes","level":"0","male":"yes","toilets:disposal":"flush","toilets:handwashing":"yes","toilets:position":"seated;urinal","wheelchair":"yes"}},{"type":"Feature","geometry":{"type":"Point","coordinates":[137.8145481,35.5291165]},"properties":{"id":10825915729,"element_type":"node","amenity":"toilets"}},{"type":"Feature","geometry":{"type":"Point","coordinates":[137.8379084,35.3773249]},"properties":{"id":10836259141,"element_type":"node","amenity":"toilets"}},{"type":"Feature","geometry":{"type":"Point","coordinates":[138.4552788,36.0508672]},"properties":{"id":11019986991,"element_type":"node","amenity":"toilets","toilets:disposal":"flush"}},{"type":"Feature","geometry":{"type":"Point","coordinates":[137.605783,35.5993663]},"properties":{"id":11033599887,"element_type":"node","amenity":"toilets"}},{"type":"Feature","geometry":{"type":"Point","coordinates":[138.1712618,36.561077]},"properties":{"id":11050731635,"element_type":"node","access":"yes","amenity":"toilets"}},{"type":"Feature","geometry":{"type":"Point","coordinates":[138.3665556,36.8573443]},"properties":{"id":11070279482,"element_type":"node","amenity":"toilets","name":"飯山城址公園・駐車場公衆トイレ"}},{"type":"Feature","geometry":{"type":"Point","coordinates":[137.8636092,36.6959199]},"properties":{"id":11089126753,"element_type":"node","access":"yes","amenity":"toilets","changing_table":"yes","fee":"no","highchair":"yes","level":"0","toilets:disposal":"flush","toilets:handwashing":"yes","toilets:paper_supplied":"yes","toilets:position":"seated;urinal","wheelchair":"limited"}},{"type":"Feature","geometry":{"type":"Point","coordinates":[137.8957102,36.7199113]},"properties":{"id":11097778033,"element_type":"node","access":"customers","amenity":"toilets","female":"yes","male":"yes"}},{"type":"Feature","geometry":{"type":"Point","coordinates":[138.5598223,36.3362495]},"properties":{"id":11117945933,"element_type":"node","amenity":"toilets"}},{"type":"Feature","geometry":{"type":"Point","coordinates":[138.3724576,35.9939453]},"properties":{"id":11129644393,"element_type":"node","amenity":"toilets","toilets:disposal":"flush"}},{"type":"Feature","geometry":{"type":"Point","coordinates":[137.9094256,36.7786855]},"properties":{"id":11147273647,"element_type":"node","access":"customers","amenity":"toilets","female":"yes","male":"yes"}},{"type":"Feature","geometry":{"type":"Point","coordinates":[138.1879195,36.6629434]},"properties":{"id":11150279759,"element_type":"node","access":"yes","amenity":"toilets","female":"yes","male":"yes","wheelchair":"yes"}},{"type":"Feature","geometry":{"type":"Point","coordinates":[137.8586152,36.716933]},"properties":{"id":11166003977,"element_type":"node","access":"customers","amenity":"toilets","female":"yes","male":"yes"}},{"type":"Feature","geometry":{"type":"Point","coordinates":[137.8399001,36.7291858]},"properties":{"id":11195585890,"element_type":"node","access":"customers","amenity":"toilets","female":"yes","male":"yes"}},{"type":"Feature","geometry":{"type":"Point","coordinates":[137.8375693,36.7219522]},"properties":{"id":11195585906,"element_type":"node","access":"customers","amenity":"toilets","female":"yes","male":"yes"}},{"type":"Feature","geometry":{"type":"Point","coordinates":[138.187773,36.6558224]},"properties":{"id":11197042037,"element_type":"node","amenity":"toilets"}},{"type":"Feature","geometry":{"type":"Point","coordinates":[138.1878686,36.6629405]},"properties":{"id":11197070137,"element_type":"node","amenity":"toilets"}},{"type":"Feature","geometry":{"type":"Point","coordinates":[137.8783437,35.4680526]},"properties":{"id":11211752944,"element_type":"node","amenity":"toilets","toilets:disposal":"chemical"}},{"type":"Feature","geometry":{"type":"Point","coordinates":[138.1717968,36.1214186]},"properties":{"id":11214923988,"element_type":"node","amenity":"toilets","check_date":"2023-09-24"}},{"type":"Feature","geometry":{"type":"Point","coordinates":[138.0531636,36.0540321]},"properties":{"id":11222571699,"element_type":"node","amenity":"toilets"}},{"type":"Feature","geometry":{"type":"Point","coordinates":[138.0585845,36.0552154]},"properties":{"id":11222571701,"element_type":"node","amenity":"toilets"}},{"type":"Feature","geometry":{"type":"Point","coordinates":[137.9788082,36.2417246]},"properties":{"id":11256773715,"element_type":"node","amenity":"toilets","name":"女鳥羽公園"}},{"type":"Feature","geometry":{"type":"Point","coordinates":[137.9766557,36.2482772]},"properties":{"id":11256773716,"element_type":"node","amenity":"toilets","name":"旭町公衆便所"}},{"type":"Feature","geometry":{"type":"Point","coordinates":[137.9676026,36.2426506]},"properties":{"id":11256773721,"element_type":"node","amenity":"toilets","fee":"no","name":"開智公園","wheelchair":"yes"}},{"type":"Feature","geometry":{"type":"Point","coordinates":[138.167232,36.0977493]},"properties":{"id":11311284243,"element_type":"node","amenity":"toilets"}},{"type":"Feature","geometry":{"type":"Point","coordinates":[138.2340269,35.9199854]},"properties":{"id":11346590806,"element_type":"node","amenity":"toilets"}},{"type":"Feature","geometry":{"type":"Point","coordinates":[138.1122374,36.0484043]},"properties":{"id":11350476571,"element_type":"node","amenity":"toilets"}},{"type":"Feature","geometry":{"type":"Point","coordinates":[137.9836593,36.2491406]},"properties":{"id":11382823112,"element_type":"node","amenity":"toilets","name":"デリシア"}},{"type":"Feature","geometry":{"type":"Point","coordinates":[138.0974769,36.5025437]},"properties":{"id":11389475162,"element_type":"node","amenity":"toilets","portable":"yes"}},{"type":"Feature","geometry":{"type":"Point","coordinates":[138.0977152,36.5039177]},"properties":{"id":11389475349,"element_type":"node","amenity":"toilets"}},{"type":"Feature","geometry":{"type":"Point","coordinates":[138.1874506,35.9794076]},"properties":{"id":11406482750,"element_type":"node","amenity":"toilets"}},{"type":"Feature","geometry":{"type":"Point","coordinates":[138.1249711,36.5404432]},"properties":{"id":11451911212,"element_type":"node","amenity":"toilets","portable":"yes"}},{"type":"Feature","geometry":{"type":"Point","coordinates":[138.3401069,36.5395247]},"properties":{"id":11499590937,"element_type":"node","amenity":"toilets"}},{"type":"Feature","geometry":{"type":"Point","coordinates":[138.3371272,36.5306251]},"properties":{"id":11499590938,"element_type":"node","amenity":"toilets"}},{"type":"Feature","geometry":{"type":"Point","coordinates":[138.3297485,36.5320156]},"properties":{"id":11499590939,"element_type":"node","amenity":"toilets"}},{"type":"Feature","geometry":{"type":"Point","coordinates":[137.7868376,35.9436584]},"properties":{"id":11650672559,"element_type":"node","amenity":"toilets"}},{"type":"Feature","geometry":{"type":"Point","coordinates":[137.602713,35.5923114]},"properties":{"id":11650810309,"element_type":"node","amenity":"toilets"}},{"type":"Feature","geometry":{"type":"Point","coordinates":[137.6123079,35.610672]},"properties":{"id":11650811854,"element_type":"node","amenity":"toilets"}},{"type":"Feature","geometry":{"type":"Point","coordinates":[137.6942471,35.6973394]},"properties":{"id":11651307709,"element_type":"node","amenity":"toilets"}},{"type":"Feature","geometry":{"type":"Point","coordinates":[137.8304957,35.9789229]},"properties":{"id":11651397788,"element_type":"node","amenity":"toilets"}},{"type":"Feature","geometry":{"type":"Point","coordinates":[137.9163787,36.0867715]},"properties":{"id":11651592114,"element_type":"node","amenity":"toilets"}},{"type":"Feature","geometry":{"type":"Point","coordinates":[137.9677114,36.234819]},"properties":{"id":11655681902,"element_type":"node","amenity":"toilets"}},{"type":"Feature","geometry":{"type":"Point","coordinates":[138.1060834,36.2340457]},"properties":{"id":11680958152,"element_type":"node","amenity":"toilets"}},{"type":"Feature","geometry":{"type":"Point","coordinates":[138.6350072,36.3589171]},"properties":{"id":11740388578,"element_type":"node","access":"yes","amenity":"toilets","changing_table":"yes","charge":"100JPY","check_date":"2024-03-18","fee":"yes","toilets:disposal":"flush"}},{"type":"Feature","geometry":{"type":"Point","coordinates":[138.1531403,36.4919551]},"properties":{"id":11750296568,"element_type":"node","amenity":"toilets"}},{"type":"Feature","geometry":{"type":"Point","coordinates":[138.02843,36.0929361]},"properties":{"id":11754046890,"element_type":"node","amenity":"toilets"}},{"type":"Feature","geometry":{"type":"Point","coordinates":[137.954199,36.2622668]},"properties":{"id":11756931223,"element_type":"node","access":"yes","amenity":"toilets","changing_table":"yes","check_date":"2024-03-24","toilets:disposal":"flush","wheelchair":"yes"}},{"type":"Feature","geometry":{"type":"Point","coordinates":[137.9530534,36.2615741]},"properties":{"id":11756985336,"element_type":"node","access":"yes","amenity":"toilets","changing_table":"yes","check_date":"2024-03-24","toilets:disposal":"flush","wheelchair":"yes"}},{"type":"Feature","geometry":{"type":"Point","coordinates":[137.595511,35.5769598]},"properties":{"id":11811263100,"element_type":"node","amenity":"toilets","fee":"no","wheelchair":"yes"}},{"type":"Feature","geometry":{"type":"Point","coordinates":[137.5949821,35.5776328]},"properties":{"id":11811271135,"element_type":"node","amenity":"toilets"}},{"type":"Feature","geometry":{"type":"Point","coordinates":[137.6067633,35.6548866]},"properties":{"id":11934479339,"element_type":"node","amenity":"toilets","toilets:disposal":"flush"}},{"type":"Feature","geometry":{"type":"Point","coordinates":[137.6050078,35.6529539]},"properties":{"id":11934479343,"element_type":"node","amenity":"toilets","toilets:disposal":"flush"}},{"type":"Feature","geometry":{"type":"Point","coordinates":[138.3723481,36.5381545]},"properties":{"id":12063324109,"element_type":"node","amenity":"toilets","check_date":"2024-07-19","toilets:disposal":"flush"}},{"type":"Feature","geometry":{"type":"Point","coordinates":[138.2911295,36.1212036]},"properties":{"id":12065356578,"element_type":"node","amenity":"toilets","check_date":"2024-07-21","fee":"no","source":"survey","toilets:disposal":"flush","toilets:handwashing":"yes","toilets:position":"squat;urinal"}},{"type":"Feature","geometry":{"type":"Point","coordinates":[138.2985811,36.1072627]},"properties":{"id":12065577003,"element_type":"node","amenity":"toilets","charge":"200","check_date":"2024-07-21","fee":"yes","wheelchair":"no"}},{"type":"Feature","geometry":{"type":"Point","coordinates":[138.2727213,36.1292164]},"properties":{"id":12065642177,"element_type":"node","amenity":"toilets","changing_table":"yes","check_date":"2024-07-21","fee":"no","toilets:disposal":"flush"}},{"type":"Feature","geometry":{"type":"Point","coordinates":[138.468884,36.4044612]},"properties":{"id":12077655019,"element_type":"node","amenity":"toilets","check_date":"2024-07-28","fee":"no","toilets:disposal":"flush","toilets:position":"seated;urinal"}},{"type":"Feature","geometry":{"type":"Point","coordinates":[137.8424248,35.9860133]},"properties":{"id":12105436523,"element_type":"node","amenity":"toilets"}},{"type":"Feature","geometry":{"type":"Point","coordinates":[138.1548471,36.6282316]},"properties":{"id":12124305664,"element_type":"node","amenity":"toilets"}},{"type":"Feature","geometry":{"type":"Point","coordinates":[137.7151423,36.3994556]},"properties":{"id":12147494736,"element_type":"node","access":"customers","amenity":"toilets"}},{"type":"Feature","geometry":{"type":"Point","coordinates":[137.7152083,36.3989918]},"properties":{"id":12147494737,"element_type":"node","access":"customers","amenity":"toilets"}},{"type":"Feature","geometry":{"type":"Point","coordinates":[137.7271505,36.3935924]},"properties":{"id":12147494788,"element_type":"node","access":"customers","amenity":"toilets","female":"yes","male":"yes"}},{"type":"Feature","geometry":{"type":"Point","coordinates":[138.0123255,36.2634418]},"properties":{"id":12187636200,"element_type":"node","amenity":"toilets"}},{"type":"Feature","geometry":{"type":"Point","coordinates":[138.6416402,36.3275814]},"properties":{"id":12291548257,"element_type":"node","amenity":"toilets","toilets:disposal":"flush"}},{"type":"Feature","geometry":{"type":"Point","coordinates":[138.2377193,36.5130882]},"properties":{"id":12342325069,"element_type":"node","amenity":"toilets"}},{"type":"Feature","geometry":{"type":"Point","coordinates":[137.9675516,36.228468]},"properties":{"id":12347113928,"element_type":"node","amenity":"toilets"}},{"type":"Feature","geometry":{"type":"Point","coordinates":[137.8191381,36.2736446]},"properties":{"id":12368026777,"element_type":"node","access":"yes","amenity":"toilets","changing_table":"no","drinking_water":"no","toilets:disposal":"flush","toilets:handwashing":"yes","toilets:position":"seated;urinal","wheelchair":"no"}},{"type":"Feature","geometry":{"type":"Point","coordinates":[138.0348013,35.5644025]},"properties":{"id":12372897682,"element_type":"node","amenity":"toilets","changing_table":"yes","wheelchair":"yes"}},{"type":"Feature","geometry":{"type":"Point","coordinates":[138.3188414,36.6982887]},"properties":{"id":12389331390,"element_type":"node","access":"customers","amenity":"toilets","female":"yes","male":"yes"}},{"type":"Feature","geometry":{"type":"Point","coordinates":[137.8620361,36.7346331]},"properties":{"id":12434991169,"element_type":"node","access":"yes","amenity":"toilets","fee":"no"}},{"type":"Feature","geometry":{"type":"Point","coordinates":[138.1902811,36.5842462]},"properties":{"id":12462012267,"element_type":"node","amenity":"toilets","toilets:disposal":"flush"}},{"type":"Feature","geometry":{"type":"Point","coordinates":[138.4647981,36.1284982]},"properties":{"id":12464754013,"element_type":"node","access":"yes","amenity":"toilets"}},{"type":"Feature","geometry":{"type":"Point","coordinates":[138.1347974,36.0806162]},"properties":{"id":12541858922,"element_type":"node","amenity":"toilets"}},{"type":"Feature","geometry":{"type":"Point","coordinates":[138.1271199,36.0835301]},"properties":{"id":12541858950,"element_type":"node","amenity":"toilets"}},{"type":"Feature","geometry":{"type":"Point","coordinates":[137.7878059,35.5288806]},"properties":{"id":12543522197,"element_type":"node","amenity":"toilets"}},{"type":"Feature","geometry":{"type":"Point","coordinates":[137.6948583,35.8493912]},"properties":{"id":12802097814,"element_type":"node","access":"yes","amenity":"toilets"}},{"type":"Feature","geometry":{"type":"Point","coordinates":[137.8978921,35.5625803]},"properties":{"id":12876992401,"element_type":"node","amenity":"toilets"}},{"type":"Feature","geometry":{"type":"Point","coordinates":[138.1387741,36.5361926]},"properties":{"id":12898352923,"element_type":"node","amenity":"toilets"}},{"type":"Feature","geometry":{"type":"Point","coordinates":[138.2491958,36.3968331]},"properties":{"id":13064961001,"element_type":"node","amenity":"toilets","check_date":"2025-08-12","fee":"no","level":"0"}},{"type":"Feature","geometry":{"type":"Point","coordinates":[138.153255,36.3517949]},"properties":{"id":13068121801,"element_type":"node","amenity":"toilets"}},{"type":"Feature","geometry":{"type":"Point","coordinates":[138.1409684,36.340216]},"properties":{"id":13068121902,"element_type":"node","amenity":"toilets"}},{"type":"Feature","geometry":{"type":"Point","coordinates":[137.9672916,36.2349016]},"properties":{"id":13081365511,"element_type":"node","amenity":"toilets"}},{"type":"Feature","geometry":{"type":"Point","coordinates":[138.1570217,36.3501873]},"properties":{"id":13104069718,"element_type":"node","amenity":"toilets"}},{"type":"Feature","geometry":{"type":"Point","coordinates":[137.9640978,36.194628]},"properties":{"id":13124335464,"element_type":"node","amenity":"toilets","check_date":"2025-09-07"}},{"type":"Feature","geometry":{"type":"Point","coordinates":[137.9367715,35.7368846]},"properties":{"id":13124883358,"element_type":"node","amenity":"toilets","check_date":"2025-09-07"}},{"type":"Feature","geometry":{"type":"Point","coordinates":[137.59396142,35.93205594]},"properties":{"id":161406835,"element_type":"way","amenity":"toilets","building":"yes","source":"bing"}},{"type":"Feature","geometry":{"type":"Point","coordinates":[137.897426,35.97281622]},"properties":{"id":182496217,"element_type":"way","amenity":"toilets","building":"yes","fee":"no","source":"survey"}},{"type":"Feature","geometry":{"type":"Point","coordinates":[138.19150874,36.650271700000005]},"properties":{"id":184378287,"element_type":"way","amenity":"toilets","building":"yes","fee":"no","source":"Bing,2008-04","wheelchair":"yes"}},{"type":"Feature","geometry":{"type":"Point","coordinates":[138.41736892,36.32735166]},"properties":{"id":218251407,"element_type":"way","amenity":"toilets","building":"yes","source":"Bing, 2011/1-2011/4"}},{"type":"Feature","geometry":{"type":"Point","coordinates":[138.18975422,36.64306988]},"properties":{"id":219172693,"element_type":"way","amenity":"toilets","building":"yes","source":"Bing,2011-10"}},{"type":"Feature","geometry":{"type":"Point","coordinates":[138.18792100000002,36.660626979999996]},"properties":{"id":220287632,"element_type":"way","amenity":"toilets","building":"yes","fee":"no","wheelchair":"yes"}},{"type":"Feature","geometry":{"type":"Point","coordinates":[138.19195327272726,36.663729918181815]},"properties":{"id":220349802,"element_type":"way","amenity":"toilets","building":"yes","source":"Bing,2011-10"}},{"type":"Feature","geometry":{"type":"Point","coordinates":[138.1863503333333,36.662189455555556]},"properties":{"id":220537639,"element_type":"way","access":"yes","amenity":"toilets","building":"yes","female":"yes","male":"yes","source":"GSI/KIBAN 2500;NARO"}},{"type":"Feature","geometry":{"type":"Point","coordinates":[137.8199874923077,35.51881323846154]},"properties":{"id":221491496,"element_type":"way","amenity":"toilets","building":"yes","source":"GSI/KIBAN 2500; NARO"}},{"type":"Feature","geometry":{"type":"Point","coordinates":[138.16416125238092,36.579900423809526]},"properties":{"id":224238670,"element_type":"way","amenity":"toilets","building":"yes","source":"GSI/KIBAN 2500; NARO"}},{"type":"Feature","geometry":{"type":"Point","coordinates":[138.16654487058827,36.57877713529412]},"properties":{"id":224253267,"element_type":"way","amenity":"toilets","building":"yes","source":"GSI/KIBAN 2500; NARO"}},{"type":"Feature","geometry":{"type":"Point","coordinates":[138.16634280000002,36.58131535]},"properties":{"id":224284531,"element_type":"way","amenity":"toilets","building":"yes","source":"GSI/KIBAN 2500; NARO"}},{"type":"Feature","geometry":{"type":"Point","coordinates":[138.16374913529413,36.5813051]},"properties":{"id":224284532,"element_type":"way","amenity":"toilets","building":"yes","source":"GSI/KIBAN 2500; NARO"}},{"type":"Feature","geometry":{"type":"Point","coordinates":[138.1682848363636,36.57893624999999]},"properties":{"id":224293901,"element_type":"way","amenity":"toilets","building":"yes","source":"GSI/KIBAN 2500; NARO"}},{"type":"Feature","geometry":{"type":"Point","coordinates":[138.16754213809523,36.580366938095246]},"properties":{"id":224300302,"element_type":"way","amenity":"toilets","building":"yes","source":"GSI/KIBAN 2500; NARO"}},{"type":"Feature","geometry":{"type":"Point","coordinates":[138.18872091999998,36.6343002]},"properties":{"id":224427681,"element_type":"way","amenity":"toilets","building":"yes","source":"GSI/KIBAN 2500; NARO"}},{"type":"Feature","geometry":{"type":"Point","coordinates":[138.1244606142857,36.543152757142856]},"properties":{"id":225776180,"element_type":"way","amenity":"toilets","building":"yes","source":"GSI/KIBAN 2500; NARO"}},{"type":"Feature","geometry":{"type":"Point","coordinates":[138.18828674000002,36.64770396]},"properties":{"id":230191338,"element_type":"way","amenity":"toilets","building":"yes","fee":"no","source":"GSI/KIBAN 2500; NARO"}},{"type":"Feature","geometry":{"type":"Point","coordinates":[138.40309918000003,36.57469894]},"properties":{"id":232588664,"element_type":"way","amenity":"toilets","building":"yes","source":"Bing"}},{"type":"Feature","geometry":{"type":"Point","coordinates":[137.8078869,35.72318738]},"properties":{"id":234511924,"element_type":"way","amenity":"toilets","building":"yes","source":"survey","toilets:disposal":"pitlatrine","wheelchair":"no"}},{"type":"Feature","geometry":{"type":"Point","coordinates":[138.19964887999998,36.3433971]},"properties":{"id":240272165,"element_type":"way","amenity":"toilets","building":"yes","source":"Bing; survey"}},{"type":"Feature","geometry":{"type":"Point","coordinates":[138.08998738,36.07456962]},"properties":{"id":242211689,"element_type":"way","amenity":"toilets","building":"yes","source":"Bing, 2011/4"}},{"type":"Feature","geometry":{"type":"Point","coordinates":[138.37431648,36.3554258]},"properties":{"id":245623220,"element_type":"way","access":"yes","amenity":"toilets","building":"yes","changing_table":"yes","fee":"no","female":"yes","male":"yes","source":"GPS; Bing","toilets:disposal":"flush","wheelchair":"yes"}},{"type":"Feature","geometry":{"type":"Point","coordinates":[138.34647775,36.371035066666664]},"properties":{"id":245733327,"element_type":"way","amenity":"toilets","building":"yes","source":"Bing"}},{"type":"Feature","geometry":{"type":"Point","coordinates":[138.34836177999998,36.37278556]},"properties":{"id":245733333,"element_type":"way","amenity":"toilets","building":"yes","source":"Bing"}},{"type":"Feature","geometry":{"type":"Point","coordinates":[137.9191049,35.6762975]},"properties":{"id":264310519,"element_type":"way","amenity":"toilets","building":"civic"}},{"type":"Feature","geometry":{"type":"Point","coordinates":[137.91048183999996,35.67138542]},"properties":{"id":264310520,"element_type":"way","amenity":"toilets","building":"public"}},{"type":"Feature","geometry":{"type":"Point","coordinates":[137.90674475999998,35.67662582]},"properties":{"id":264310524,"element_type":"way","amenity":"toilets","building":"yes"}},{"type":"Feature","geometry":{"type":"Point","coordinates":[137.81885682,36.458496280000006]},"properties":{"id":265330980,"element_type":"way","amenity":"toilets","building":"yes","source":"GSI/KIBAN 2500; NARO"}},{"type":"Feature","geometry":{"type":"Point","coordinates":[137.92882386000002,35.67786674]},"properties":{"id":269511484,"element_type":"way","amenity":"toilets","building":"yes"}},{"type":"Feature","geometry":{"type":"Point","coordinates":[138.14404538,35.99425832]},"properties":{"id":275476998,"element_type":"way","amenity":"toilets","building":"public","building:levels":"1","building:levels:underground":"0","ele":"772.1","height":"4.7","source":"MLIT_PLATEAU bldg_ed43055b-8c03-4ffa-af11-e32893d7e782"}},{"type":"Feature","geometry":{"type":"Point","coordinates":[138.19120492000002,35.901989760000006]},"properties":{"id":280766180,"element_type":"way","amenity":"toilets","building":"yes"}},{"type":"Feature","geometry":{"type":"Point","coordinates":[138.17465832,35.9047545]},"properties":{"id":280995621,"element_type":"way","amenity":"toilets","building":"yes"}},{"type":"Feature","geometry":{"type":"Point","coordinates":[138.34484528666664,36.05849556]},"properties":{"id":289172989,"element_type":"way","amenity":"toilets","building":"yes","building:levels":"1","building:levels:underground":"0","ele":"2115.7","height":"4.7","source":"MLIT_PLATEAU bldg_33f412d8-e7de-483d-a5fa-3812ebf6e24b"}},{"type":"Feature","geometry":{"type":"Point","coordinates":[138.19775022000002,36.56294676]},"properties":{"id":293586698,"element_type":"way","amenity":"toilets","building":"yes","name":"緑泉苑","source":"GSI/KIBAN 2500; NARO"}},{"type":"Feature","geometry":{"type":"Point","coordinates":[138.142617425,36.48688138333333]},"properties":{"id":299749043,"element_type":"way","amenity":"toilets","building":"yes","source":"GSImaps/std"}},{"type":"Feature","geometry":{"type":"Point","coordinates":[137.96866133333333,36.239195966666664]},"properties":{"id":300077870,"element_type":"way","amenity":"toilets","building":"yes"}},{"type":"Feature","geometry":{"type":"Point","coordinates":[137.97093982,36.23832624]},"properties":{"id":300077879,"element_type":"way","amenity":"toilets","building":"yes","fee":"no","source":"GSI/KIBAN 2500; NARO","source_ref":"http://wiki.osm.org/wiki/GSI_KIBAN","wheelchair":"yes"}},{"type":"Feature","geometry":{"type":"Point","coordinates":[137.97022551999999,36.23895688]},"properties":{"id":300077883,"element_type":"way","amenity":"toilets","building":"yes","fee":"no","wheelchair":"yes"}},{"type":"Feature","geometry":{"type":"Point","coordinates":[137.96971546,36.23750658]},"properties":{"id":300077896,"element_type":"way","amenity":"toilets","building":"yes","fee":"no","source":"GSI/KIBAN 2500; NARO","source_ref":"http://wiki.osm.org/wiki/GSI_KIBAN","wheelchair":"yes"}},{"type":"Feature","geometry":{"type":"Point","coordinates":[137.96759362,36.239461459999994]},"properties":{"id":300077897,"element_type":"way","amenity":"toilets","building":"yes","fee":"no","name":"松本城入口","source":"GSI/KIBAN 2500;NARO","source_ref":"http://wiki.osm.org/wiki/GSI_KIBAN","wheelchair":"yes"}},{"type":"Feature","geometry":{"type":"Point","coordinates":[138.35581975999997,36.05596388]},"properties":{"id":303309583,"element_type":"way","amenity":"toilets","building":"yes","fee":"50 JPY"}},{"type":"Feature","geometry":{"type":"Point","coordinates":[138.15975942,36.11994966]},"properties":{"id":305509743,"element_type":"way","amenity":"toilets","building":"yes"}},{"type":"Feature","geometry":{"type":"Point","coordinates":[138.16829428,36.0979755]},"properties":{"id":305510088,"element_type":"way","amenity":"toilets","building":"yes"}},{"type":"Feature","geometry":{"type":"Point","coordinates":[137.8713528,36.748214723529415]},"properties":{"id":330360150,"element_type":"way","amenity":"toilets","building":"yes","source":"Bing"}},{"type":"Feature","geometry":{"type":"Point","coordinates":[138.13289298,36.536575299999996]},"properties":{"id":371533502,"element_type":"way","amenity":"toilets","building":"yes"}},{"type":"Feature","geometry":{"type":"Point","coordinates":[138.11595561999997,36.04672134]},"properties":{"id":374674605,"element_type":"way","amenity":"toilets","building":"yes","source":"GSI/KIBAN 2500"}},{"type":"Feature","geometry":{"type":"Point","coordinates":[138.3075360857143,35.917296685714284]},"properties":{"id":378419742,"element_type":"way","amenity":"toilets","indoor":"area","level":"0"}},{"type":"Feature","geometry":{"type":"Point","coordinates":[138.30760751111114,35.917301933333334]},"properties":{"id":378419743,"element_type":"way","amenity":"toilets","indoor":"area","level":"0"}},{"type":"Feature","geometry":{"type":"Point","coordinates":[138.30798528333332,35.9169746]},"properties":{"id":378422454,"element_type":"way","amenity":"toilets","indoor":"yes","level":"0","room":"yes"}},{"type":"Feature","geometry":{"type":"Point","coordinates":[138.30807249,35.916928399999996]},"properties":{"id":378422458,"element_type":"way","amenity":"toilets","indoor":"yes","level":"0","room":"yes"}},{"type":"Feature","geometry":{"type":"Point","coordinates":[138.3080409375,35.9169478875]},"properties":{"id":378422459,"element_type":"way","amenity":"toilets","indoor":"yes","level":"0","room":"yes"}},{"type":"Feature","geometry":{"type":"Point","coordinates":[138.3075728875,35.9173085]},"properties":{"id":379349782,"element_type":"way","amenity":"toilets","indoor":"area","level":"0"}},{"type":"Feature","geometry":{"type":"Point","coordinates":[138.3597734,36.334221979999995]},"properties":{"id":415084767,"element_type":"way","access":"yes","amenity":"toilets","building":"toilets","unisex":"yes"}},{"type":"Feature","geometry":{"type":"Point","coordinates":[137.86472118,36.64783758]},"properties":{"id":421480636,"element_type":"way","amenity":"toilets","building":"yes"}},{"type":"Feature","geometry":{"type":"Point","coordinates":[138.0624183,36.05779972]},"properties":{"id":423142545,"element_type":"way","amenity":"toilets","building":"yes"}},{"type":"Feature","geometry":{"type":"Point","coordinates":[137.63172169999999,35.32437888333333]},"properties":{"id":427579893,"element_type":"way","access":"yes","amenity":"toilets","building":"yes","changing_table":"no","toilets:disposal":"flush"}},{"type":"Feature","geometry":{"type":"Point","coordinates":[138.07903244,36.7556709]},"properties":{"id":435230869,"element_type":"way","amenity":"toilets","building":"yes","fee":"no","wheelchair":"yes"}},{"type":"Feature","geometry":{"type":"Point","coordinates":[138.71048294,35.954122080000005]},"properties":{"id":441908223,"element_type":"way","amenity":"toilets","building":"yes","fee":"no"}},{"type":"Feature","geometry":{"type":"Point","coordinates":[137.69411986,35.84677008]},"properties":{"id":443060051,"element_type":"way","amenity":"toilets","building":"yes","female":"yes","male":"yes","source":"Bing","wheelchair":"yes"}},{"type":"Feature","geometry":{"type":"Point","coordinates":[137.6363893,35.673089399999995]},"properties":{"id":446135418,"element_type":"way","amenity":"toilets","building":"roof","female":"yes","male":"yes","source":"Bing;survey"}},{"type":"Feature","geometry":{"type":"Point","coordinates":[137.6757758142857,36.323289671428576]},"properties":{"id":446744742,"element_type":"way","amenity":"toilets","building":"yes"}},{"type":"Feature","geometry":{"type":"Point","coordinates":[137.69892354,36.29311566]},"properties":{"id":446813569,"element_type":"way","amenity":"toilets","building":"yes"}},{"type":"Feature","geometry":{"type":"Point","coordinates":[137.69899956,36.2932188]},"properties":{"id":446813570,"element_type":"way","amenity":"toilets","building":"yes"}},{"type":"Feature","geometry":{"type":"Point","coordinates":[137.64021218000002,36.25090532]},"properties":{"id":446841681,"element_type":"way","amenity":"toilets","building":"yes","fee":"no","wheelchair":"yes"}},{"type":"Feature","geometry":{"type":"Point","coordinates":[137.63933212,36.250137300000006]},"properties":{"id":446841682,"element_type":"way","amenity":"toilets","building":"yes","fee":"no","wheelchair":"yes"}},{"type":"Feature","geometry":{"type":"Point","coordinates":[137.64922642000002,35.637705499999996]},"properties":{"id":447050580,"element_type":"way","amenity":"toilets","building":"yes","source":"GSImaps/ort"}},{"type":"Feature","geometry":{"type":"Point","coordinates":[137.63537628,36.246646119999994]},"properties":{"id":447787903,"element_type":"way","amenity":"toilets","building":"yes","fee":"yes"}},{"type":"Feature","geometry":{"type":"Point","coordinates":[137.6667963,36.25009654]},"properties":{"id":447787904,"element_type":"way","amenity":"toilets","building":"yes","fee":"no"}},{"type":"Feature","geometry":{"type":"Point","coordinates":[137.75179754,36.15302618]},"properties":{"id":448937846,"element_type":"way","amenity":"toilets","building":"yes","fee":"no","female":"yes","male":"yes","name":"第１トイレ","toilets:disposal":"flush"}},{"type":"Feature","geometry":{"type":"Point","coordinates":[137.75196508,36.153105700000005]},"properties":{"id":448937847,"element_type":"way","amenity":"toilets","building":"yes","fee":"no","female":"yes","male":"yes","name":"第２トイレ","toilets:disposal":"flush"}},{"type":"Feature","geometry":{"type":"Point","coordinates":[137.93652062,35.746688459999994]},"properties":{"id":452964322,"element_type":"way","amenity":"toilets","building":"yes"}},{"type":"Feature","geometry":{"type":"Point","coordinates":[137.54385806,35.80024148]},"properties":{"id":459911878,"element_type":"way","amenity":"toilets","building":"yes","source":"bing"}},{"type":"Feature","geometry":{"type":"Point","coordinates":[137.95976306666665,35.84058682222222]},"properties":{"id":461494015,"element_type":"way","amenity":"toilets","building":"yes"}},{"type":"Feature","geometry":{"type":"Point","coordinates":[137.96098858,35.83814135]},"properties":{"id":462775812,"element_type":"way","amenity":"toilets","building":"yes"}},{"type":"Feature","geometry":{"type":"Point","coordinates":[137.65887048,35.23082056]},"properties":{"id":463201267,"element_type":"way","amenity":"toilets","building":"yes"}},{"type":"Feature","geometry":{"type":"Point","coordinates":[137.70980974000003,35.27355808]},"properties":{"id":463562402,"element_type":"way","amenity":"toilets","building":"yes"}},{"type":"Feature","geometry":{"type":"Point","coordinates":[137.65346514000004,36.16475962]},"properties":{"id":464139695,"element_type":"way","amenity":"toilets","building":"yes","building:levels":"1","name":"沢渡公衆トイレ"}},{"type":"Feature","geometry":{"type":"Point","coordinates":[137.61332202857142,35.851851942857145]},"properties":{"id":467763589,"element_type":"way","amenity":"toilets","building":"yes"}},{"type":"Feature","geometry":{"type":"Point","coordinates":[137.6150427,35.85079428]},"properties":{"id":467763632,"element_type":"way","amenity":"toilets","building":"yes"}},{"type":"Feature","geometry":{"type":"Point","coordinates":[137.85828302,36.42546954]},"properties":{"id":489457030,"element_type":"way","access":"permissive","amenity":"toilets","building":"yes","female":"yes","male":"yes","toilets:disposal":"flush","unisex":"yes"}},{"type":"Feature","geometry":{"type":"Point","coordinates":[137.87156592,36.42298287999999]},"properties":{"id":489758996,"element_type":"way","amenity":"toilets","building":"yes"}},{"type":"Feature","geometry":{"type":"Point","coordinates":[138.3144843,36.64078806]},"properties":{"id":491112070,"element_type":"way","amenity":"toilets","building":"yes"}},{"type":"Feature","geometry":{"type":"Point","coordinates":[138.40485222,36.74107274]},"properties":{"id":492309301,"element_type":"way","amenity":"toilets","building":"yes"}},{"type":"Feature","geometry":{"type":"Point","coordinates":[138.25753450000002,36.272633957142865]},"properties":{"id":492362453,"element_type":"way","amenity":"toilets","building":"yes"}},{"type":"Feature","geometry":{"type":"Point","coordinates":[137.88181633333332,36.340068233333334]},"properties":{"id":496248183,"element_type":"way","amenity":"toilets","building":"yes","toilets:disposal":"flush"}},{"type":"Feature","geometry":{"type":"Point","coordinates":[138.09306618,35.76900256]},"properties":{"id":507913925,"element_type":"way","amenity":"toilets","building":"yes"}},{"type":"Feature","geometry":{"type":"Point","coordinates":[137.96920817999998,35.38784716]},"properties":{"id":523961989,"element_type":"way","amenity":"toilets","building":"yes"}},{"type":"Feature","geometry":{"type":"Point","coordinates":[137.8192897090909,36.45993389090909]},"properties":{"id":526469992,"element_type":"way","amenity":"toilets","building":"yes","source":"GSI/KIBAN 2500; NARO"}},{"type":"Feature","geometry":{"type":"Point","coordinates":[138.18889528,35.72934346]},"properties":{"id":528928854,"element_type":"way","amenity":"toilets"}},{"type":"Feature","geometry":{"type":"Point","coordinates":[138.21344340000002,35.74221648]},"properties":{"id":538419938,"element_type":"way","amenity":"toilets","building":"yes"}},{"type":"Feature","geometry":{"type":"Point","coordinates":[137.8791542,36.30536222]},"properties":{"id":548810627,"element_type":"way","amenity":"toilets","building":"yes"}},{"type":"Feature","geometry":{"type":"Point","coordinates":[137.87707046,36.29393566]},"properties":{"id":548823651,"element_type":"way","amenity":"toilets","building":"yes"}},{"type":"Feature","geometry":{"type":"Point","coordinates":[137.90471272000002,36.30234426]},"properties":{"id":549343726,"element_type":"way","amenity":"toilets","building":"yes"}},{"type":"Feature","geometry":{"type":"Point","coordinates":[138.18812502,36.6617106]},"properties":{"id":549445913,"element_type":"way","amenity":"toilets","building":"yes"}},{"type":"Feature","geometry":{"type":"Point","coordinates":[137.88041766,36.30524688]},"properties":{"id":550233469,"element_type":"way","amenity":"toilets","building":"yes"}},{"type":"Feature","geometry":{"type":"Point","coordinates":[137.96829383999997,36.2319587]},"properties":{"id":553386579,"element_type":"way","amenity":"toilets","building":"yes"}},{"type":"Feature","geometry":{"type":"Point","coordinates":[137.8803253,36.330928459999996]},"properties":{"id":554763971,"element_type":"way","amenity":"toilets","building":"yes"}},{"type":"Feature","geometry":{"type":"Point","coordinates":[137.89845738000002,36.30753742]},"properties":{"id":554780068,"element_type":"way","amenity":"toilets","building":"yes"}},{"type":"Feature","geometry":{"type":"Point","coordinates":[138.00401104,35.992028340000005]},"properties":{"id":555225312,"element_type":"way","amenity":"toilets","building":"yes"}},{"type":"Feature","geometry":{"type":"Point","coordinates":[138.00180042000002,35.99110384]},"properties":{"id":555429797,"element_type":"way","amenity":"toilets","building":"yes"}},{"type":"Feature","geometry":{"type":"Point","coordinates":[137.99200282,35.96697726000001]},"properties":{"id":555437857,"element_type":"way","amenity":"toilets","building":"yes"}},{"type":"Feature","geometry":{"type":"Point","coordinates":[137.99435686666666,35.96761231666667]},"properties":{"id":555443839,"element_type":"way","amenity":"toilets","building":"yes"}},{"type":"Feature","geometry":{"type":"Point","coordinates":[137.99313812,35.98483692]},"properties":{"id":555465588,"element_type":"way","amenity":"toilets","building":"yes"}},{"type":"Feature","geometry":{"type":"Point","coordinates":[137.99219388,35.96465912]},"properties":{"id":555731894,"element_type":"way","amenity":"toilets","building":"yes"}},{"type":"Feature","geometry":{"type":"Point","coordinates":[137.98514008571428,35.95316565714286]},"properties":{"id":555982275,"element_type":"way","amenity":"toilets","building":"yes"}},{"type":"Feature","geometry":{"type":"Point","coordinates":[137.98434976,35.97633648]},"properties":{"id":556273242,"element_type":"way","amenity":"toilets","building":"yes"}},{"type":"Feature","geometry":{"type":"Point","coordinates":[137.97763636,35.82547628]},"properties":{"id":557180007,"element_type":"way","amenity":"toilets","building":"yes"}},{"type":"Feature","geometry":{"type":"Point","coordinates":[137.90795411999997,36.29378484]},"properties":{"id":557194043,"element_type":"way","amenity":"toilets","building":"yes"}},{"type":"Feature","geometry":{"type":"Point","coordinates":[137.98805574,35.981954800000004]},"properties":{"id":557650941,"element_type":"way","amenity":"toilets","building":"yes"}},{"type":"Feature","geometry":{"type":"Point","coordinates":[137.94921766000002,35.83725172]},"properties":{"id":560722037,"element_type":"way","amenity":"toilets","building":"yes"}},{"type":"Feature","geometry":{"type":"Point","coordinates":[137.970496,35.83968734]},"properties":{"id":560739026,"element_type":"way","amenity":"toilets","building":"yes"}},{"type":"Feature","geometry":{"type":"Point","coordinates":[138.00613937999998,35.854566399999996]},"properties":{"id":561274247,"element_type":"way","amenity":"toilets","building":"yes"}},{"type":"Feature","geometry":{"type":"Point","coordinates":[137.99954718,35.910576920000004]},"properties":{"id":561546994,"element_type":"way","amenity":"toilets","building":"yes"}},{"type":"Feature","geometry":{"type":"Point","coordinates":[138.00120742,35.90703620000001]},"properties":{"id":561547008,"element_type":"way","amenity":"toilets","building":"yes"}},{"type":"Feature","geometry":{"type":"Point","coordinates":[137.91725151999998,35.88272732]},"properties":{"id":561991536,"element_type":"way","amenity":"toilets","building":"yes"}},{"type":"Feature","geometry":{"type":"Point","coordinates":[137.9175225,35.88181315999999]},"properties":{"id":561991537,"element_type":"way","amenity":"toilets","building":"yes"}},{"type":"Feature","geometry":{"type":"Point","coordinates":[137.91987726,35.8809364]},"properties":{"id":561991564,"element_type":"way","amenity":"toilets","building":"yes"}},{"type":"Feature","geometry":{"type":"Point","coordinates":[137.91985449999999,35.88224928888889]},"properties":{"id":561991567,"element_type":"way","amenity":"toilets","building":"yes"}},{"type":"Feature","geometry":{"type":"Point","coordinates":[137.90412448,35.98236322]},"properties":{"id":562478501,"element_type":"way","amenity":"toilets","building":"yes"}},{"type":"Feature","geometry":{"type":"Point","coordinates":[137.98809802,35.98564034]},"properties":{"id":568290203,"element_type":"way","amenity":"toilets","building":"yes"}},{"type":"Feature","geometry":{"type":"Point","coordinates":[138.21648466000002,36.03215294]},"properties":{"id":569501386,"element_type":"way","amenity":"toilets","building":"yes","building:levels:underground":"0","ele":"972.7","height":"3.6","source":"MLIT_PLATEAU bldg_e628f44a-fc70-404c-b361-052857c98f79"}},{"type":"Feature","geometry":{"type":"Point","coordinates":[138.64026389999998,35.90735556]},"properties":{"id":571903217,"element_type":"way","amenity":"toilets","building":"yes","drinking_water":"no","fee":"no","female":"yes","male":"yes","toilets:disposal":"flush","toilets:position":"seated;urinal","wheelchair":"limited"}},{"type":"Feature","geometry":{"type":"Point","coordinates":[138.64005737999997,35.909076979999995]},"properties":{"id":571903218,"element_type":"way","amenity":"toilets","building":"yes","drinking_water":"no","female":"yes","male":"yes","toilets:disposal":"pitlatrine","toilets:position":"seated;urinal"}},{"type":"Feature","geometry":{"type":"Point","coordinates":[138.64120386,35.90857012]},"properties":{"id":571903222,"element_type":"way","amenity":"toilets","building":"yes","drinking_water":"no","female":"yes","male":"yes","toilets:disposal":"flush","toilets:position":"seated;urinal"}},{"type":"Feature","geometry":{"type":"Point","coordinates":[137.8453603,35.52250154]},"properties":{"id":578654067,"element_type":"way","amenity":"toilets","building":"yes"}},{"type":"Feature","geometry":{"type":"Point","coordinates":[137.99786822,35.96837036000001]},"properties":{"id":582516931,"element_type":"way","amenity":"toilets","building":"yes"}},{"type":"Feature","geometry":{"type":"Point","coordinates":[137.7467471,35.9683145]},"properties":{"id":582546373,"element_type":"way","amenity":"toilets","building":"yes"}},{"type":"Feature","geometry":{"type":"Point","coordinates":[137.85638144,35.53332956]},"properties":{"id":583515832,"element_type":"way","amenity":"toilets","building":"yes"}},{"type":"Feature","geometry":{"type":"Point","coordinates":[137.85690976,35.53395094]},"properties":{"id":583515889,"element_type":"way","amenity":"toilets","building":"yes"}},{"type":"Feature","geometry":{"type":"Point","coordinates":[137.98720392,35.91317774]},"properties":{"id":588419123,"element_type":"way","amenity":"toilets","building":"yes"}},{"type":"Feature","geometry":{"type":"Point","coordinates":[138.37692388,36.75408632]},"properties":{"id":591363429,"element_type":"way","amenity":"toilets","building":"yes"}},{"type":"Feature","geometry":{"type":"Point","coordinates":[138.3754344555556,36.75425758888888]},"properties":{"id":591363432,"element_type":"way","amenity":"toilets","building":"yes"}},{"type":"Feature","geometry":{"type":"Point","coordinates":[138.196721,36.55917616]},"properties":{"id":592989061,"element_type":"way","amenity":"toilets","building":"yes"}},{"type":"Feature","geometry":{"type":"Point","coordinates":[138.19672146,36.559685480000006]},"properties":{"id":592989079,"element_type":"way","amenity":"toilets","building":"shrine"}},{"type":"Feature","geometry":{"type":"Point","coordinates":[137.9620094,35.8051783]},"properties":{"id":597384776,"element_type":"way","amenity":"toilets","building":"yes"}},{"type":"Feature","geometry":{"type":"Point","coordinates":[137.96853048,36.23975162]},"properties":{"id":605760937,"element_type":"way","amenity":"toilets","building":"yes","fee":"no","name":"開智駐車場","source":"Bing","wheelchair":"yes"}},{"type":"Feature","geometry":{"type":"Point","coordinates":[137.96777498,36.23799288]},"properties":{"id":605760997,"element_type":"way","amenity":"toilets","building":"yes","fee":"no","source":"Bing","wheelchair":"no"}},{"type":"Feature","geometry":{"type":"Point","coordinates":[137.66672373999998,35.459509159999996]},"properties":{"id":605963542,"element_type":"way","amenity":"toilets","building":"yes","wheelchair":"yes"}},{"type":"Feature","geometry":{"type":"Point","coordinates":[137.66453631428573,35.5111858]},"properties":{"id":605980514,"element_type":"way","amenity":"toilets","building":"yes","toilets:disposal":"flush"}},{"type":"Feature","geometry":{"type":"Point","coordinates":[138.18705416153847,36.636398976923076]},"properties":{"id":606532591,"element_type":"way","amenity":"toilets","building":"yes"}},{"type":"Feature","geometry":{"type":"Point","coordinates":[138.18897578000002,36.63518789999999]},"properties":{"id":606532593,"element_type":"way","amenity":"toilets","building":"yes"}},{"type":"Feature","geometry":{"type":"Point","coordinates":[138.18764539999998,36.634135500000006]},"properties":{"id":606532595,"element_type":"way","amenity":"toilets","building":"yes"}},{"type":"Feature","geometry":{"type":"Point","coordinates":[138.59562818,36.32116884]},"properties":{"id":607907784,"element_type":"way","amenity":"toilets","building":"yes"}},{"type":"Feature","geometry":{"type":"Point","coordinates":[137.73994876,35.868913]},"properties":{"id":608482025,"element_type":"way","amenity":"toilets","building":"yes"}},{"type":"Feature","geometry":{"type":"Point","coordinates":[138.57023934,36.40360098]},"properties":{"id":610140639,"element_type":"way","amenity":"toilets","building":"yes"}},{"type":"Feature","geometry":{"type":"Point","coordinates":[138.18829378,36.66925798]},"properties":{"id":611432797,"element_type":"way","amenity":"toilets","building":"yes"}},{"type":"Feature","geometry":{"type":"Point","coordinates":[138.18793724000002,36.641750460000004]},"properties":{"id":611472994,"element_type":"way","amenity":"toilets","building":"yes"}},{"type":"Feature","geometry":{"type":"Point","coordinates":[138.20566433333332,36.406930433333336]},"properties":{"id":613356656,"element_type":"way","amenity":"toilets","building":"yes"}},{"type":"Feature","geometry":{"type":"Point","coordinates":[138.1930149,36.62735424]},"properties":{"id":613580332,"element_type":"way","amenity":"toilets","building":"yes"}},{"type":"Feature","geometry":{"type":"Point","coordinates":[137.96881914285714,36.2391947]},"properties":{"id":624315908,"element_type":"way","amenity":"toilets","building":"yes","fee":"no","wheelchair":"no"}},{"type":"Feature","geometry":{"type":"Point","coordinates":[138.14274846,36.560121460000005]},"properties":{"id":624595420,"element_type":"way","amenity":"toilets","building":"yes","toilets:disposal":"chemical","unisex":"yes"}},{"type":"Feature","geometry":{"type":"Point","coordinates":[137.85797136000002,35.55825936]},"properties":{"id":627398795,"element_type":"way","amenity":"toilets","building":"yes"}},{"type":"Feature","geometry":{"type":"Point","coordinates":[137.85871052,35.55805748]},"properties":{"id":627398797,"element_type":"way","amenity":"toilets","building":"yes"}},{"type":"Feature","geometry":{"type":"Point","coordinates":[137.8541643,35.56158378]},"properties":{"id":627398801,"element_type":"way","amenity":"toilets","building":"yes"}},{"type":"Feature","geometry":{"type":"Point","coordinates":[137.85592192,35.56138418]},"properties":{"id":627398804,"element_type":"way","amenity":"toilets","building":"yes"}},{"type":"Feature","geometry":{"type":"Point","coordinates":[137.88214088,35.56974274]},"properties":{"id":627403124,"element_type":"way","amenity":"toilets","building":"yes"}},{"type":"Feature","geometry":{"type":"Point","coordinates":[137.8885849,35.5812492]},"properties":{"id":627457645,"element_type":"way","amenity":"toilets","building":"yes"}},{"type":"Feature","geometry":{"type":"Point","coordinates":[137.87166356,35.553260120000004]},"properties":{"id":628335614,"element_type":"way","amenity":"toilets","building":"yes"}},{"type":"Feature","geometry":{"type":"Point","coordinates":[137.7614556,35.8891266]},"properties":{"id":629203510,"element_type":"way","amenity":"toilets","building":"yes"}},{"type":"Feature","geometry":{"type":"Point","coordinates":[137.7553313,35.85785244]},"properties":{"id":631613503,"element_type":"way","amenity":"toilets","building":"yes"}},{"type":"Feature","geometry":{"type":"Point","coordinates":[137.69681799999998,35.78336872]},"properties":{"id":632035789,"element_type":"way","amenity":"toilets","building":"yes"}},{"type":"Feature","geometry":{"type":"Point","coordinates":[137.70404042,35.84940312]},"properties":{"id":632711174,"element_type":"way","amenity":"toilets","building":"yes"}},{"type":"Feature","geometry":{"type":"Point","coordinates":[137.70911668000002,35.74717796]},"properties":{"id":633681973,"element_type":"way","amenity":"toilets","building":"yes"}},{"type":"Feature","geometry":{"type":"Point","coordinates":[137.68877388,35.69896878]},"properties":{"id":633684434,"element_type":"way","amenity":"toilets","building":"yes"}},{"type":"Feature","geometry":{"type":"Point","coordinates":[137.99007526,36.17656234]},"properties":{"id":637713628,"element_type":"way","amenity":"toilets","building":"yes"}},{"type":"Feature","geometry":{"type":"Point","coordinates":[138.15280196,36.57408814]},"properties":{"id":651956322,"element_type":"way","amenity":"toilets","building":"yes"}},{"type":"Feature","geometry":{"type":"Point","coordinates":[138.16179516,36.60920868]},"properties":{"id":653449729,"element_type":"way","amenity":"toilets","building":"yes"}},{"type":"Feature","geometry":{"type":"Point","coordinates":[138.2085672,36.68064256]},"properties":{"id":668368358,"element_type":"way","amenity":"toilets","building":"yes"}},{"type":"Feature","geometry":{"type":"Point","coordinates":[138.23927779999997,36.09538858]},"properties":{"id":670615046,"element_type":"way","amenity":"toilets","building":"retail","building:levels":"1","building:levels:underground":"0","ele":"1602.6","height":"8.1","shop":"ticket","source":"MLIT_PLATEAU bldg_e76459e3-c8ad-40c9-9171-1ab5d04675b9"}},{"type":"Feature","geometry":{"type":"Point","coordinates":[137.88425754,36.339574420000005]},"properties":{"id":681762152,"element_type":"way","amenity":"toilets","building":"yes","toilets:disposal":"flush"}},{"type":"Feature","geometry":{"type":"Point","coordinates":[137.84451932,36.594870459999996]},"properties":{"id":683651967,"element_type":"way","amenity":"toilets","building":"yes"}},{"type":"Feature","geometry":{"type":"Point","coordinates":[137.85665686,36.491938499999996]},"properties":{"id":683871571,"element_type":"way","amenity":"toilets","building":"yes"}},{"type":"Feature","geometry":{"type":"Point","coordinates":[137.87015744,36.5053512]},"properties":{"id":686372654,"element_type":"way","access":"yes","amenity":"toilets","building":"yes","fee":"no","wheelchair":"yes"}},{"type":"Feature","geometry":{"type":"Point","coordinates":[137.84682644,36.65309144]},"properties":{"id":687249687,"element_type":"way","access":"customers","amenity":"toilets","building":"yes","female":"yes","male":"yes","wheelchair":"yes"}},{"type":"Feature","geometry":{"type":"Point","coordinates":[138.48597724,36.25445456]},"properties":{"id":688411914,"element_type":"way","amenity":"toilets","building":"yes","unisex":"yes","wheelchair":"yes"}},{"type":"Feature","geometry":{"type":"Point","coordinates":[137.9057899,35.711576300000004]},"properties":{"id":689482255,"element_type":"way","amenity":"toilets","building":"yes"}},{"type":"Feature","geometry":{"type":"Point","coordinates":[138.51004916000002,36.31783994]},"properties":{"id":691856171,"element_type":"way","amenity":"toilets","building":"yes"}},{"type":"Feature","geometry":{"type":"Point","coordinates":[138.51799914,36.30998646]},"properties":{"id":691867205,"element_type":"way","amenity":"toilets","building":"yes"}},{"type":"Feature","geometry":{"type":"Point","coordinates":[138.43564124000002,36.3108448]},"properties":{"id":692597940,"element_type":"way","amenity":"toilets","building":"yes"}},{"type":"Feature","geometry":{"type":"Point","coordinates":[138.43874734,36.310903520000004]},"properties":{"id":692600484,"element_type":"way","amenity":"toilets","building":"yes"}},{"type":"Feature","geometry":{"type":"Point","coordinates":[138.42229906,36.31527318]},"properties":{"id":692684720,"element_type":"way","amenity":"toilets","building":"yes"}},{"type":"Feature","geometry":{"type":"Point","coordinates":[138.42528778888888,36.3167483888889]},"properties":{"id":692684721,"element_type":"way","amenity":"toilets","building":"yes"}},{"type":"Feature","geometry":{"type":"Point","coordinates":[138.4224182,36.33992916666667]},"properties":{"id":693459221,"element_type":"way","amenity":"toilets","building":"yes"}},{"type":"Feature","geometry":{"type":"Point","coordinates":[138.42240576,36.341785560000005]},"properties":{"id":693459231,"element_type":"way","amenity":"toilets","building":"yes"}},{"type":"Feature","geometry":{"type":"Point","coordinates":[138.39540648,36.23538384000001]},"properties":{"id":693562081,"element_type":"way","amenity":"toilets","building":"yes"}},{"type":"Feature","geometry":{"type":"Point","coordinates":[138.41973132857143,36.32773702857143]},"properties":{"id":694955821,"element_type":"way","amenity":"toilets","building":"yes","wheelchair":"yes"}},{"type":"Feature","geometry":{"type":"Point","coordinates":[138.42036706000002,36.327363260000006]},"properties":{"id":694955823,"element_type":"way","amenity":"toilets","building":"yes"}},{"type":"Feature","geometry":{"type":"Point","coordinates":[138.41703744,36.326515799999996]},"properties":{"id":694967391,"element_type":"way","amenity":"toilets","building":"yes","wheelchair":"yes"}},{"type":"Feature","geometry":{"type":"Point","coordinates":[138.63681540000002,36.34598527142857]},"properties":{"id":695008667,"element_type":"way","amenity":"toilets","building":"yes"}},{"type":"Feature","geometry":{"type":"Point","coordinates":[138.6388225,36.3443985375]},"properties":{"id":695008668,"element_type":"way","amenity":"toilets","building":"yes"}},{"type":"Feature","geometry":{"type":"Point","coordinates":[138.56246552,36.34954724]},"properties":{"id":695581949,"element_type":"way","amenity":"toilets","building":"yes"}},{"type":"Feature","geometry":{"type":"Point","coordinates":[138.42050147999998,36.42742984]},"properties":{"id":696101956,"element_type":"way","amenity":"toilets","building":"yes"}},{"type":"Feature","geometry":{"type":"Point","coordinates":[138.59474458,36.33713198]},"properties":{"id":696277175,"element_type":"way","amenity":"toilets","building":"yes"}},{"type":"Feature","geometry":{"type":"Point","coordinates":[138.59472829999999,36.34079286000001]},"properties":{"id":696278391,"element_type":"way","amenity":"toilets","building":"yes"}},{"type":"Feature","geometry":{"type":"Point","coordinates":[138.35105407999998,36.36367445999999]},"properties":{"id":697054024,"element_type":"way","amenity":"toilets","building":"yes"}},{"type":"Feature","geometry":{"type":"Point","coordinates":[138.34814946,36.36330046]},"properties":{"id":697054027,"element_type":"way","amenity":"toilets","building":"yes"}},{"type":"Feature","geometry":{"type":"Point","coordinates":[138.34985467999996,36.36172989999999]},"properties":{"id":697056127,"element_type":"way","amenity":"toilets","building":"yes"}},{"type":"Feature","geometry":{"type":"Point","coordinates":[138.24645366,36.40395556]},"properties":{"id":705431575,"element_type":"way","amenity":"toilets","building":"yes"}},{"type":"Feature","geometry":{"type":"Point","coordinates":[138.08122545999998,35.777731360000004]},"properties":{"id":706652500,"element_type":"way","amenity":"toilets","building":"yes"}},{"type":"Feature","geometry":{"type":"Point","coordinates":[138.19856294000002,36.56607998]},"properties":{"id":710006322,"element_type":"way","amenity":"toilets","building":"yes"}},{"type":"Feature","geometry":{"type":"Point","coordinates":[138.19505973999998,36.565689580000004]},"properties":{"id":710006336,"element_type":"way","amenity":"toilets","building":"yes","fee":"no","source":"GSI/KIBAN 2500; NARO","wheelchair":"yes"}},{"type":"Feature","geometry":{"type":"Point","coordinates":[138.24632126,36.405605699999995]},"properties":{"id":710373633,"element_type":"way","amenity":"toilets","building":"yes"}},{"type":"Feature","geometry":{"type":"Point","coordinates":[138.3472409142857,36.52122877142857]},"properties":{"id":712735365,"element_type":"way","amenity":"toilets","building":"yes"}},{"type":"Feature","geometry":{"type":"Point","coordinates":[138.25484451999998,36.399467779999995]},"properties":{"id":712735404,"element_type":"way","amenity":"toilets","building":"yes"}},{"type":"Feature","geometry":{"type":"Point","coordinates":[138.60023747999998,35.95166554]},"properties":{"id":716100938,"element_type":"way","amenity":"toilets","building":"yes","name":"トイレ"}},{"type":"Feature","geometry":{"type":"Point","coordinates":[138.03529125999998,35.56057552]},"properties":{"id":722440175,"element_type":"way","amenity":"toilets","building":"yes"}},{"type":"Feature","geometry":{"type":"Point","coordinates":[137.68881876,36.26468962]},"properties":{"id":727208768,"element_type":"way","amenity":"toilets","building":"yes","building:levels":"1","name":"徳沢公衆トイレ"}},{"type":"Feature","geometry":{"type":"Point","coordinates":[137.6560665,36.16496302]},"properties":{"id":727216877,"element_type":"way","amenity":"toilets","building":"yes"}},{"type":"Feature","geometry":{"type":"Point","coordinates":[137.66047698333333,36.295382233333335]},"properties":{"id":727241513,"element_type":"way","amenity":"toilets","building":"public","building:levels":"1","name":"涸沢公衆トイレ"}},{"type":"Feature","geometry":{"type":"Point","coordinates":[138.2337878,36.67713729999999]},"properties":{"id":737772131,"element_type":"way","amenity":"toilets","building":"yes","name":"長野高専グラウンド","unisex":"yes"}},{"type":"Feature","geometry":{"type":"Point","coordinates":[138.23359614,36.68708282]},"properties":{"id":739521269,"element_type":"way","amenity":"toilets","building":"yes"}},{"type":"Feature","geometry":{"type":"Point","coordinates":[138.22811289999999,36.64864286]},"properties":{"id":754626385,"element_type":"way","amenity":"toilets","building":"yes"}},{"type":"Feature","geometry":{"type":"Point","coordinates":[138.1405963,36.372760420000006]},"properties":{"id":771029896,"element_type":"way","amenity":"toilets","building":"yes"}},{"type":"Feature","geometry":{"type":"Point","coordinates":[137.98276142,36.22987872]},"properties":{"id":773062105,"element_type":"way","amenity":"toilets","building":"yes","unisex":"yes"}},{"type":"Feature","geometry":{"type":"Point","coordinates":[137.98266557999997,36.22983732]},"properties":{"id":773062106,"element_type":"way","amenity":"toilets","building":"yes","changing_table":"no","wheelchair":"yes"}},{"type":"Feature","geometry":{"type":"Point","coordinates":[137.9841208285714,36.231662099999994]},"properties":{"id":773062110,"element_type":"way","amenity":"toilets","building":"yes","unisex":"yes","wheelchair":"yes"}},{"type":"Feature","geometry":{"type":"Point","coordinates":[138.66249904,36.853616599999995]},"properties":{"id":779292645,"element_type":"way","amenity":"toilets","building":"yes"}},{"type":"Feature","geometry":{"type":"Point","coordinates":[137.95803114,36.1838573]},"properties":{"id":781996771,"element_type":"way","amenity":"toilets","building":"yes"}},{"type":"Feature","geometry":{"type":"Point","coordinates":[137.959283,36.18544422000001]},"properties":{"id":781996772,"element_type":"way","amenity":"toilets","building":"yes"}},{"type":"Feature","geometry":{"type":"Point","coordinates":[137.95794618,36.185054799999996]},"properties":{"id":781996773,"element_type":"way","amenity":"toilets","building":"yes"}},{"type":"Feature","geometry":{"type":"Point","coordinates":[138.21729248000003,36.36293252]},"properties":{"id":784269556,"element_type":"way","amenity":"toilets","building":"toilets"}},{"type":"Feature","geometry":{"type":"Point","coordinates":[137.74925760000002,36.15300656]},"properties":{"id":787060877,"element_type":"way","amenity":"toilets","building":"toilets"}},{"type":"Feature","geometry":{"type":"Point","coordinates":[137.7491497,36.15304922]},"properties":{"id":787060878,"element_type":"way","amenity":"toilets","building":"toilets"}},{"type":"Feature","geometry":{"type":"Point","coordinates":[137.62471853999998,36.12247498]},"properties":{"id":787881113,"element_type":"way","access":"yes","amenity":"toilets","building":"toilets","changing_table":"yes","check_date":"2022-10-02","fee":"no","toilets:disposal":"flush","toilets:handwashing":"yes","toilets:position":"seated;urinal","wheelchair":"yes"}},{"type":"Feature","geometry":{"type":"Point","coordinates":[137.55174942000002,36.114649459999995]},"properties":{"id":787898770,"element_type":"way","amenity":"toilets","building":"toilets"}},{"type":"Feature","geometry":{"type":"Point","coordinates":[137.99414604,36.17112796]},"properties":{"id":788177321,"element_type":"way","amenity":"toilets","building":"yes"}},{"type":"Feature","geometry":{"type":"Point","coordinates":[137.98576792,36.17710566]},"properties":{"id":788177322,"element_type":"way","amenity":"toilets","building":"yes"}},{"type":"Feature","geometry":{"type":"Point","coordinates":[138.22239184285715,36.392577442857146]},"properties":{"id":791668841,"element_type":"way","amenity":"toilets","building":"toilets"}},{"type":"Feature","geometry":{"type":"Point","coordinates":[137.77968372,35.50722072]},"properties":{"id":812687485,"element_type":"way","amenity":"toilets","building":"yes","toilets:disposal":"flush"}},{"type":"Feature","geometry":{"type":"Point","coordinates":[137.82759951999998,35.48791138]},"properties":{"id":816711745,"element_type":"way","amenity":"toilets","building":"yes","toilets:disposal":"flush"}},{"type":"Feature","geometry":{"type":"Point","coordinates":[137.9566069,36.17516494]},"properties":{"id":821454997,"element_type":"way","amenity":"toilets","building":"yes","toilets:disposal":"flush"}},{"type":"Feature","geometry":{"type":"Point","coordinates":[138.07252658000002,35.6023976]},"properties":{"id":826362228,"element_type":"way","amenity":"toilets","building":"yes","name":"大池高原キャンプ場トイレ","name:en":"Ōike Kōgen Camping Ground Toilets","name:ja":"大池高原キャンプ場トイレ"}},{"type":"Feature","geometry":{"type":"Point","coordinates":[137.81260968,35.53471292]},"properties":{"id":827259748,"element_type":"way","amenity":"toilets","building":"yes","name":"飯田運動広場駐車場トイレ","name:ja":"飯田運動広場駐車場トイレ"}},{"type":"Feature","geometry":{"type":"Point","coordinates":[138.65684019999998,36.3682259]},"properties":{"id":829961565,"element_type":"way","amenity":"toilets","building":"yes","fee":"no","toilets:disposal":"flush","wheelchair":"yes"}},{"type":"Feature","geometry":{"type":"Point","coordinates":[137.92954292,35.321109639999996]},"properties":{"id":831015726,"element_type":"way","access":"yes","amenity":"toilets","building":"yes","name":"道の駅「遠山郷」トイレ","name:en":"Roadside Station Tōyamagō Toilets","name:ja":"道の駅「遠山郷」トイレ","toilets:disposal":"flush"}},{"type":"Feature","geometry":{"type":"Point","coordinates":[138.05341083999997,35.550109320000004]},"properties":{"id":833697707,"element_type":"way","access":"yes","amenity":"toilets","building":"yes"}},{"type":"Feature","geometry":{"type":"Point","coordinates":[137.72389006,35.55524366]},"properties":{"id":837290615,"element_type":"way","amenity":"toilets","building":"yes","toilets:disposal":"pitlatrine"}},{"type":"Feature","geometry":{"type":"Point","coordinates":[137.72331741999997,35.55591212]},"properties":{"id":837338327,"element_type":"way","amenity":"toilets","building":"yes","toilets:disposal":"pitlatrine"}},{"type":"Feature","geometry":{"type":"Point","coordinates":[137.68043646666666,35.24380996666667]},"properties":{"id":839991131,"element_type":"way","amenity":"toilets","building":"yes","toilets:disposal":"pitlatrine"}},{"type":"Feature","geometry":{"type":"Point","coordinates":[138.34263776,36.35465338]},"properties":{"id":840254795,"element_type":"way","amenity":"toilets","building":"yes"}},{"type":"Feature","geometry":{"type":"Point","coordinates":[138.2965466,36.369676219999995]},"properties":{"id":842385425,"element_type":"way","amenity":"toilets","building":"yes","wheelchair":"yes"}},{"type":"Feature","geometry":{"type":"Point","coordinates":[137.78797048,35.524820940000005]},"properties":{"id":842511310,"element_type":"way","access":"permissive","amenity":"toilets","building":"yes","toilets:disposal":"flush","wheelchair":"limited"}},{"type":"Feature","geometry":{"type":"Point","coordinates":[137.56726098,35.25648982]},"properties":{"id":842566849,"element_type":"way","amenity":"toilets","building":"yes","changing_table":"yes","toilets:disposal":"flush","wheelchair":"yes"}},{"type":"Feature","geometry":{"type":"Point","coordinates":[137.87270288,35.61394046]},"properties":{"id":843393641,"element_type":"way","access":"permissive","amenity":"toilets","building":"yes","toilets:disposal":"flush"}},{"type":"Feature","geometry":{"type":"Point","coordinates":[137.8275132,35.51613944]},"properties":{"id":844104839,"element_type":"way","amenity":"toilets","building":"yes"}},{"type":"Feature","geometry":{"type":"Point","coordinates":[137.83409822,35.51379678]},"properties":{"id":844109794,"element_type":"way","amenity":"toilets","building":"yes","toilets:disposal":"flush","wheelchair":"yes"}},{"type":"Feature","geometry":{"type":"Point","coordinates":[137.73954472,35.39578206]},"properties":{"id":844886645,"element_type":"way","amenity":"toilets","building":"yes"}},{"type":"Feature","geometry":{"type":"Point","coordinates":[137.78122828,35.368291719999995]},"properties":{"id":844889443,"element_type":"way","amenity":"toilets","building":"yes"}},{"type":"Feature","geometry":{"type":"Point","coordinates":[137.76332404,35.380341800000004]},"properties":{"id":844890632,"element_type":"way","amenity":"toilets","building":"yes"}},{"type":"Feature","geometry":{"type":"Point","coordinates":[137.73989471666667,35.40418598333333]},"properties":{"id":847451417,"element_type":"way","amenity":"toilets","building":"yes"}},{"type":"Feature","geometry":{"type":"Point","coordinates":[138.61007798,36.24050858]},"properties":{"id":847525452,"element_type":"way","amenity":"toilets","building":"yes"}},{"type":"Feature","geometry":{"type":"Point","coordinates":[138.02802789999998,35.433607711111115]},"properties":{"id":847996885,"element_type":"way","amenity":"toilets","building":"yes"}},{"type":"Feature","geometry":{"type":"Point","coordinates":[137.870808475,35.502764925]},"properties":{"id":848221310,"element_type":"way","amenity":"toilets","building":"yes"}},{"type":"Feature","geometry":{"type":"Point","coordinates":[137.85705848,35.5929462]},"properties":{"id":852286147,"element_type":"way","amenity":"toilets","building":"yes"}},{"type":"Feature","geometry":{"type":"Point","coordinates":[137.85719001999996,35.591270679999994]},"properties":{"id":852287165,"element_type":"way","amenity":"toilets","building":"yes"}},{"type":"Feature","geometry":{"type":"Point","coordinates":[137.8176465,35.54111100000001]},"properties":{"id":853187087,"element_type":"way","amenity":"toilets","building":"yes"}},{"type":"Feature","geometry":{"type":"Point","coordinates":[137.8177384,35.5398894]},"properties":{"id":853187088,"element_type":"way","amenity":"toilets","building":"yes"}},{"type":"Feature","geometry":{"type":"Point","coordinates":[137.81551152,35.451613980000005]},"properties":{"id":853761835,"element_type":"way","amenity":"toilets","building":"yes"}},{"type":"Feature","geometry":{"type":"Point","coordinates":[137.82153186,35.45939052]},"properties":{"id":853828326,"element_type":"way","amenity":"toilets","building":"yes"}},{"type":"Feature","geometry":{"type":"Point","coordinates":[137.74480125555556,35.25748747777778]},"properties":{"id":856211373,"element_type":"way","amenity":"toilets","building":"yes","toilets:disposal":"flush"}},{"type":"Feature","geometry":{"type":"Point","coordinates":[137.7944352142857,35.41759604285714]},"properties":{"id":857018796,"element_type":"way","amenity":"toilets","building":"yes","toilets:disposal":"flush","wheelchair":"yes"}},{"type":"Feature","geometry":{"type":"Point","coordinates":[137.73255520000004,35.22434842]},"properties":{"id":864940129,"element_type":"way","amenity":"toilets","building":"yes"}},{"type":"Feature","geometry":{"type":"Point","coordinates":[137.91572889999998,35.5687536]},"properties":{"id":869964665,"element_type":"way","amenity":"toilets","building":"yes"}},{"type":"Feature","geometry":{"type":"Point","coordinates":[137.9828844,35.37481196]},"properties":{"id":870639260,"element_type":"way","amenity":"toilets","building":"yes"}},{"type":"Feature","geometry":{"type":"Point","coordinates":[137.95552522,35.35034332]},"properties":{"id":872809966,"element_type":"way","amenity":"toilets","building":"yes","toilets:disposal":"flush"}},{"type":"Feature","geometry":{"type":"Point","coordinates":[137.83026618,35.26533564]},"properties":{"id":874529251,"element_type":"way","amenity":"toilets","building":"yes","toilets:disposal":"flush"}},{"type":"Feature","geometry":{"type":"Point","coordinates":[137.97773766,36.217566739999995]},"properties":{"id":875205352,"element_type":"way","amenity":"toilets","building":"yes"}},{"type":"Feature","geometry":{"type":"Point","coordinates":[137.70136428,35.56330566]},"properties":{"id":879152512,"element_type":"way","amenity":"toilets","building":"yes","lit":"no"}},{"type":"Feature","geometry":{"type":"Point","coordinates":[137.6934152,35.5593899]},"properties":{"id":879152517,"element_type":"way","amenity":"toilets","building":"yes"}},{"type":"Feature","geometry":{"type":"Point","coordinates":[137.714496075,35.452313325]},"properties":{"id":894466319,"element_type":"way","amenity":"toilets","building":"yes"}},{"type":"Feature","geometry":{"type":"Point","coordinates":[137.68250288,35.81694678]},"properties":{"id":901800281,"element_type":"way","amenity":"toilets","building":"yes"}},{"type":"Feature","geometry":{"type":"Point","coordinates":[137.8648490142857,35.5035194]},"properties":{"id":907610217,"element_type":"way","amenity":"toilets","building":"yes"}},{"type":"Feature","geometry":{"type":"Point","coordinates":[137.73078252,35.59855702]},"properties":{"id":912598427,"element_type":"way","amenity":"toilets","building":"yes"}},{"type":"Feature","geometry":{"type":"Point","coordinates":[137.82265082,35.453698020000004]},"properties":{"id":913000978,"element_type":"way","amenity":"toilets","building":"yes"}},{"type":"Feature","geometry":{"type":"Point","coordinates":[138.06675002,35.70024464000001]},"properties":{"id":915735544,"element_type":"way","amenity":"toilets","building":"yes"}},{"type":"Feature","geometry":{"type":"Point","coordinates":[138.06681772000002,35.7002333]},"properties":{"id":915735545,"element_type":"way","amenity":"toilets","building":"yes"}},{"type":"Feature","geometry":{"type":"Point","coordinates":[137.87641954285715,35.486750457142854]},"properties":{"id":919068615,"element_type":"way","amenity":"toilets","building":"yes"}},{"type":"Feature","geometry":{"type":"Point","coordinates":[137.81201302000002,35.52130752]},"properties":{"id":929502323,"element_type":"way","amenity":"toilets","building":"yes"}},{"type":"Feature","geometry":{"type":"Point","coordinates":[137.81648320000002,35.51926994]},"properties":{"id":929503493,"element_type":"way","amenity":"toilets","building":"yes"}},{"type":"Feature","geometry":{"type":"Point","coordinates":[137.8158572,35.522740840000004]},"properties":{"id":929504972,"element_type":"way","amenity":"toilets","building":"yes"}},{"type":"Feature","geometry":{"type":"Point","coordinates":[137.87296948,35.42827618]},"properties":{"id":935234846,"element_type":"way","amenity":"toilets","building":"yes"}},{"type":"Feature","geometry":{"type":"Point","coordinates":[138.27847676000002,36.171076479999996]},"properties":{"id":938456512,"element_type":"way","amenity":"toilets","building":"yes","source":"GSImaps/seamlessphoto"}},{"type":"Feature","geometry":{"type":"Point","coordinates":[137.65392158,35.4608501]},"properties":{"id":941229142,"element_type":"way","amenity":"toilets","building":"yes"}},{"type":"Feature","geometry":{"type":"Point","coordinates":[138.08891306,35.338731499999994]},"properties":{"id":941604636,"element_type":"way","amenity":"toilets","building":"yes","changing_table":"no","wheelchair":"no"}},{"type":"Feature","geometry":{"type":"Point","coordinates":[137.9082613,35.881401659999995]},"properties":{"id":942013130,"element_type":"way","amenity":"toilets","building":"yes"}},{"type":"Feature","geometry":{"type":"Point","coordinates":[137.92870582,35.274477600000004]},"properties":{"id":954768554,"element_type":"way","amenity":"toilets","building":"yes"}},{"type":"Feature","geometry":{"type":"Point","coordinates":[137.9506656,36.271585585714284]},"properties":{"id":955325754,"element_type":"way","amenity":"toilets","building":"yes"}},{"type":"Feature","geometry":{"type":"Point","coordinates":[137.9549935285714,36.25796987142857]},"properties":{"id":955325781,"element_type":"way","access":"yes","amenity":"toilets","building":"yes"}},{"type":"Feature","geometry":{"type":"Point","coordinates":[137.98903085714286,35.43252998571429]},"properties":{"id":956515798,"element_type":"way","amenity":"toilets","building":"yes"}},{"type":"Feature","geometry":{"type":"Point","coordinates":[137.9421079,36.213992360000006]},"properties":{"id":957070171,"element_type":"way","amenity":"toilets","building":"yes"}},{"type":"Feature","geometry":{"type":"Point","coordinates":[138.38177262000002,36.75768459999999]},"properties":{"id":959001884,"element_type":"way","amenity":"toilets","building":"yes"}},{"type":"Feature","geometry":{"type":"Point","coordinates":[138.36429979999997,36.74481938]},"properties":{"id":963067704,"element_type":"way","amenity":"toilets","building":"yes"}},{"type":"Feature","geometry":{"type":"Point","coordinates":[137.79006644,35.52403717999999]},"properties":{"id":963508289,"element_type":"way","amenity":"toilets","building":"yes"}},{"type":"Feature","geometry":{"type":"Point","coordinates":[138.18597033999998,36.64848354]},"properties":{"id":963611625,"element_type":"way","amenity":"toilets","building":"yes"}},{"type":"Feature","geometry":{"type":"Point","coordinates":[137.78989317999998,35.53254386]},"properties":{"id":966054999,"element_type":"way","amenity":"toilets","building":"yes"}},{"type":"Feature","geometry":{"type":"Point","coordinates":[137.7897864,35.53257842000001]},"properties":{"id":966055001,"element_type":"way","amenity":"toilets","building":"yes"}},{"type":"Feature","geometry":{"type":"Point","coordinates":[137.7987791,35.4877663]},"properties":{"id":967403243,"element_type":"way","amenity":"toilets","building":"yes"}},{"type":"Feature","geometry":{"type":"Point","coordinates":[137.88642196,35.615430020000005]},"properties":{"id":969659072,"element_type":"way","amenity":"toilets","building":"yes"}},{"type":"Feature","geometry":{"type":"Point","coordinates":[138.05840143999998,35.836408299999995]},"properties":{"id":971252728,"element_type":"way","amenity":"toilets","building":"yes"}},{"type":"Feature","geometry":{"type":"Point","coordinates":[138.11216898,36.03853624]},"properties":{"id":971556726,"element_type":"way","amenity":"toilets","building":"yes","name":"浮城手水庵"}},{"type":"Feature","geometry":{"type":"Point","coordinates":[137.91918514285715,35.88138011428571]},"properties":{"id":972129874,"element_type":"way","access":"yes","amenity":"toilets","building":"yes","toilets:disposal":"flush"}},{"type":"Feature","geometry":{"type":"Point","coordinates":[137.6163782,35.93509469999999]},"properties":{"id":972720018,"element_type":"way","amenity":"toilets","building":"yes"}},{"type":"Feature","geometry":{"type":"Point","coordinates":[137.63955848,35.94737361999999]},"properties":{"id":972732238,"element_type":"way","amenity":"toilets","building":"yes"}},{"type":"Feature","geometry":{"type":"Point","coordinates":[137.6830115,35.904774939999996]},"properties":{"id":972862632,"element_type":"way","amenity":"toilets","building":"yes"}},{"type":"Feature","geometry":{"type":"Point","coordinates":[137.63176742000002,35.938240119999996]},"properties":{"id":972885665,"element_type":"way","amenity":"toilets","building":"yes"}},{"type":"Feature","geometry":{"type":"Point","coordinates":[138.48747727999998,36.16275252]},"properties":{"id":972983099,"element_type":"way","amenity":"toilets","building":"yes"}},{"type":"Feature","geometry":{"type":"Point","coordinates":[138.08217113999999,36.08107028]},"properties":{"id":973215315,"element_type":"way","amenity":"toilets","building":"yes"}},{"type":"Feature","geometry":{"type":"Point","coordinates":[138.06198006,35.83458422]},"properties":{"id":973229223,"element_type":"way","amenity":"toilets","building":"yes"}},{"type":"Feature","geometry":{"type":"Point","coordinates":[138.06312906,35.833864]},"properties":{"id":973229235,"element_type":"way","amenity":"toilets","building":"yes"}},{"type":"Feature","geometry":{"type":"Point","coordinates":[138.06310307999996,35.833747859999995]},"properties":{"id":973377347,"element_type":"way","amenity":"toilets","building":"yes"}},{"type":"Feature","geometry":{"type":"Point","coordinates":[137.81863242000003,35.46040956]},"properties":{"id":973415811,"element_type":"way","amenity":"toilets","building":"yes"}},{"type":"Feature","geometry":{"type":"Point","coordinates":[137.85416818000002,35.4552007]},"properties":{"id":974166106,"element_type":"way","amenity":"toilets","building":"yes"}},{"type":"Feature","geometry":{"type":"Point","coordinates":[137.81422695,35.475060533333334]},"properties":{"id":978581215,"element_type":"way","amenity":"toilets","building":"yes"}},{"type":"Feature","geometry":{"type":"Point","coordinates":[137.80854779999999,35.525215259999996]},"properties":{"id":981497121,"element_type":"way","amenity":"toilets","building":"yes"}},{"type":"Feature","geometry":{"type":"Point","coordinates":[137.87119194,35.58618122]},"properties":{"id":986515945,"element_type":"way","amenity":"toilets","building":"yes"}},{"type":"Feature","geometry":{"type":"Point","coordinates":[137.7605366,35.49998832]},"properties":{"id":987235045,"element_type":"way","amenity":"toilets","building":"yes"}},{"type":"Feature","geometry":{"type":"Point","coordinates":[137.8303588,35.521490240000006]},"properties":{"id":990268538,"element_type":"way","amenity":"toilets","building":"yes"}},{"type":"Feature","geometry":{"type":"Point","coordinates":[137.88993654,35.43402546]},"properties":{"id":993811858,"element_type":"way","amenity":"toilets","building":"yes"}},{"type":"Feature","geometry":{"type":"Point","coordinates":[137.82213434,35.461063440000004]},"properties":{"id":996179561,"element_type":"way","amenity":"toilets","building":"yes"}},{"type":"Feature","geometry":{"type":"Point","coordinates":[138.29224622,36.85365024]},"properties":{"id":998086951,"element_type":"way","amenity":"toilets","building":"yes"}},{"type":"Feature","geometry":{"type":"Point","coordinates":[138.04153513999998,35.55714966000001]},"properties":{"id":998978676,"element_type":"way","amenity":"toilets","building":"yes"}},{"type":"Feature","geometry":{"type":"Point","coordinates":[137.83091322,35.512350659999996]},"properties":{"id":999292813,"element_type":"way","amenity":"toilets","building":"yes"}},{"type":"Feature","geometry":{"type":"Point","coordinates":[137.54421748,35.83733628]},"properties":{"id":1000735117,"element_type":"way","amenity":"toilets","building":"yes"}},{"type":"Feature","geometry":{"type":"Point","coordinates":[137.81956478,35.43793322]},"properties":{"id":1001021430,"element_type":"way","amenity":"toilets","building":"yes"}},{"type":"Feature","geometry":{"type":"Point","coordinates":[138.55920329999998,36.742044199999995]},"properties":{"id":1002957409,"element_type":"way","access":"yes","amenity":"toilets","building":"yes","fee":"no","unisex":"yes","wheelchair":"no"}},{"type":"Feature","geometry":{"type":"Point","coordinates":[137.9411552,36.10413558571428]},"properties":{"id":1004203137,"element_type":"way","amenity":"toilets","building":"yes"}},{"type":"Feature","geometry":{"type":"Point","coordinates":[138.11575832,36.50627952000001]},"properties":{"id":1008121599,"element_type":"way","amenity":"toilets","building":"yes"}},{"type":"Feature","geometry":{"type":"Point","coordinates":[138.15280054,36.484946320000006]},"properties":{"id":1008356978,"element_type":"way","amenity":"toilets","building":"yes"}},{"type":"Feature","geometry":{"type":"Point","coordinates":[138.18447616,36.447762420000004]},"properties":{"id":1009231851,"element_type":"way","amenity":"toilets","building":"yes"}},{"type":"Feature","geometry":{"type":"Point","coordinates":[137.89602861999998,35.30278748]},"properties":{"id":1010826855,"element_type":"way","amenity":"toilets","building":"yes"}},{"type":"Feature","geometry":{"type":"Point","coordinates":[137.85026394000002,35.5040992]},"properties":{"id":1014252783,"element_type":"way","amenity":"toilets","building":"yes"}},{"type":"Feature","geometry":{"type":"Point","coordinates":[138.19065852,36.443850659999995]},"properties":{"id":1015879428,"element_type":"way","amenity":"toilets","building":"yes"}},{"type":"Feature","geometry":{"type":"Point","coordinates":[138.19939746,36.45547852]},"properties":{"id":1016593466,"element_type":"way","amenity":"toilets","building":"yes"}},{"type":"Feature","geometry":{"type":"Point","coordinates":[138.18985537999998,36.6622166]},"properties":{"id":1020242722,"element_type":"way","amenity":"toilets","building":"yes"}},{"type":"Feature","geometry":{"type":"Point","coordinates":[137.82101268000002,35.519380819999995]},"properties":{"id":1034698758,"element_type":"way","amenity":"toilets","building":"yes"}},{"type":"Feature","geometry":{"type":"Point","coordinates":[138.36299134,36.67926414]},"properties":{"id":1054301148,"element_type":"way","amenity":"toilets","building":"yes"}},{"type":"Feature","geometry":{"type":"Point","coordinates":[137.84237898,35.395683500000004]},"properties":{"id":1062844413,"element_type":"way","amenity":"toilets","building":"yes"}},{"type":"Feature","geometry":{"type":"Point","coordinates":[137.86771474285715,36.39609644285714]},"properties":{"id":1064816007,"element_type":"way","access":"yes","amenity":"toilets","building":"yes","toilets:disposal":"flush"}},{"type":"Feature","geometry":{"type":"Point","coordinates":[138.0857554,35.555931]},"properties":{"id":1065395371,"element_type":"way","amenity":"toilets","building":"yes"}},{"type":"Feature","geometry":{"type":"Point","coordinates":[138.1882278571429,36.63611535714285]},"properties":{"id":1068264348,"element_type":"way","access":"yes","amenity":"toilets","fee":"no","level":"2","toilets:disposal":"flush","wheelchair":"yes"}},{"type":"Feature","geometry":{"type":"Point","coordinates":[138.18823215,36.63615631666667]},"properties":{"id":1068264349,"element_type":"way","access":"yes","amenity":"toilets","fee":"no","female":"no","level":"2","male":"yes","toilets:disposal":"flush","wheelchair":"no"}},{"type":"Feature","geometry":{"type":"Point","coordinates":[138.18822566,36.636115579999995]},"properties":{"id":1068264351,"element_type":"way","access":"yes","amenity":"toilets","level":"1","wheelchair":"yes"}},{"type":"Feature","geometry":{"type":"Point","coordinates":[138.1882324857143,36.63615265714286]},"properties":{"id":1068264352,"element_type":"way","access":"yes","amenity":"toilets","female":"no","level":"1","male":"yes","toilets:disposal":"flush"}},{"type":"Feature","geometry":{"type":"Point","coordinates":[138.18002044999997,36.63748341666666]},"properties":{"id":1070138892,"element_type":"way","access":"customers","amenity":"toilets","female":"yes","level":"0","male":"no"}},{"type":"Feature","geometry":{"type":"Point","coordinates":[138.17997208000003,36.63749858]},"properties":{"id":1070138893,"element_type":"way","access":"customers","amenity":"toilets","female":"no","indoor":"room","level":"0","male":"yes"}},{"type":"Feature","geometry":{"type":"Point","coordinates":[137.81334274,35.53661306]},"properties":{"id":1074663696,"element_type":"way","access":"yes","amenity":"toilets","building":"yes"}},{"type":"Feature","geometry":{"type":"Point","coordinates":[137.81268577999998,35.53635686]},"properties":{"id":1074663716,"element_type":"way","access":"yes","amenity":"toilets","building":"yes","toilets:disposal":"flush"}},{"type":"Feature","geometry":{"type":"Point","coordinates":[137.8786251142857,36.41689314285714]},"properties":{"id":1076537165,"element_type":"way","access":"yes","amenity":"toilets","building":"yes","source":"survey"}},{"type":"Feature","geometry":{"type":"Point","coordinates":[138.08806398,36.616733440000004]},"properties":{"id":1084531253,"element_type":"way","amenity":"toilets","building":"yes"}},{"type":"Feature","geometry":{"type":"Point","coordinates":[138.1463316,36.47347832]},"properties":{"id":1089408092,"element_type":"way","amenity":"toilets","building":"yes"}},{"type":"Feature","geometry":{"type":"Point","coordinates":[138.14280703999998,36.4790074]},"properties":{"id":1090690493,"element_type":"way","amenity":"toilets","building":"yes","fee":"no","wheelchair":"yes"}},{"type":"Feature","geometry":{"type":"Point","coordinates":[138.14367784,36.47641888]},"properties":{"id":1091132252,"element_type":"way","amenity":"toilets","building":"yes"}},{"type":"Feature","geometry":{"type":"Point","coordinates":[137.84524754,35.49493268]},"properties":{"id":1091134128,"element_type":"way","amenity":"toilets","building":"yes"}},{"type":"Feature","geometry":{"type":"Point","coordinates":[137.84179952000002,35.5097314]},"properties":{"id":1091135409,"element_type":"way","amenity":"toilets","building":"yes"}},{"type":"Feature","geometry":{"type":"Point","coordinates":[137.81625186000002,35.54399678]},"properties":{"id":1092044866,"element_type":"way","amenity":"toilets","building":"yes","toilets:disposal":"pitlatrine"}},{"type":"Feature","geometry":{"type":"Point","coordinates":[137.83182808,35.502769740000005]},"properties":{"id":1094019992,"element_type":"way","amenity":"toilets","building":"yes"}},{"type":"Feature","geometry":{"type":"Point","coordinates":[137.8305583,35.502458559999994]},"properties":{"id":1094019994,"element_type":"way","amenity":"toilets","building":"yes"}},{"type":"Feature","geometry":{"type":"Point","coordinates":[137.84613842,35.560075340000004]},"properties":{"id":1094689171,"element_type":"way","amenity":"toilets","building":"yes"}},{"type":"Feature","geometry":{"type":"Point","coordinates":[137.8223265,35.47618552]},"properties":{"id":1097495706,"element_type":"way","amenity":"toilets","building":"yes"}},{"type":"Feature","geometry":{"type":"Point","coordinates":[138.18715958,36.660481579999995]},"properties":{"id":1104062829,"element_type":"way","amenity":"toilets","building":"yes","source":"GSI/KIBAN 2500; NARO"}},{"type":"Feature","geometry":{"type":"Point","coordinates":[137.88349378,35.45048626]},"properties":{"id":1104866678,"element_type":"way","amenity":"toilets","building":"yes"}},{"type":"Feature","geometry":{"type":"Point","coordinates":[137.82576490000002,35.4836816]},"properties":{"id":1107629888,"element_type":"way","amenity":"toilets","building":"yes","wheelchair":"yes"}},{"type":"Feature","geometry":{"type":"Point","coordinates":[138.13623936,36.53104259999999]},"properties":{"id":1136629185,"element_type":"way","access":"no","amenity":"toilets","building":"yes","toilets:disposal":"flush"}},{"type":"Feature","geometry":{"type":"Point","coordinates":[137.6672261,35.93980776000001]},"properties":{"id":1148779114,"element_type":"way","amenity":"toilets","building":"yes"}},{"type":"Feature","geometry":{"type":"Point","coordinates":[137.62553902,36.24434658]},"properties":{"id":1157631703,"element_type":"way","amenity":"toilets","building":"toilets"}},{"type":"Feature","geometry":{"type":"Point","coordinates":[138.04821252,35.58946138]},"properties":{"id":1161263240,"element_type":"way","amenity":"toilets","building":"yes"}},{"type":"Feature","geometry":{"type":"Point","coordinates":[138.0469762,35.588711780000004]},"properties":{"id":1161590028,"element_type":"way","amenity":"toilets","building":"yes","name":"鹿塩バス停公衆トイレ","name:en":"Kashio Busstop Bathroom","name:ja":"鹿塩バス停公衆トイレ"}},{"type":"Feature","geometry":{"type":"Point","coordinates":[138.48540632,36.34118784]},"properties":{"id":1161787847,"element_type":"way","amenity":"toilets","building":"yes"}},{"type":"Feature","geometry":{"type":"Point","coordinates":[138.05733358,35.55186966]},"properties":{"id":1163237253,"element_type":"way","amenity":"toilets","building":"yes"}},{"type":"Feature","geometry":{"type":"Point","coordinates":[138.03950198,35.55776768]},"properties":{"id":1171031001,"element_type":"way","amenity":"toilets","building":"yes"}},{"type":"Feature","geometry":{"type":"Point","coordinates":[138.0337842,35.57819182]},"properties":{"id":1179659386,"element_type":"way","amenity":"toilets","building":"yes"}},{"type":"Feature","geometry":{"type":"Point","coordinates":[137.88658788,35.551068599999994]},"properties":{"id":1184316548,"element_type":"way","amenity":"toilets","building":"yes"}},{"type":"Feature","geometry":{"type":"Point","coordinates":[137.81904602,35.432468920000005]},"properties":{"id":1184633715,"element_type":"way","amenity":"toilets","building":"yes"}},{"type":"Feature","geometry":{"type":"Point","coordinates":[138.03689282,35.56546036]},"properties":{"id":1190521969,"element_type":"way","amenity":"toilets","building":"yes"}},{"type":"Feature","geometry":{"type":"Point","coordinates":[138.0735588,35.54611304]},"properties":{"id":1194188553,"element_type":"way","amenity":"toilets","building":"yes"}},{"type":"Feature","geometry":{"type":"Point","coordinates":[138.09987776,35.555908620000004]},"properties":{"id":1195948407,"element_type":"way","amenity":"toilets","building":"yes","changing_table":"no","wheelchair":"no"}},{"type":"Feature","geometry":{"type":"Point","coordinates":[138.05848204,35.549245580000004]},"properties":{"id":1196208299,"element_type":"way","amenity":"toilets","building":"yes"}},{"type":"Feature","geometry":{"type":"Point","coordinates":[137.81422382,35.31468284]},"properties":{"id":1197703556,"element_type":"way","amenity":"toilets","building":"yes"}},{"type":"Feature","geometry":{"type":"Point","coordinates":[137.85813164,36.5175201]},"properties":{"id":1197873134,"element_type":"way","amenity":"toilets","building":"yes"}},{"type":"Feature","geometry":{"type":"Point","coordinates":[137.86550896,36.39741874]},"properties":{"id":1198848705,"element_type":"way","amenity":"toilets","building":"yes","wheelchair":"no"}},{"type":"Feature","geometry":{"type":"Point","coordinates":[138.03328879999998,35.53876968]},"properties":{"id":1199348018,"element_type":"way","amenity":"toilets","building":"yes","changing_table":"no","female":"yes","male":"yes","toilets:disposal":"pitlatrine","wheelchair":"limited"}},{"type":"Feature","geometry":{"type":"Point","coordinates":[137.69150478,35.37788638]},"properties":{"id":1204802825,"element_type":"way","amenity":"toilets","building":"yes"}},{"type":"Feature","geometry":{"type":"Point","coordinates":[138.06506764,35.67722124000001]},"properties":{"id":1206015503,"element_type":"way","access":"yes","amenity":"toilets","building":"yes","changing_table":"no","name":"北川露頭公衆トイレ","name:en":"Kitagawa Outcrop Visitor Restroom","name:ja":"北川露頭公衆トイレ","wheelchair":"yes"}},{"type":"Feature","geometry":{"type":"Point","coordinates":[138.15382786,36.4661517]},"properties":{"id":1215956872,"element_type":"way","amenity":"toilets","building":"yes"}},{"type":"Feature","geometry":{"type":"Point","coordinates":[138.14061766,36.46589654]},"properties":{"id":1217715838,"element_type":"way","amenity":"toilets","building":"yes"}},{"type":"Feature","geometry":{"type":"Point","coordinates":[138.27978208,36.15559162]},"properties":{"id":1218439566,"element_type":"way","amenity":"toilets","building":"yes"}},{"type":"Feature","geometry":{"type":"Point","coordinates":[138.06459758,36.48819304]},"properties":{"id":1218456490,"element_type":"way","amenity":"toilets","building":"yes"}},{"type":"Feature","geometry":{"type":"Point","coordinates":[138.19191135000003,36.66240208333334]},"properties":{"id":1221229758,"element_type":"way","amenity":"toilets","building":"yes"}},{"type":"Feature","geometry":{"type":"Point","coordinates":[138.1636935,35.99203414285715]},"properties":{"id":1221887061,"element_type":"way","amenity":"toilets","building":"public","building:levels:underground":"0","check_date":"2024-12-29","ele":"801.4","height":"3.6","source":"MLIT_PLATEAU bldg_cb179ca4-b826-4dcf-80d4-f36cca13cd98"}},{"type":"Feature","geometry":{"type":"Point","coordinates":[138.15726894000002,35.9824154]},"properties":{"id":1222642641,"element_type":"way","amenity":"toilets","building":"public","building:levels:underground":"0","ele":"787.1","height":"4.2","source":"MLIT_PLATEAU bldg_52c9e677-0883-4f4a-b2d4-81be21d163ea"}},{"type":"Feature","geometry":{"type":"Point","coordinates":[138.19784178181814,35.942121954545456]},"properties":{"id":1222675068,"element_type":"way","access":"yes","amenity":"toilets","building":"house","building:levels":"1","building:levels:underground":"0","ele":"867","height":"3.4","source":"MLIT_PLATEAU bldg_4fab663d-1594-4e99-8b2d-ee915848b749"}},{"type":"Feature","geometry":{"type":"Point","coordinates":[138.18192266,36.45943352]},"properties":{"id":1222928122,"element_type":"way","amenity":"toilets","building":"yes"}},{"type":"Feature","geometry":{"type":"Point","coordinates":[138.23860728,35.91191976]},"properties":{"id":1223224521,"element_type":"way","amenity":"toilets","building":"yes","layer":"-1"}},{"type":"Feature","geometry":{"type":"Point","coordinates":[138.07610414,36.73142036]},"properties":{"id":1223400261,"element_type":"way","amenity":"toilets","building":"yes","fee":"no","wheelchair":"yes"}},{"type":"Feature","geometry":{"type":"Point","coordinates":[138.18462913999997,36.79787522]},"properties":{"id":1223400268,"element_type":"way","amenity":"toilets","building":"yes"}},{"type":"Feature","geometry":{"type":"Point","coordinates":[138.21176956,35.93088026]},"properties":{"id":1223489614,"element_type":"way","amenity":"toilets","building":"yes"}},{"type":"Feature","geometry":{"type":"Point","coordinates":[138.06487174,36.762095]},"properties":{"id":1226346460,"element_type":"way","access":"yes","amenity":"toilets","building":"yes","fee":"no","wheelchair":"no"}},{"type":"Feature","geometry":{"type":"Point","coordinates":[138.08522983999998,36.741887320000004]},"properties":{"id":1226380276,"element_type":"way","amenity":"toilets","building":"yes","fee":"no","wheelchair":"yes"}},{"type":"Feature","geometry":{"type":"Point","coordinates":[138.0820624888889,35.81035043333333]},"properties":{"id":1226671773,"element_type":"way","amenity":"toilets","building":"yes"}},{"type":"Feature","geometry":{"type":"Point","coordinates":[137.90983216,36.337946179999996]},"properties":{"id":1226899313,"element_type":"way","amenity":"toilets","building":"yes","fee":"no","wheelchair":"yes"}},{"type":"Feature","geometry":{"type":"Point","coordinates":[138.0880153,36.484607319999995]},"properties":{"id":1227108977,"element_type":"way","amenity":"toilets","building":"yes"}},{"type":"Feature","geometry":{"type":"Point","coordinates":[138.12344756,36.51151532]},"properties":{"id":1228566129,"element_type":"way","amenity":"toilets","building":"yes"}},{"type":"Feature","geometry":{"type":"Point","coordinates":[138.13476151999998,36.50994298]},"properties":{"id":1228583944,"element_type":"way","amenity":"toilets","building":"yes"}},{"type":"Feature","geometry":{"type":"Point","coordinates":[138.14630148000003,36.4977098]},"properties":{"id":1228633894,"element_type":"way","amenity":"toilets","building":"yes"}},{"type":"Feature","geometry":{"type":"Point","coordinates":[138.13367796,36.50357766]},"properties":{"id":1228636549,"element_type":"way","amenity":"toilets","building":"yes"}},{"type":"Feature","geometry":{"type":"Point","coordinates":[138.27549246,35.884813099999995]},"properties":{"id":1229470881,"element_type":"way","amenity":"toilets","building":"yes"}},{"type":"Feature","geometry":{"type":"Point","coordinates":[138.04267064,35.557405519999996]},"properties":{"id":1231308629,"element_type":"way","amenity":"toilets","building":"yes"}},{"type":"Feature","geometry":{"type":"Point","coordinates":[138.162966,36.53102088000001]},"properties":{"id":1232415499,"element_type":"way","amenity":"toilets","building":"yes"}},{"type":"Feature","geometry":{"type":"Point","coordinates":[138.10327932,36.51957516]},"properties":{"id":1232583124,"element_type":"way","amenity":"toilets","building":"yes"}},{"type":"Feature","geometry":{"type":"Point","coordinates":[138.08608418,36.516966339999996]},"properties":{"id":1232696994,"element_type":"way","amenity":"toilets","building":"yes"}},{"type":"Feature","geometry":{"type":"Point","coordinates":[138.47794602105265,36.187399105263154]},"properties":{"id":1233771935,"element_type":"way","addr:full":"長野県佐久市下小田切128-1","amenity":"toilets","building":"public","ele":"714.9","height":"8.7","name":"佐久市立臼田図書館・コスモホール","ref:MLIT_PLATEAU":"bldg_10074847-dd8c-4a0f-ab07-472751efe1eb"}},{"type":"Feature","geometry":{"type":"Point","coordinates":[138.15553882,36.54198992]},"properties":{"id":1233994407,"element_type":"way","amenity":"toilets","building":"yes"}},{"type":"Feature","geometry":{"type":"Point","coordinates":[138.09861626000003,36.53650082]},"properties":{"id":1236012686,"element_type":"way","amenity":"toilets","building":"yes"}},{"type":"Feature","geometry":{"type":"Point","coordinates":[138.10906210000002,36.53704940000001]},"properties":{"id":1236039573,"element_type":"way","amenity":"toilets","building":"yes"}},{"type":"Feature","geometry":{"type":"Point","coordinates":[138.48614800000001,36.194793020000006]},"properties":{"id":1236512528,"element_type":"way","addr:full":"長野県佐久市下越444","amenity":"toilets","building":"public","ele":"708.2","height":"3","ref:MLIT_PLATEAU":"bldg_c854a74e-0ec5-466e-8a44-304ccfe76746"}},{"type":"Feature","geometry":{"type":"Point","coordinates":[138.08968464,36.48549938]},"properties":{"id":1236893246,"element_type":"way","amenity":"toilets","building":"yes"}},{"type":"Feature","geometry":{"type":"Point","coordinates":[138.0942899111111,36.50484293333333]},"properties":{"id":1237551254,"element_type":"way","amenity":"toilets","building":"yes"}},{"type":"Feature","geometry":{"type":"Point","coordinates":[138.08391472,36.523673280000004]},"properties":{"id":1237555316,"element_type":"way","amenity":"toilets","building":"yes"}},{"type":"Feature","geometry":{"type":"Point","coordinates":[138.17294224,36.53086766]},"properties":{"id":1237726100,"element_type":"way","amenity":"toilets","building":"yes"}},{"type":"Feature","geometry":{"type":"Point","coordinates":[138.16839944,36.5317689]},"properties":{"id":1237726119,"element_type":"way","amenity":"toilets","building":"yes"}},{"type":"Feature","geometry":{"type":"Point","coordinates":[138.1515418,36.527417019999994]},"properties":{"id":1237978766,"element_type":"way","amenity":"toilets","building":"yes"}},{"type":"Feature","geometry":{"type":"Point","coordinates":[138.15281504285716,36.524785542857146]},"properties":{"id":1237978785,"element_type":"way","amenity":"toilets","building":"yes"}},{"type":"Feature","geometry":{"type":"Point","coordinates":[138.15494251428572,36.52267627142857]},"properties":{"id":1237985472,"element_type":"way","amenity":"toilets","building":"yes"}},{"type":"Feature","geometry":{"type":"Point","coordinates":[138.16398417142858,36.51965722857143]},"properties":{"id":1237985517,"element_type":"way","amenity":"toilets","building":"yes","name":"大峯公園公衆トイレ","name:ja":"大峯公園公衆トイレ"}},{"type":"Feature","geometry":{"type":"Point","coordinates":[138.33821835555557,36.54019792222223]},"properties":{"id":1238003394,"element_type":"way","amenity":"toilets","building":"yes"}},{"type":"Feature","geometry":{"type":"Point","coordinates":[138.16318826000003,36.51502878]},"properties":{"id":1238780925,"element_type":"way","amenity":"toilets","building":"yes"}},{"type":"Feature","geometry":{"type":"Point","coordinates":[138.13010200000002,36.54513257999999]},"properties":{"id":1242242265,"element_type":"way","amenity":"toilets","building":"yes"}},{"type":"Feature","geometry":{"type":"Point","coordinates":[137.89390673999998,36.60569772]},"properties":{"id":1249346802,"element_type":"way","amenity":"toilets","building":"yes"}},{"type":"Feature","geometry":{"type":"Point","coordinates":[138.47639446,36.22359636]},"properties":{"id":1254531980,"element_type":"way","addr:full":"長野県佐久市原386-1","amenity":"toilets","building":"public","ele":"678.3","height":"9.1","ref:MLIT_PLATEAU":"bldg_b7625e5a-f5a2-4117-95f7-2490bcdd3f41"}},{"type":"Feature","geometry":{"type":"Point","coordinates":[138.14011695999997,36.23051244]},"properties":{"id":1255666807,"element_type":"way","amenity":"toilets","building":"yes"}},{"type":"Feature","geometry":{"type":"Point","coordinates":[138.15224187142857,35.9955558]},"properties":{"id":1256576303,"element_type":"way","amenity":"toilets","level":"1"}},{"type":"Feature","geometry":{"type":"Point","coordinates":[138.15182007999996,35.99543196]},"properties":{"id":1256576312,"element_type":"way","amenity":"toilets","level":"1"}},{"type":"Feature","geometry":{"type":"Point","coordinates":[138.15246056,35.99523906]},"properties":{"id":1256576313,"element_type":"way","amenity":"toilets","level":"0"}},{"type":"Feature","geometry":{"type":"Point","coordinates":[138.15179468,35.995481039999994]},"properties":{"id":1256576332,"element_type":"way","access":"yes","amenity":"toilets","level":"0"}},{"type":"Feature","geometry":{"type":"Point","coordinates":[138.15181715999998,35.99545258]},"properties":{"id":1256576333,"element_type":"way","access":"yes","amenity":"toilets","level":"0"}},{"type":"Feature","geometry":{"type":"Point","coordinates":[138.15183726,35.99542382]},"properties":{"id":1256576334,"element_type":"way","access":"yes","amenity":"toilets","level":"0"}},{"type":"Feature","geometry":{"type":"Point","coordinates":[138.15186308,35.99539288]},"properties":{"id":1256576335,"element_type":"way","access":"yes","amenity":"toilets","level":"0"}},{"type":"Feature","geometry":{"type":"Point","coordinates":[138.1518889,35.99535808]},"properties":{"id":1256576336,"element_type":"way","access":"yes","amenity":"toilets","level":"0"}},{"type":"Feature","geometry":{"type":"Point","coordinates":[138.15205177777779,35.99516643333333]},"properties":{"id":1256576337,"element_type":"way","access":"yes","amenity":"toilets","level":"0"}},{"type":"Feature","geometry":{"type":"Point","coordinates":[138.15208187777776,35.99512736666667]},"properties":{"id":1256576338,"element_type":"way","access":"yes","amenity":"toilets","level":"0"}},{"type":"Feature","geometry":{"type":"Point","coordinates":[138.15211720000002,35.9951184]},"properties":{"id":1256576339,"element_type":"way","access":"yes","amenity":"toilets","level":"0"}},{"type":"Feature","geometry":{"type":"Point","coordinates":[138.1521482888889,35.99508575555555]},"properties":{"id":1256576340,"element_type":"way","access":"yes","amenity":"toilets","level":"0"}},{"type":"Feature","geometry":{"type":"Point","coordinates":[138.15217627777778,35.99504067777778]},"properties":{"id":1256576341,"element_type":"way","access":"yes","amenity":"toilets","level":"0"}},{"type":"Feature","geometry":{"type":"Point","coordinates":[138.1525623166667,35.99451333333334]},"properties":{"id":1256576342,"element_type":"way","access":"yes","amenity":"toilets"}},{"type":"Feature","geometry":{"type":"Point","coordinates":[138.4696828,36.22529681666666]},"properties":{"id":1259611126,"element_type":"way","addr:full":"長野県佐久市野沢110-5","amenity":"toilets","building:part":"public","ele":"676.2","height":"3.1","ref:MLIT_PLATEAU":"bldg_216707e3-526f-41cd-8451-deec20632da6"}},{"type":"Feature","geometry":{"type":"Point","coordinates":[138.47256299999998,36.237335179999995]},"properties":{"id":1265412778,"element_type":"way","access":"yes","addr:full":"長野県佐久市中込1885-1","amenity":"toilets","building":"yes","ele":"667.1","female":"yes","height":"3","male":"yes","ref:MLIT_PLATEAU":"bldg_fcb0b493-dfb4-4e01-8d88-498bc2bffe89"}},{"type":"Feature","geometry":{"type":"Point","coordinates":[138.4627273,36.24035051999999]},"properties":{"id":1265412911,"element_type":"way","addr:full":"長野県佐久市中込825-1","amenity":"toilets","building":"agricultural","ele":"660.9","height":"3","ref:MLIT_PLATEAU":"bldg_bee91466-e361-45ce-add1-30f93d64c827"}},{"type":"Feature","geometry":{"type":"Point","coordinates":[138.49429574,36.23700902]},"properties":{"id":1265447920,"element_type":"way","addr:full":"長野県佐久市瀬戸2376-1","amenity":"toilets","building":"yes","ele":"701.6","height":"3.7","ref:MLIT_PLATEAU":"bldg_e7ae6aa6-a976-41a5-9f10-c8facb37dc9e"}},{"type":"Feature","geometry":{"type":"Point","coordinates":[138.51263846,36.19564912]},"properties":{"id":1272156682,"element_type":"way","addr:full":"長野県佐久市田口2394","amenity":"toilets","building":"yes","ele":"765.4","height":"21.2","ref:MLIT_PLATEAU":"bldg_cb0c424a-5733-40c0-8fcd-ed28a76c616b"}},{"type":"Feature","geometry":{"type":"Point","coordinates":[138.35852242,36.25976308]},"properties":{"id":1282087954,"element_type":"way","addr:full":"長野県佐久市協和2410-1","amenity":"toilets","building":"public","ele":"700","height":"3","ref:MLIT_PLATEAU":"bldg_cc379e8a-e8e8-4b23-91d3-7497c83ec8ec"}},{"type":"Feature","geometry":{"type":"Point","coordinates":[138.36424542,36.28649104]},"properties":{"id":1295175031,"element_type":"way","addr:full":"長野県佐久市印内561-203","amenity":"toilets","building":"yes","ele":"760.4","female":"yes","height":"7.2","male":"yes","ref:MLIT_PLATEAU":"bldg_b03d390c-f41f-457e-adfc-10fc19f8ae77"}},{"type":"Feature","geometry":{"type":"Point","coordinates":[138.40442529999999,36.257363366666674]},"properties":{"id":1299692506,"element_type":"way","addr:full":"長野県佐久市甲2177-1","amenity":"toilets","building:part":"retail","ele":"676.7","height":"3.8","ref:MLIT_PLATEAU":"bldg_0a3c272e-b73f-4d1f-95a1-1739f27a76db"}},{"type":"Feature","geometry":{"type":"Point","coordinates":[138.14198033999998,35.55582908]},"properties":{"id":1303592984,"element_type":"way","access":"permissive","amenity":"toilets","building":"yes","toilets:disposal":"chemical"}},{"type":"Feature","geometry":{"type":"Point","coordinates":[138.46118683999998,36.274745100000004]},"properties":{"id":1304227853,"element_type":"way","addr:full":"長野県佐久市佐久平駅南4-3","amenity":"toilets","building":"public","ele":"695.6","height":"3.1","ref:MLIT_PLATEAU":"bldg_a88da4c9-38ff-44bc-8aa4-06560e3d31f7"}},{"type":"Feature","geometry":{"type":"Point","coordinates":[138.47211278,36.27473244]},"properties":{"id":1305371743,"element_type":"way","addr:full":"長野県佐久市岩村田1272-23","amenity":"toilets","building":"public","ele":"706.9","height":"3.8","ref:MLIT_PLATEAU":"bldg_db665f23-0b5c-43ae-b0ea-f39b6c4b51de"}},{"type":"Feature","geometry":{"type":"Point","coordinates":[138.48195800000002,36.2742315]},"properties":{"id":1305499645,"element_type":"way","addr:full":"長野県佐久市岩村田3464-1","amenity":"toilets","building":"public","ele":"715.4","height":"3","ref:MLIT_PLATEAU":"bldg_5899da0d-f06b-4be9-8972-f4418aa475ab"}},{"type":"Feature","geometry":{"type":"Point","coordinates":[137.93925876000003,35.74740638]},"properties":{"id":1306054429,"element_type":"way","amenity":"toilets","building":"yes","name":"北の原公園トイレ"}},{"type":"Feature","geometry":{"type":"Point","coordinates":[138.46209503999998,36.27573896]},"properties":{"id":1306998869,"element_type":"way","addr:full":"長野県佐久市佐久平駅南4-3","amenity":"toilets","building":"public","ele":"697.3","height":"3.5","ref:MLIT_PLATEAU":"bldg_ee5fc2f3-8116-4a35-9965-e8a55dd3d9f8"}},{"type":"Feature","geometry":{"type":"Point","coordinates":[138.46374464000002,36.27718492]},"properties":{"id":1307020752,"element_type":"way","addr:full":"長野県佐久市佐久平駅南1-1","amenity":"toilets","building":"public","ele":"700.7","height":"3","ref:MLIT_PLATEAU":"bldg_ffecf873-f0ce-427a-9a4f-0954c11d1bda"}},{"type":"Feature","geometry":{"type":"Point","coordinates":[138.4637624,36.27810631999999]},"properties":{"id":1307021027,"element_type":"way","addr:full":"長野県佐久市佐久平駅北34","amenity":"toilets","building":"warehouse","ele":"702.4","height":"3.2","ref:MLIT_PLATEAU":"bldg_98e79077-639b-40cc-86ca-ff39a64efaf4"}},{"type":"Feature","geometry":{"type":"Point","coordinates":[138.07874356363638,36.06058092727273]},"properties":{"id":1309820520,"element_type":"way","amenity":"toilets","building":"yes"}},{"type":"Feature","geometry":{"type":"Point","coordinates":[138.09377924,35.87690064]},"properties":{"id":1313420176,"element_type":"way","amenity":"toilets","building":"yes"}},{"type":"Feature","geometry":{"type":"Point","coordinates":[138.51359966,36.2785758]},"properties":{"id":1318940828,"element_type":"way","addr:full":"長野県佐久市上平尾2516-6","amenity":"toilets","building":"warehouse","ele":"818.6","height":"5.1","ref:MLIT_PLATEAU":"bldg_c87bfe48-6da7-4123-b392-de9d2ebdfb3c"}},{"type":"Feature","geometry":{"type":"Point","coordinates":[138.48462042,36.255516699999994]},"properties":{"id":1318949546,"element_type":"way","addr:full":"長野県佐久市猿久保55-1","amenity":"toilets","building":"public","ele":"693.3","height":"3.3","ref:MLIT_PLATEAU":"bldg_0f6b624d-a93e-4811-ba9f-ef2ad503881b"}},{"type":"Feature","geometry":{"type":"Point","coordinates":[138.48640546,36.25631054]},"properties":{"id":1318949741,"element_type":"way","addr:full":"長野県佐久市猿久保55-1","amenity":"toilets","building":"public","ele":"696.3","height":"15","ref:MLIT_PLATEAU":"bldg_d0df49e2-ee2f-4050-853f-be9ca9008e11"}},{"type":"Feature","geometry":{"type":"Point","coordinates":[138.47994842000003,36.25008282]},"properties":{"id":1318950003,"element_type":"way","addr:full":"長野県佐久市中込2945-1","amenity":"toilets","building":"public","ele":"686.5","height":"3.5","ref:MLIT_PLATEAU":"bldg_2298a234-083b-4f03-8fb5-d6f1733d12fd"}},{"type":"Feature","geometry":{"type":"Point","coordinates":[138.48592088,36.25445644]},"properties":{"id":1318950022,"element_type":"way","addr:full":"長野県佐久市猿久保55-1","amenity":"toilets","building":"yes","ele":"694.8","height":"14.7","ref:MLIT_PLATEAU":"bldg_f1134b20-3052-4f90-815e-f9a79e014142"}},{"type":"Feature","geometry":{"type":"Point","coordinates":[138.4850547,36.25634646]},"properties":{"id":1318950382,"element_type":"way","addr:full":"長野県佐久市猿久保52-1","amenity":"toilets","building":"public","ele":"694","height":"3","ref:MLIT_PLATEAU":"bldg_1e75c92c-900b-4329-8d53-372ca3b49b1c"}},{"type":"Feature","geometry":{"type":"Point","coordinates":[138.48675872,36.25535506]},"properties":{"id":1318950411,"element_type":"way","addr:full":"長野県佐久市猿久保55-1","amenity":"toilets","building":"public","ele":"695.7","height":"3","ref:MLIT_PLATEAU":"bldg_75f8341d-7a22-4746-b75d-3f18d2a8f032"}},{"type":"Feature","geometry":{"type":"Point","coordinates":[137.88634778888888,35.60756508888889]},"properties":{"id":1324619580,"element_type":"way","amenity":"toilets","building":"yes"}},{"type":"Feature","geometry":{"type":"Point","coordinates":[138.43073584,36.73389914]},"properties":{"id":1329832390,"element_type":"way","access":"customers","amenity":"toilets","building":"yes","female":"yes","male":"yes","wheelchair":"designated"}},{"type":"Feature","geometry":{"type":"Point","coordinates":[138.23771464,36.51309424]},"properties":{"id":1334003437,"element_type":"way","amenity":"toilets","building":"yes"}},{"type":"Feature","geometry":{"type":"Point","coordinates":[138.21859243999998,36.36117892]},"properties":{"id":1336485528,"element_type":"way","amenity":"toilets","building":"yes"}},{"type":"Feature","geometry":{"type":"Point","coordinates":[137.84101418,35.521681619999995]},"properties":{"id":1355933706,"element_type":"way","amenity":"toilets","building":"yes"}},{"type":"Feature","geometry":{"type":"Point","coordinates":[137.82123176,35.52038254]},"properties":{"id":1369189906,"element_type":"way","amenity":"toilets","building":"yes"}},{"type":"Feature","geometry":{"type":"Point","coordinates":[137.82581634000002,35.52842724]},"properties":{"id":1369973423,"element_type":"way","amenity":"toilets","building":"yes","wheelchair":"limited"}},{"type":"Feature","geometry":{"type":"Point","coordinates":[137.81966668,35.52386176]},"properties":{"id":1369973424,"element_type":"way","amenity":"toilets","building":"yes"}},{"type":"Feature","geometry":{"type":"Point","coordinates":[137.81802896,35.52151112]},"properties":{"id":1369973425,"element_type":"way","amenity":"toilets","building":"yes"}},{"type":"Feature","geometry":{"type":"Point","coordinates":[137.80507777999998,35.51793998]},"properties":{"id":1369973434,"element_type":"way","amenity":"toilets","building":"yes","wheelchair":"limited"}},{"type":"Feature","geometry":{"type":"Point","coordinates":[137.81300868,35.5189159]},"properties":{"id":1370048041,"element_type":"way","amenity":"toilets","building":"yes"}},{"type":"Feature","geometry":{"type":"Point","coordinates":[137.80306235999998,35.50263194]},"properties":{"id":1370315879,"element_type":"way","amenity":"toilets","building":"yes"}},{"type":"Feature","geometry":{"type":"Point","coordinates":[137.83192058,35.5199918]},"properties":{"id":1370346813,"element_type":"way","amenity":"toilets","building":"yes"}},{"type":"Feature","geometry":{"type":"Point","coordinates":[137.928453,36.1643144]},"properties":{"id":1370828708,"element_type":"way","amenity":"toilets","building":"yes"}},{"type":"Feature","geometry":{"type":"Point","coordinates":[137.92296916,36.171679919999995]},"properties":{"id":1370828761,"element_type":"way","amenity":"toilets","building":"yes"}},{"type":"Feature","geometry":{"type":"Point","coordinates":[137.92489782,36.16767266]},"properties":{"id":1370828773,"element_type":"way","amenity":"toilets","building":"yes"}},{"type":"Feature","geometry":{"type":"Point","coordinates":[137.92807701666663,36.17014938333333]},"properties":{"id":1370894593,"element_type":"way","amenity":"toilets","building":"yes"}},{"type":"Feature","geometry":{"type":"Point","coordinates":[137.92934,36.166985100000005]},"properties":{"id":1370894599,"element_type":"way","amenity":"toilets","building":"yes"}},{"type":"Feature","geometry":{"type":"Point","coordinates":[137.926643,36.16694548]},"properties":{"id":1370894602,"element_type":"way","amenity":"toilets","building":"yes"}},{"type":"Feature","geometry":{"type":"Point","coordinates":[137.9262553,36.160295]},"properties":{"id":1370894618,"element_type":"way","amenity":"toilets","building":"yes"}},{"type":"Feature","geometry":{"type":"Point","coordinates":[137.92626098333332,36.15056555]},"properties":{"id":1370894627,"element_type":"way","amenity":"toilets","building":"yes"}},{"type":"Feature","geometry":{"type":"Point","coordinates":[137.91996548000003,36.17343032]},"properties":{"id":1370926615,"element_type":"way","amenity":"toilets","building":"yes"}},{"type":"Feature","geometry":{"type":"Point","coordinates":[137.9183481,36.18091276]},"properties":{"id":1370957643,"element_type":"way","amenity":"toilets","building":"yes"}},{"type":"Feature","geometry":{"type":"Point","coordinates":[137.91833852142858,36.178887292857134]},"properties":{"id":1370957670,"element_type":"way","amenity":"toilets","building":"yes"}},{"type":"Feature","geometry":{"type":"Point","coordinates":[137.9189723,36.17678954285714]},"properties":{"id":1370957672,"element_type":"way","amenity":"toilets","building":"yes"}},{"type":"Feature","geometry":{"type":"Point","coordinates":[137.91796284444445,36.1665329]},"properties":{"id":1371184140,"element_type":"way","amenity":"toilets","building":"yes"}},{"type":"Feature","geometry":{"type":"Point","coordinates":[137.92147326923077,36.16341163846153]},"properties":{"id":1371344459,"element_type":"way","amenity":"toilets","building":"yes"}},{"type":"Feature","geometry":{"type":"Point","coordinates":[137.91809944285714,36.16210065714286]},"properties":{"id":1371344462,"element_type":"way","amenity":"toilets","building":"yes"}},{"type":"Feature","geometry":{"type":"Point","coordinates":[137.92095197999998,36.1593286]},"properties":{"id":1371902796,"element_type":"way","amenity":"toilets","building":"yes"}},{"type":"Feature","geometry":{"type":"Point","coordinates":[137.92207034,36.153877699999995]},"properties":{"id":1371902807,"element_type":"way","amenity":"toilets","building":"yes"}},{"type":"Feature","geometry":{"type":"Point","coordinates":[137.92129833076925,36.16495681538461]},"properties":{"id":1372154875,"element_type":"way","amenity":"toilets","building":"yes"}},{"type":"Feature","geometry":{"type":"Point","coordinates":[137.92629750000003,36.15332266666667]},"properties":{"id":1372154900,"element_type":"way","amenity":"toilets","building":"yes"}},{"type":"Feature","geometry":{"type":"Point","coordinates":[137.92150014999999,36.18057939]},"properties":{"id":1372359116,"element_type":"way","amenity":"toilets","building":"yes"}},{"type":"Feature","geometry":{"type":"Point","coordinates":[137.79841126000002,35.48626406]},"properties":{"id":1384055380,"element_type":"way","amenity":"toilets","building":"yes"}},{"type":"Feature","geometry":{"type":"Point","coordinates":[137.79962013999997,35.48405006]},"properties":{"id":1384055382,"element_type":"way","amenity":"toilets","building":"yes"}},{"type":"Feature","geometry":{"type":"Point","coordinates":[137.81502233999998,35.44902420000001]},"properties":{"id":1384373554,"element_type":"way","amenity":"toilets","building":"yes"}},{"type":"Feature","geometry":{"type":"Point","coordinates":[137.85756902,35.52109086]},"properties":{"id":1385119239,"element_type":"way","amenity":"toilets","building":"yes"}},{"type":"Feature","geometry":{"type":"Point","coordinates":[138.4403017,36.41384812]},"properties":{"id":1385509138,"element_type":"way","amenity":"toilets","building":"yes","fee":"no"}},{"type":"Feature","geometry":{"type":"Point","coordinates":[137.82448834000002,35.520294719999995]},"properties":{"id":1391355722,"element_type":"way","amenity":"toilets","building":"yes"}},{"type":"Feature","geometry":{"type":"Point","coordinates":[137.92933857999998,35.735786919999995]},"properties":{"id":1391648743,"element_type":"way","amenity":"toilets","building":"yes","building:levels":"1"}},{"type":"Feature","geometry":{"type":"Point","coordinates":[137.82547104,35.51831214]},"properties":{"id":1393536335,"element_type":"way","amenity":"toilets","building":"yes"}},{"type":"Feature","geometry":{"type":"Point","coordinates":[137.83964587999998,35.51779484]},"properties":{"id":1411875064,"element_type":"way","amenity":"toilets","building":"yes","wheelchair":"yes"}},{"type":"Feature","geometry":{"type":"Point","coordinates":[137.8403493,35.50838460000001]},"properties":{"id":1416512592,"element_type":"way","amenity":"toilets","building":"yes"}},{"type":"Feature","geometry":{"type":"Point","coordinates":[138.07849122,36.026542600000006]},"properties":{"id":1423777991,"element_type":"way","amenity":"toilets","building":"yes"}}]}