{"type":"FeatureCollection","features":[{"type":"Feature","geometry":{"type":"Point","coordinates":[129.8864485,33.2173432]},"properties":{"id":1786061148,"element_type":"node","amenity":"toilets"}},{"type":"Feature","geometry":{"type":"Point","coordinates":[129.8960616,33.1963231]},"properties":{"id":1815943599,"element_type":"node","amenity":"toilets"}},{"type":"Feature","geometry":{"type":"Point","coordinates":[129.8974831,33.204524]},"properties":{"id":1815943601,"element_type":"node","amenity":"toilets"}},{"type":"Feature","geometry":{"type":"Point","coordinates":[129.9071552,33.2190958]},"properties":{"id":1834137607,"element_type":"node","amenity":"toilets"}},{"type":"Feature","geometry":{"type":"Point","coordinates":[129.9057783,33.2206373]},"properties":{"id":1834137625,"element_type":"node","amenity":"toilets"}},{"type":"Feature","geometry":{"type":"Point","coordinates":[130.3898112,33.3236156]},"properties":{"id":1882727285,"element_type":"node","amenity":"toilets","source":"Bing,2009-4"}},{"type":"Feature","geometry":{"type":"Point","coordinates":[130.3854982,33.3243298]},"properties":{"id":1882727594,"element_type":"node","amenity":"toilets","source":"Bing,2009-4"}},{"type":"Feature","geometry":{"type":"Point","coordinates":[129.984016,33.0624268]},"properties":{"id":1883641135,"element_type":"node","amenity":"toilets"}},{"type":"Feature","geometry":{"type":"Point","coordinates":[130.3177937,33.1928538]},"properties":{"id":1942688247,"element_type":"node","amenity":"toilets"}},{"type":"Feature","geometry":{"type":"Point","coordinates":[130.4816411,33.3836377]},"properties":{"id":2008288028,"element_type":"node","amenity":"toilets"}},{"type":"Feature","geometry":{"type":"Point","coordinates":[129.9291388,33.3139878]},"properties":{"id":2045974525,"element_type":"node","amenity":"toilets"}},{"type":"Feature","geometry":{"type":"Point","coordinates":[129.9455698,33.1666719]},"properties":{"id":2069378848,"element_type":"node","amenity":"toilets"}},{"type":"Feature","geometry":{"type":"Point","coordinates":[129.939733,33.1947864]},"properties":{"id":2069394580,"element_type":"node","amenity":"toilets"}},{"type":"Feature","geometry":{"type":"Point","coordinates":[130.1127602,33.2835943]},"properties":{"id":2586516344,"element_type":"node","amenity":"toilets","wheelchair":"yes"}},{"type":"Feature","geometry":{"type":"Point","coordinates":[129.848631,33.5554629]},"properties":{"id":2910212501,"element_type":"node","amenity":"toilets"}},{"type":"Feature","geometry":{"type":"Point","coordinates":[129.949934,33.1421576]},"properties":{"id":3365357961,"element_type":"node","amenity":"toilets"}},{"type":"Feature","geometry":{"type":"Point","coordinates":[129.8985022,33.1905037]},"properties":{"id":3755776810,"element_type":"node","amenity":"toilets","mapillary":"348232866809802","wheelchair":"yes"}},{"type":"Feature","geometry":{"type":"Point","coordinates":[130.529558,33.440881]},"properties":{"id":3863901758,"element_type":"node","access":"permissive","amenity":"toilets","changing_table":"yes","fee":"no","wheelchair":"limited"}},{"type":"Feature","geometry":{"type":"Point","coordinates":[129.8881563,33.1830139]},"properties":{"id":3962797326,"element_type":"node","access":"public","amenity":"toilets","drinking_water":"yes","toilets:disposal":"flush","toilets:position":"seated;urinal","unisex":"yes","wheelchair":"yes"}},{"type":"Feature","geometry":{"type":"Point","coordinates":[129.8819043,33.1834679]},"properties":{"id":3962797327,"element_type":"node","access":"yes","amenity":"toilets","fee":"no","toilets:disposal":"flush","toilets:position":"seated;urinal","unisex":"yes","wheelchair":"yes"}},{"type":"Feature","geometry":{"type":"Point","coordinates":[129.9082525,33.1943346]},"properties":{"id":3962797328,"element_type":"node","access":"public","amenity":"toilets","fee":"no","toilets:disposal":"flush","toilets:position":"squat","unisex":"yes","wheelchair":"yes"}},{"type":"Feature","geometry":{"type":"Point","coordinates":[129.8450184,33.1910494]},"properties":{"id":3962850502,"element_type":"node","access":"public","amenity":"toilets","toilets:disposal":"pitlatrine","toilets:position":"squat","unisex":"yes"}},{"type":"Feature","geometry":{"type":"Point","coordinates":[129.8486661,33.4719324]},"properties":{"id":3993282493,"element_type":"node","amenity":"toilets"}},{"type":"Feature","geometry":{"type":"Point","coordinates":[130.1973061,33.2904612]},"properties":{"id":4041278415,"element_type":"node","amenity":"toilets"}},{"type":"Feature","geometry":{"type":"Point","coordinates":[129.8683936,33.5282264]},"properties":{"id":4092700911,"element_type":"node","amenity":"toilets"}},{"type":"Feature","geometry":{"type":"Point","coordinates":[130.0022759,33.3471642]},"properties":{"id":4230225019,"element_type":"node","amenity":"toilets"}},{"type":"Feature","geometry":{"type":"Point","coordinates":[129.9845724,33.1085192]},"properties":{"id":4438768439,"element_type":"node","amenity":"toilets"}},{"type":"Feature","geometry":{"type":"Point","coordinates":[129.9584596,33.4638511]},"properties":{"id":4945162454,"element_type":"node","amenity":"toilets"}},{"type":"Feature","geometry":{"type":"Point","coordinates":[130.454881,33.3811075]},"properties":{"id":5211322787,"element_type":"node","amenity":"toilets","unisex":"yes"}},{"type":"Feature","geometry":{"type":"Point","coordinates":[130.196993,33.2876562]},"properties":{"id":5211409222,"element_type":"node","amenity":"toilets"}},{"type":"Feature","geometry":{"type":"Point","coordinates":[130.3896981,33.3241508]},"properties":{"id":5224683853,"element_type":"node","amenity":"toilets"}},{"type":"Feature","geometry":{"type":"Point","coordinates":[130.3830918,33.3292953]},"properties":{"id":5224689440,"element_type":"node","amenity":"toilets"}},{"type":"Feature","geometry":{"type":"Point","coordinates":[130.3836653,33.331442]},"properties":{"id":5224700296,"element_type":"node","amenity":"toilets"}},{"type":"Feature","geometry":{"type":"Point","coordinates":[130.2853768,33.2018701]},"properties":{"id":5417024148,"element_type":"node","amenity":"toilets"}},{"type":"Feature","geometry":{"type":"Point","coordinates":[130.2805802,33.2670278]},"properties":{"id":5417968605,"element_type":"node","amenity":"toilets"}},{"type":"Feature","geometry":{"type":"Point","coordinates":[130.2800023,33.2661443]},"properties":{"id":5417970247,"element_type":"node","amenity":"toilets"}},{"type":"Feature","geometry":{"type":"Point","coordinates":[130.4024594,33.3140528]},"properties":{"id":5528094222,"element_type":"node","access":"yes","amenity":"toilets","fee":"no","toilets:disposal":"flush","unisex":"yes"}},{"type":"Feature","geometry":{"type":"Point","coordinates":[130.4005358,33.3136032]},"properties":{"id":5528094223,"element_type":"node","access":"yes","amenity":"toilets","fee":"no","toilets:disposal":"flush","unisex":"yes"}},{"type":"Feature","geometry":{"type":"Point","coordinates":[130.430603,33.3327622]},"properties":{"id":5564750758,"element_type":"node","amenity":"toilets"}},{"type":"Feature","geometry":{"type":"Point","coordinates":[129.8481112,33.3535252]},"properties":{"id":5575237601,"element_type":"node","amenity":"toilets"}},{"type":"Feature","geometry":{"type":"Point","coordinates":[130.1081576,33.0743519]},"properties":{"id":5810133156,"element_type":"node","amenity":"toilets"}},{"type":"Feature","geometry":{"type":"Point","coordinates":[129.8513006,33.2268262]},"properties":{"id":6054686067,"element_type":"node","amenity":"toilets"}},{"type":"Feature","geometry":{"type":"Point","coordinates":[130.1298229,33.4366705]},"properties":{"id":6231551325,"element_type":"node","access":"yes","amenity":"toilets","fee":"no","female":"yes","male":"yes","toilets:disposal":"flush"}},{"type":"Feature","geometry":{"type":"Point","coordinates":[130.019378,33.4298404]},"properties":{"id":6418961286,"element_type":"node","amenity":"toilets"}},{"type":"Feature","geometry":{"type":"Point","coordinates":[130.1554865,32.9875921]},"properties":{"id":6480849628,"element_type":"node","amenity":"toilets"}},{"type":"Feature","geometry":{"type":"Point","coordinates":[130.157079,32.9873333]},"properties":{"id":6480849631,"element_type":"node","amenity":"toilets"}},{"type":"Feature","geometry":{"type":"Point","coordinates":[130.1182849,33.444587]},"properties":{"id":6611820688,"element_type":"node","amenity":"toilets"}},{"type":"Feature","geometry":{"type":"Point","coordinates":[130.5204728,33.3726367]},"properties":{"id":6618493647,"element_type":"node","amenity":"toilets","toilets:disposal":"flush"}},{"type":"Feature","geometry":{"type":"Point","coordinates":[130.5213228,33.3714852]},"properties":{"id":6618493667,"element_type":"node","amenity":"toilets","toilets:disposal":"flush"}},{"type":"Feature","geometry":{"type":"Point","coordinates":[130.5209717,33.3717815]},"properties":{"id":6618493668,"element_type":"node","amenity":"toilets","toilets:disposal":"flush"}},{"type":"Feature","geometry":{"type":"Point","coordinates":[130.5202703,33.3711449]},"properties":{"id":6618493669,"element_type":"node","amenity":"toilets","toilets:disposal":"flush"}},{"type":"Feature","geometry":{"type":"Point","coordinates":[129.9905378,33.4081321]},"properties":{"id":6708905079,"element_type":"node","amenity":"toilets"}},{"type":"Feature","geometry":{"type":"Point","coordinates":[130.5193275,33.3736469]},"properties":{"id":6797844286,"element_type":"node","access":"customers","amenity":"toilets","fee":"no","level":"0","toilets:disposal":"flush","toilets:position":"squat;seated;urinal","wheelchair":"designated"}},{"type":"Feature","geometry":{"type":"Point","coordinates":[130.1092762,33.0780801]},"properties":{"id":7041217899,"element_type":"node","amenity":"toilets"}},{"type":"Feature","geometry":{"type":"Point","coordinates":[130.1098569,33.0739895]},"properties":{"id":7041254669,"element_type":"node","amenity":"toilets"}},{"type":"Feature","geometry":{"type":"Point","coordinates":[130.5085706,33.3886102]},"properties":{"id":7880492918,"element_type":"node","access":"yes","amenity":"toilets"}},{"type":"Feature","geometry":{"type":"Point","coordinates":[129.8401638,33.5856574]},"properties":{"id":8195834320,"element_type":"node","amenity":"toilets"}},{"type":"Feature","geometry":{"type":"Point","coordinates":[129.8975579,33.5958566]},"properties":{"id":8197974617,"element_type":"node","amenity":"toilets"}},{"type":"Feature","geometry":{"type":"Point","coordinates":[129.992949,33.4467583]},"properties":{"id":8918263461,"element_type":"node","amenity":"toilets","toilets:disposal":"flush"}},{"type":"Feature","geometry":{"type":"Point","coordinates":[130.1953384,33.1772075]},"properties":{"id":9025535099,"element_type":"node","amenity":"toilets"}},{"type":"Feature","geometry":{"type":"Point","coordinates":[130.1953446,33.1773364]},"properties":{"id":9025535104,"element_type":"node","amenity":"toilets"}},{"type":"Feature","geometry":{"type":"Point","coordinates":[130.2953324,33.2523851]},"properties":{"id":9119839660,"element_type":"node","access":"yes","amenity":"toilets","male":"yes","toilets:disposal":"flush","wheelchair":"no"}},{"type":"Feature","geometry":{"type":"Point","coordinates":[130.295347,33.252375]},"properties":{"id":9119848923,"element_type":"node","access":"yes","amenity":"toilets","female":"yes","toilets:disposal":"flush","wheelchair":"no"}},{"type":"Feature","geometry":{"type":"Point","coordinates":[130.2853587,33.2685013]},"properties":{"id":9655449415,"element_type":"node","amenity":"toilets"}},{"type":"Feature","geometry":{"type":"Point","coordinates":[130.2680925,33.3255105]},"properties":{"id":9716815205,"element_type":"node","amenity":"toilets"}},{"type":"Feature","geometry":{"type":"Point","coordinates":[130.2993434,33.2587491]},"properties":{"id":9776334612,"element_type":"node","amenity":"toilets","toilets:disposal":"flush","unisex":"yes"}},{"type":"Feature","geometry":{"type":"Point","coordinates":[130.3077149,33.2219226]},"properties":{"id":9930955213,"element_type":"node","access":"yes","amenity":"toilets","name":"みんなのトイレ","toilets:disposal":"flush","wheelchair":"yes"}},{"type":"Feature","geometry":{"type":"Point","coordinates":[130.307794,33.2228527]},"properties":{"id":9930955214,"element_type":"node","amenity":"toilets","changing_table":"yes","name":"みんなのトイレ","wheelchair":"yes"}},{"type":"Feature","geometry":{"type":"Point","coordinates":[130.1457598,33.0747277]},"properties":{"id":9943171091,"element_type":"node","amenity":"toilets","female":"yes"}},{"type":"Feature","geometry":{"type":"Point","coordinates":[130.1457518,33.0746788]},"properties":{"id":9943171092,"element_type":"node","amenity":"toilets","male":"yes"}},{"type":"Feature","geometry":{"type":"Point","coordinates":[130.1457907,33.0753213]},"properties":{"id":9943171101,"element_type":"node","amenity":"toilets"}},{"type":"Feature","geometry":{"type":"Point","coordinates":[130.3598367,33.2168051]},"properties":{"id":11277010661,"element_type":"node","access":"yes","amenity":"toilets","fee":"no","toilets:disposal":"flush","unisex":"yes"}},{"type":"Feature","geometry":{"type":"Point","coordinates":[130.0945727,33.1110232]},"properties":{"id":11760571657,"element_type":"node","access":"yes","amenity":"toilets","check_date":"2024-03-25","fee":"no","level":"0","opening_hours":"24/7","source":"survey","toilets:disposal":"flush","wheelchair":"yes"}},{"type":"Feature","geometry":{"type":"Point","coordinates":[130.1582379,33.0593063]},"properties":{"id":12019767991,"element_type":"node","amenity":"toilets"}},{"type":"Feature","geometry":{"type":"Point","coordinates":[130.2111451,33.1988514]},"properties":{"id":12019768140,"element_type":"node","amenity":"toilets"}},{"type":"Feature","geometry":{"type":"Point","coordinates":[130.2085834,33.19869]},"properties":{"id":12019774723,"element_type":"node","amenity":"toilets"}},{"type":"Feature","geometry":{"type":"Point","coordinates":[130.1159825,33.0926053]},"properties":{"id":12019797395,"element_type":"node","amenity":"toilets"}},{"type":"Feature","geometry":{"type":"Point","coordinates":[129.9817791,33.4525631]},"properties":{"id":12109817787,"element_type":"node","amenity":"toilets"}},{"type":"Feature","geometry":{"type":"Point","coordinates":[129.9880484,33.4481563]},"properties":{"id":12111729121,"element_type":"node","amenity":"toilets"}},{"type":"Feature","geometry":{"type":"Point","coordinates":[129.9690503,33.4472441]},"properties":{"id":12843681639,"element_type":"node","access":"permissive","amenity":"toilets","fee":"no","female":"yes","male":"yes","toilets:disposal":"flush","unisex":"yes","wheelchair":"yes"}},{"type":"Feature","geometry":{"type":"Point","coordinates":[130.2710712,33.17477298]},"properties":{"id":183940267,"element_type":"way","amenity":"toilets","building":"yes"}},{"type":"Feature","geometry":{"type":"Point","coordinates":[130.3182302,33.239643883333336]},"properties":{"id":184888205,"element_type":"way","amenity":"toilets","building":"yes","name":"旧南佐賀駅舎（復元）"}},{"type":"Feature","geometry":{"type":"Point","coordinates":[129.87982426,33.52872938]},"properties":{"id":331315284,"element_type":"way","amenity":"toilets","building":"yes","source":"Bing, 2011-4"}},{"type":"Feature","geometry":{"type":"Point","coordinates":[129.87443738,33.528664879999994]},"properties":{"id":331778255,"element_type":"way","amenity":"toilets","building":"yes"}},{"type":"Feature","geometry":{"type":"Point","coordinates":[130.30286585999997,33.24653208]},"properties":{"id":332123637,"element_type":"way","access":"yes","amenity":"toilets","building":"yes","drinking_water":"no","fee":"no","female":"yes","male":"yes","source":"Japan GSI ortho Imagery","toilets:disposal":"flush"}},{"type":"Feature","geometry":{"type":"Point","coordinates":[130.02803056,33.18959151999999]},"properties":{"id":454495784,"element_type":"way","amenity":"toilets","building":"yes"}},{"type":"Feature","geometry":{"type":"Point","coordinates":[130.0289416,33.188419880000005]},"properties":{"id":454495799,"element_type":"way","amenity":"toilets","building":"yes"}},{"type":"Feature","geometry":{"type":"Point","coordinates":[130.02519478,33.1961089]},"properties":{"id":454495816,"element_type":"way","amenity":"toilets","building":"yes"}},{"type":"Feature","geometry":{"type":"Point","coordinates":[130.0264938777778,33.1946617]},"properties":{"id":454668686,"element_type":"way","amenity":"toilets","building":"yes"}},{"type":"Feature","geometry":{"type":"Point","coordinates":[130.02212242,33.18861996]},"properties":{"id":454668692,"element_type":"way","amenity":"toilets","building":"yes"}},{"type":"Feature","geometry":{"type":"Point","coordinates":[130.01734368571428,33.15966087142857]},"properties":{"id":461068928,"element_type":"way","access":"yes","amenity":"toilets","building":"yes","changing_table":"yes","drinking_water":"no","fee":"no","female":"yes","male":"yes","operator":"西日本高速道路","toilets:disposal":"flush","toilets:position":"seated;urinal","wheelchair":"yes"}},{"type":"Feature","geometry":{"type":"Point","coordinates":[130.01702485,33.161258124999996]},"properties":{"id":461068947,"element_type":"way","access":"yes","amenity":"toilets","building":"yes","changing_table":"yes","drinking_water":"no","fee":"no","female":"yes","male":"yes","operator":"西日本高速道路","toilets:disposal":"flush","toilets:position":"seated;urinal","wheelchair":"yes"}},{"type":"Feature","geometry":{"type":"Point","coordinates":[130.30001534,33.24539452]},"properties":{"id":465072705,"element_type":"way","access":"yes","amenity":"toilets","building":"yes","changing_table":"yes","drinking_water":"no","fee":"no","female":"yes","male":"yes","operator":"佐賀県","source":"Japan GSI ortho Imagery","toilets:disposal":"flush","wheelchair":"yes"}},{"type":"Feature","geometry":{"type":"Point","coordinates":[130.04155118,33.207862739999996]},"properties":{"id":467548997,"element_type":"way","access":"yes","amenity":"toilets","female":"no"}},{"type":"Feature","geometry":{"type":"Point","coordinates":[129.95601437142858,33.19173554285714]},"properties":{"id":476845910,"element_type":"way","access":"yes","amenity":"toilets","building":"yes","drinking_water":"no","fee":"no","female":"yes","male":"yes","operator":"道の駅　山内","source":"GSImaps/airphoto","toilets:disposal":"flush","toilets:position":"seated;urinal","wheelchair":"yes"}},{"type":"Feature","geometry":{"type":"Point","coordinates":[130.24837038571428,33.23883007142857]},"properties":{"id":484451486,"element_type":"way","access":"yes","amenity":"toilets","building":"yes","drinking_water":"no","fee":"no","female":"yes","male":"yes","name":"シンボル噴水トイレ","toilets:disposal":"flush"}},{"type":"Feature","geometry":{"type":"Point","coordinates":[130.2499413785714,33.241455450000004]},"properties":{"id":484451487,"element_type":"way","access":"yes","amenity":"toilets","building":"yes","drinking_water":"no","fee":"no","female":"yes","male":"yes","name":"じゃぶじゃぶ池トイレ","toilets:disposal":"flush"}},{"type":"Feature","geometry":{"type":"Point","coordinates":[130.24841472,33.241702679999996]},"properties":{"id":484451488,"element_type":"way","access":"yes","amenity":"toilets","building":"yes","drinking_water":"no","fee":"no","female":"yes","male":"yes","name":"健康広場トイレ","toilets:disposal":"flush"}},{"type":"Feature","geometry":{"type":"Point","coordinates":[130.24638364,33.24206322]},"properties":{"id":484451490,"element_type":"way","access":"yes","amenity":"toilets","building":"yes","drinking_water":"no","fee":"no","female":"yes","male":"yes","name":"西口広場トイレ","toilets:disposal":"flush"}},{"type":"Feature","geometry":{"type":"Point","coordinates":[130.24680056000003,33.24006174]},"properties":{"id":484451495,"element_type":"way","access":"yes","amenity":"toilets","building":"yes","drinking_water":"no","fee":"no","female":"yes","male":"yes","name":"桜づつみトイレ","toilets:disposal":"flush"}},{"type":"Feature","geometry":{"type":"Point","coordinates":[130.25054068571427,33.24029504285714]},"properties":{"id":484451496,"element_type":"way","access":"yes","amenity":"toilets","building":"yes","drinking_water":"no","fee":"no","female":"yes","male":"yes","name":"せせらぎ広場トイレ","toilets:disposal":"flush"}},{"type":"Feature","geometry":{"type":"Point","coordinates":[130.29546354000001,33.25226062]},"properties":{"id":485763994,"element_type":"way","addr:city":"佐賀市","addr:housenumber":"6","addr:province":"佐賀","addr:quarter":"中の小路","amenity":"toilets","leisure":"park","name":"中の小路公園"}},{"type":"Feature","geometry":{"type":"Point","coordinates":[129.91075124,33.20956158]},"properties":{"id":487549482,"element_type":"way","access":"yes","amenity":"toilets","building":"yes","drinking_water":"no","fee":"no","female":"yes","male":"yes","toilets:disposal":"pitlatrine"}},{"type":"Feature","geometry":{"type":"Point","coordinates":[129.90448106,33.213252239999996]},"properties":{"id":487549495,"element_type":"way","access":"yes","amenity":"toilets","building":"yes","drinking_water":"no","fee":"no","female":"yes","male":"yes","source":"GSImaps/airphoto"}},{"type":"Feature","geometry":{"type":"Point","coordinates":[130.09767258,33.240121699999996]},"properties":{"id":487614247,"element_type":"way","access":"yes","amenity":"toilets","building":"yes","drinking_water":"no","fee":"no","toilets:disposal":"pitlatrine"}},{"type":"Feature","geometry":{"type":"Point","coordinates":[129.9715932,33.454267959999996]},"properties":{"id":494798600,"element_type":"way","amenity":"toilets","building":"yes"}},{"type":"Feature","geometry":{"type":"Point","coordinates":[129.9794035,33.4532765]},"properties":{"id":500427851,"element_type":"way","amenity":"toilets","building":"yes"}},{"type":"Feature","geometry":{"type":"Point","coordinates":[129.9779216,33.45208128]},"properties":{"id":500702275,"element_type":"way","amenity":"toilets","building":"yes"}},{"type":"Feature","geometry":{"type":"Point","coordinates":[130.38335704285714,33.32613348571429]},"properties":{"id":511641907,"element_type":"way","amenity":"toilets","building":"yes","source":"Bing"}},{"type":"Feature","geometry":{"type":"Point","coordinates":[130.14213683999998,33.34330338]},"properties":{"id":517184152,"element_type":"way","access":"yes","amenity":"toilets","building":"yes","changing_table":"no","drinking_water":"no","fee":"no","female":"yes","male":"yes","operator":"小城市","source":"GSImaps/ortho Imagery","toilets:disposal":"flush","toilets:position":"seated;urinal","wheelchair":"yes"}},{"type":"Feature","geometry":{"type":"Point","coordinates":[130.3039010611111,33.25184023888889]},"properties":{"id":528257625,"element_type":"way","access":"yes","amenity":"toilets","building":"yes","female":"yes","male":"yes","unisex":"no"}},{"type":"Feature","geometry":{"type":"Point","coordinates":[129.88399879999997,33.53924972]},"properties":{"id":530223928,"element_type":"way","access":"yes","amenity":"toilets","building":"yes"}},{"type":"Feature","geometry":{"type":"Point","coordinates":[130.07865907142858,33.25234221428572]},"properties":{"id":532123427,"element_type":"way","amenity":"toilets","building":"yes"}},{"type":"Feature","geometry":{"type":"Point","coordinates":[130.0825415,33.262140469230765]},"properties":{"id":532124826,"element_type":"way","amenity":"toilets","building":"yes"}},{"type":"Feature","geometry":{"type":"Point","coordinates":[130.31131084,33.33020078]},"properties":{"id":538880143,"element_type":"way","access":"yes","amenity":"toilets","bridge":"yes","building":"yes","changing_table":"yes","drinking_water":"no","fee":"no","female":"yes","male":"yes","source":"GSImaps/ortho","toilets:disposal":"flush","toilets:position":"seated;urinal","wheelchair":"yes"}},{"type":"Feature","geometry":{"type":"Point","coordinates":[130.3119251,33.328179760000005]},"properties":{"id":538880156,"element_type":"way","access":"yes","amenity":"toilets","building":"yes","changing_table":"yes","drinking_water":"no","fee":"no","female":"yes","male":"yes","source":"GSImaps/ortho","toilets:disposal":"flush","toilets:position":"seated;urinal","wheelchair":"yes"}},{"type":"Feature","geometry":{"type":"Point","coordinates":[130.07472367999998,33.176802640000005]},"properties":{"id":541293210,"element_type":"way","access":"yes","amenity":"toilets","building":"yes","drinking_water":"no","fee":"no","female":"yes","male":"yes","toilets:disposal":"pitlatrine"}},{"type":"Feature","geometry":{"type":"Point","coordinates":[130.29859326000002,33.24415054]},"properties":{"id":545171984,"element_type":"way","amenity":"toilets","building":"yes","source":"Bing"}},{"type":"Feature","geometry":{"type":"Point","coordinates":[130.29671474,33.2453357]},"properties":{"id":545171993,"element_type":"way","amenity":"toilets","building":"yes","source":"Bing"}},{"type":"Feature","geometry":{"type":"Point","coordinates":[129.99437944000002,33.251906500000004]},"properties":{"id":551772281,"element_type":"way","access":"yes","amenity":"toilets","building":"yes","fee":"no"}},{"type":"Feature","geometry":{"type":"Point","coordinates":[130.34065506,33.17560742]},"properties":{"id":551956463,"element_type":"way","amenity":"toilets","building":"yes"}},{"type":"Feature","geometry":{"type":"Point","coordinates":[129.84935142,33.211065739999995]},"properties":{"id":557165148,"element_type":"way","access":"yes","amenity":"toilets","female":"yes","male":"yes","toilets:disposal":"flush"}},{"type":"Feature","geometry":{"type":"Point","coordinates":[129.98592872,33.102630899999994]},"properties":{"id":560646820,"element_type":"way","amenity":"toilets","building":"yes"}},{"type":"Feature","geometry":{"type":"Point","coordinates":[130.27410233333336,33.30379776666666]},"properties":{"id":561436148,"element_type":"way","amenity":"toilets","building":"yes"}},{"type":"Feature","geometry":{"type":"Point","coordinates":[130.2817873142857,33.26487278571429]},"properties":{"id":561948287,"element_type":"way","amenity":"toilets","building":"yes"}},{"type":"Feature","geometry":{"type":"Point","coordinates":[130.28261756,33.26618993999999]},"properties":{"id":561952994,"element_type":"way","amenity":"toilets","building":"yes"}},{"type":"Feature","geometry":{"type":"Point","coordinates":[130.28113589999998,33.26572844]},"properties":{"id":561952997,"element_type":"way","amenity":"toilets","building":"yes"}},{"type":"Feature","geometry":{"type":"Point","coordinates":[130.28245273333334,33.26501117777778]},"properties":{"id":561952998,"element_type":"way","amenity":"toilets","building":"yes"}},{"type":"Feature","geometry":{"type":"Point","coordinates":[130.27091454285716,33.17538447142857]},"properties":{"id":563857439,"element_type":"way","amenity":"toilets","building":"yes"}},{"type":"Feature","geometry":{"type":"Point","coordinates":[130.33933166,33.206731000000005]},"properties":{"id":566013152,"element_type":"way","amenity":"toilets","building":"yes"}},{"type":"Feature","geometry":{"type":"Point","coordinates":[130.33934548,33.20677888]},"properties":{"id":566013153,"element_type":"way","amenity":"toilets","building":"yes"}},{"type":"Feature","geometry":{"type":"Point","coordinates":[130.29216045714287,33.261585885714275]},"properties":{"id":566128860,"element_type":"way","access":"yes","amenity":"toilets","building":"toilets"}},{"type":"Feature","geometry":{"type":"Point","coordinates":[130.27482700000002,33.30010874]},"properties":{"id":571208891,"element_type":"way","amenity":"toilets","building":"yes"}},{"type":"Feature","geometry":{"type":"Point","coordinates":[130.27588798000002,33.30093114]},"properties":{"id":571217979,"element_type":"way","amenity":"toilets","building":"yes"}},{"type":"Feature","geometry":{"type":"Point","coordinates":[130.3036919,33.25317175714286]},"properties":{"id":571936288,"element_type":"way","amenity":"toilets","building":"yes"}},{"type":"Feature","geometry":{"type":"Point","coordinates":[130.32539918000003,33.2558685]},"properties":{"id":577633796,"element_type":"way","amenity":"toilets","building":"yes"}},{"type":"Feature","geometry":{"type":"Point","coordinates":[130.24995021,33.238424725]},"properties":{"id":581594734,"element_type":"way","access":"yes","amenity":"toilets","building":"yes","toilets:disposal":"flush"}},{"type":"Feature","geometry":{"type":"Point","coordinates":[130.2523182,33.24120766]},"properties":{"id":581612761,"element_type":"way","amenity":"toilets","building":"yes","toilets:disposal":"flush"}},{"type":"Feature","geometry":{"type":"Point","coordinates":[130.28391766,33.26891450000001]},"properties":{"id":584160751,"element_type":"way","amenity":"toilets","building":"yes","source:geometry":"GSImaps/std"}},{"type":"Feature","geometry":{"type":"Point","coordinates":[129.97852062,33.4540042]},"properties":{"id":587966473,"element_type":"way","amenity":"toilets","building":"yes","source":"Bing"}},{"type":"Feature","geometry":{"type":"Point","coordinates":[129.97785194,33.452096080000004]},"properties":{"id":587969620,"element_type":"way","amenity":"toilets","building":"yes","source":"Bing"}},{"type":"Feature","geometry":{"type":"Point","coordinates":[130.11541898000002,33.23529602]},"properties":{"id":604105334,"element_type":"way","access":"yes","amenity":"toilets","building":"yes"}},{"type":"Feature","geometry":{"type":"Point","coordinates":[129.8703974125,33.528550987500005]},"properties":{"id":620517819,"element_type":"way","amenity":"toilets","building":"yes","source":"Bing"}},{"type":"Feature","geometry":{"type":"Point","coordinates":[129.97204566,33.44883672]},"properties":{"id":621132993,"element_type":"way","amenity":"toilets","building":"yes","source":"Bing"}},{"type":"Feature","geometry":{"type":"Point","coordinates":[129.97763512,33.45302546]},"properties":{"id":621421645,"element_type":"way","amenity":"toilets","building":"yes","source":"Bing"}},{"type":"Feature","geometry":{"type":"Point","coordinates":[130.30545636000002,33.33199483999999]},"properties":{"id":629157520,"element_type":"way","amenity":"toilets","building":"yes"}},{"type":"Feature","geometry":{"type":"Point","coordinates":[130.30964814285713,33.331160628571425]},"properties":{"id":629157802,"element_type":"way","amenity":"toilets","building":"yes"}},{"type":"Feature","geometry":{"type":"Point","coordinates":[130.34578168,33.18224299999999]},"properties":{"id":638930435,"element_type":"way","amenity":"toilets","building":"yes"}},{"type":"Feature","geometry":{"type":"Point","coordinates":[130.46495694,33.34221702]},"properties":{"id":659010276,"element_type":"way","amenity":"toilets","building":"yes"}},{"type":"Feature","geometry":{"type":"Point","coordinates":[130.25747354,33.33925878]},"properties":{"id":666023185,"element_type":"way","access":"yes","amenity":"toilets","building":"yes","female":"yes","male":"yes"}},{"type":"Feature","geometry":{"type":"Point","coordinates":[130.26441982,33.339785500000005]},"properties":{"id":666023202,"element_type":"way","access":"yes","amenity":"toilets","building":"yes","fee":"no"}},{"type":"Feature","geometry":{"type":"Point","coordinates":[130.15706442,32.987323020000005]},"properties":{"id":690708450,"element_type":"way","amenity":"toilets","building":"yes"}},{"type":"Feature","geometry":{"type":"Point","coordinates":[130.15548062,32.9875906]},"properties":{"id":690719112,"element_type":"way","amenity":"toilets","building":"yes"}},{"type":"Feature","geometry":{"type":"Point","coordinates":[130.14117298000002,33.33284458]},"properties":{"id":698140628,"element_type":"way","access":"yes","amenity":"toilets","building":"yes","female":"yes","male":"yes","source":"GSImaps/ortho Imagery","toilets:disposal":"flush"}},{"type":"Feature","geometry":{"type":"Point","coordinates":[130.27501092000003,33.46209734]},"properties":{"id":700108004,"element_type":"way","amenity":"toilets","building":"yes"}},{"type":"Feature","geometry":{"type":"Point","coordinates":[130.0293817,33.177191400000005]},"properties":{"id":740625897,"element_type":"way","amenity":"toilets","building":"yes"}},{"type":"Feature","geometry":{"type":"Point","coordinates":[130.31091834,33.2239588]},"properties":{"id":817774602,"element_type":"way","amenity":"toilets"}},{"type":"Feature","geometry":{"type":"Point","coordinates":[130.03833312,33.36766478]},"properties":{"id":818248398,"element_type":"way","access":"yes","amenity":"toilets","source":"GSImaps/ortho"}},{"type":"Feature","geometry":{"type":"Point","coordinates":[129.8146349,33.21781718333334]},"properties":{"id":819746683,"element_type":"way","access":"yes","amenity":"toilets","building":"yes"}},{"type":"Feature","geometry":{"type":"Point","coordinates":[130.38047994000001,33.337787399999996]},"properties":{"id":899114657,"element_type":"way","amenity":"toilets","building":"yes"}},{"type":"Feature","geometry":{"type":"Point","coordinates":[129.96058364615385,33.43811522307693]},"properties":{"id":953871910,"element_type":"way","amenity":"toilets","building":"yes"}},{"type":"Feature","geometry":{"type":"Point","coordinates":[130.00270652,33.44402732]},"properties":{"id":955219833,"element_type":"way","amenity":"toilets","building":"yes"}},{"type":"Feature","geometry":{"type":"Point","coordinates":[130.03475658000002,33.45027602]},"properties":{"id":955536442,"element_type":"way","amenity":"toilets","building":"yes"}},{"type":"Feature","geometry":{"type":"Point","coordinates":[129.96098182,33.358581359999995]},"properties":{"id":978051211,"element_type":"way","access":"yes","amenity":"toilets"}},{"type":"Feature","geometry":{"type":"Point","coordinates":[129.93401011999998,33.09855586]},"properties":{"id":978745547,"element_type":"way","access":"yes","amenity":"toilets","building":"toilets"}},{"type":"Feature","geometry":{"type":"Point","coordinates":[130.21406236,33.32498246]},"properties":{"id":979351759,"element_type":"way","access":"yes","amenity":"toilets","building":"yes","toilets:disposal":"pitlatrine"}},{"type":"Feature","geometry":{"type":"Point","coordinates":[129.98248748,33.09716666]},"properties":{"id":980382070,"element_type":"way","amenity":"toilets","building":"yes"}},{"type":"Feature","geometry":{"type":"Point","coordinates":[130.30781693636365,33.15241765454545]},"properties":{"id":984718770,"element_type":"way","amenity":"toilets","building":"yes"}},{"type":"Feature","geometry":{"type":"Point","coordinates":[130.19851265999998,33.285802780000004]},"properties":{"id":997825957,"element_type":"way","access":"yes","amenity":"toilets","building":"yes"}},{"type":"Feature","geometry":{"type":"Point","coordinates":[130.19216844,33.32826968]},"properties":{"id":1033522552,"element_type":"way","amenity":"toilets","building":"toilets"}},{"type":"Feature","geometry":{"type":"Point","coordinates":[130.10628223999998,33.21265742]},"properties":{"id":1040562089,"element_type":"way","access":"yes","amenity":"toilets","building":"toilets"}},{"type":"Feature","geometry":{"type":"Point","coordinates":[130.06200322,33.2214108]},"properties":{"id":1056907345,"element_type":"way","amenity":"toilets","building":"toilets"}},{"type":"Feature","geometry":{"type":"Point","coordinates":[130.47911549999998,33.33131100000001]},"properties":{"id":1057482560,"element_type":"way","amenity":"toilets","building":"yes"}},{"type":"Feature","geometry":{"type":"Point","coordinates":[130.03426618,33.2982289]},"properties":{"id":1058501426,"element_type":"way","access":"yes","amenity":"toilets","building":"toilets"}},{"type":"Feature","geometry":{"type":"Point","coordinates":[129.97591246,33.08991736]},"properties":{"id":1061970652,"element_type":"way","amenity":"toilets","building":"toilets"}},{"type":"Feature","geometry":{"type":"Point","coordinates":[130.31936398,33.19378462]},"properties":{"id":1064357669,"element_type":"way","amenity":"toilets","building":"yes","name":"鹿江1号広場 公衆トイレ"}},{"type":"Feature","geometry":{"type":"Point","coordinates":[130.31376094,33.254096340000004]},"properties":{"id":1091513634,"element_type":"way","access":"yes","amenity":"toilets","building":"toilets"}},{"type":"Feature","geometry":{"type":"Point","coordinates":[129.97585094000002,33.1090125]},"properties":{"id":1100860644,"element_type":"way","amenity":"toilets","building":"toilets"}},{"type":"Feature","geometry":{"type":"Point","coordinates":[130.4258494,33.30998198]},"properties":{"id":1202865098,"element_type":"way","amenity":"toilets","bench":"yes","bin":"no","fee":"no","toilets:disposal":"flush"}},{"type":"Feature","geometry":{"type":"Point","coordinates":[130.42570134,33.311622639999996]},"properties":{"id":1202865099,"element_type":"way","access":"yes","amenity":"toilets","changing_table":"yes","changing_table:count":"1","fee":"no","toilets:disposal":"flush","unisex":"yes"}},{"type":"Feature","geometry":{"type":"Point","coordinates":[129.84579208,33.27816096]},"properties":{"id":1209125158,"element_type":"way","access":"yes","amenity":"toilets","building":"toilets"}},{"type":"Feature","geometry":{"type":"Point","coordinates":[129.82912164,33.29725414]},"properties":{"id":1210105583,"element_type":"way","access":"yes","amenity":"toilets","building":"toilets"}},{"type":"Feature","geometry":{"type":"Point","coordinates":[129.98805642,33.44817332]},"properties":{"id":1307867115,"element_type":"way","amenity":"toilets","building":"yes"}},{"type":"Feature","geometry":{"type":"Point","coordinates":[130.28694696,33.25385067999999]},"properties":{"id":1356605149,"element_type":"way","access":"yes","amenity":"toilets","building":"toilets"}},{"type":"Feature","geometry":{"type":"Point","coordinates":[130.09475838,32.98535204]},"properties":{"id":1386905088,"element_type":"way","amenity":"toilets","building":"yes"}},{"type":"Feature","geometry":{"type":"Point","coordinates":[130.24962174,33.23662116]},"properties":{"id":1387966415,"element_type":"way","access":"yes","amenity":"toilets","building":"yes","toilets:disposal":"flush"}},{"type":"Feature","geometry":{"type":"Point","coordinates":[130.25188036000003,33.23911404]},"properties":{"id":1387966417,"element_type":"way","access":"yes","amenity":"toilets","building":"yes","toilets:disposal":"flush","wheelchair":"yes"}},{"type":"Feature","geometry":{"type":"Point","coordinates":[130.06291305999997,33.00274434000001]},"properties":{"id":1387992106,"element_type":"way","amenity":"toilets","building":"yes"}}]}