{"type":"FeatureCollection","features":[{"type":"Feature","geometry":{"type":"Point","coordinates":[137.5959476,36.5776317]},"properties":{"id":3762227714,"amenity":"drinking_water","name":"立山玉殿の湧水"}},{"type":"Feature","geometry":{"type":"Point","coordinates":[137.3482953,36.7756102]},"properties":{"id":4027378032,"amenity":"drinking_water","name":"アクアポケット","phone":"076-476-9305"}},{"type":"Feature","geometry":{"type":"Point","coordinates":[137.1009193,36.7121458]},"properties":{"id":5793091080,"amenity":"drinking_water"}},{"type":"Feature","geometry":{"type":"Point","coordinates":[137.0269653,36.5238615]},"properties":{"id":6014797541,"amenity":"drinking_water"}},{"type":"Feature","geometry":{"type":"Point","coordinates":[137.6160625,36.6046961]},"properties":{"id":8737281672,"amenity":"drinking_water","bottle":"no","fee":"no"}},{"type":"Feature","geometry":{"type":"Point","coordinates":[137.0134869,36.7450474]},"properties":{"id":10068900163,"amenity":"drinking_water"}},{"type":"Feature","geometry":{"type":"Point","coordinates":[137.0213086,36.747961]},"properties":{"id":10068906557,"amenity":"drinking_water"}},{"type":"Feature","geometry":{"type":"Point","coordinates":[137.6648967,36.5675452]},"properties":{"id":10142732096,"amenity":"drinking_water","name":"黒部の湧水","name:en":"Kurobe's Spring Water","name:ja":"黒部の湧水"}},{"type":"Feature","geometry":{"type":"Point","coordinates":[137.5828959,36.815725]},"properties":{"id":12432239322,"amenity":"drinking_water","indoor":"no"}}]}
